{
"type": "FeatureCollection",
"name": "districts",
"crs": { "type": "name", "properties": { "name": "urn:ogc:def:crs:OGC:1.3:CRS84" } },
"features": [
{ "type": "Feature", "properties": { "district": "gazipur" }, "geometry": { "type": "Polygon", "coordinates": [ [ [ 90.47395308800003, 23.849283971000034 ], [ 90.464561806000063, 23.84444565900003 ], [ 90.471649693000074, 23.866076909000071 ], [ 90.459603719000086, 23.879623532000039 ], [ 90.46120176200003, 23.889791855000055 ], [ 90.457800620000057, 23.896447100000046 ], [ 90.448504568000033, 23.895780711000043 ], [ 90.438200628000061, 23.901063418000035 ], [ 90.418979225000044, 23.885823727000059 ], [ 90.395715330000087, 23.880157010000062 ], [ 90.39048714900008, 23.893646137000076 ], [ 90.377153039000063, 23.898040091000041 ], [ 90.361427472000059, 23.893503912000028 ], [ 90.353649070000074, 23.885856158000024 ], [ 90.354893368000035, 23.882090360000063 ], [ 90.350187412000082, 23.882334888000059 ], [ 90.348558202000049, 23.895910301000072 ], [ 90.344490435000068, 23.902369143000044 ], [ 90.347770583000056, 23.911567428000069 ], [ 90.348211293000077, 23.930511769000077 ], [ 90.345252920000064, 23.948060908000059 ], [ 90.340842160000079, 23.955569837000041 ], [ 90.335619355000063, 23.954045848000078 ], [ 90.339724401000069, 23.951431564000075 ], [ 90.335466438000083, 23.94788445000006 ], [ 90.330716777000077, 23.950384848000056 ], [ 90.330423641000039, 23.954911234000065 ], [ 90.317366352000079, 23.957524843000044 ], [ 90.319163173000049, 23.950553245000037 ], [ 90.300173956000037, 23.948835874000054 ], [ 90.29781203400006, 23.961874128000034 ], [ 90.282018909000044, 23.964994139000055 ], [ 90.281320681000068, 23.967375440000069 ], [ 90.271243971000047, 23.962462487000039 ], [ 90.269653138000081, 23.968476872000053 ], [ 90.260132561000034, 23.971131309000043 ], [ 90.26201803400005, 23.975402652000071 ], [ 90.250067727000044, 23.992164003000028 ], [ 90.255845230000034, 23.994878280000023 ], [ 90.251998129000071, 24.000267904000054 ], [ 90.260248202000071, 24.010023678000039 ], [ 90.260026180000068, 24.014827537000031 ], [ 90.252333061000058, 24.018559438000068 ], [ 90.250604794000083, 24.022954784000035 ], [ 90.25329277000003, 24.027210776000061 ], [ 90.246029805000035, 24.03331995700006 ], [ 90.238680544000033, 24.029688757000031 ], [ 90.241158831000064, 24.029745278000064 ], [ 90.239713872000038, 24.009210951000057 ], [ 90.222705120000057, 24.010241448000045 ], [ 90.215959030000079, 24.005076716000076 ], [ 90.209512597000071, 24.009885206000035 ], [ 90.204311578000045, 24.005277843000044 ], [ 90.203074954000044, 24.009637014000077 ], [ 90.194352017000085, 24.008249441000032 ], [ 90.191781432000084, 24.014040134000027 ], [ 90.184462392000057, 24.010596515000032 ], [ 90.186089959000071, 24.007364929000062 ], [ 90.181144887000073, 24.005170916000054 ], [ 90.184707983000067, 24.002046560000053 ], [ 90.176378576000047, 24.000330064000025 ], [ 90.170835050000051, 24.001102960000026 ], [ 90.161544932000083, 24.019645668000067 ], [ 90.146930693000058, 24.025791625000068 ], [ 90.150329369000076, 24.052091501000064 ], [ 90.16184036900006, 24.055075659000067 ], [ 90.157761365000056, 24.064273072000049 ], [ 90.172058929000059, 24.075028062000058 ], [ 90.176998285000082, 24.074798878000024 ], [ 90.179137805000039, 24.087531277000039 ], [ 90.172344105000036, 24.096329135000076 ], [ 90.173095904000036, 24.107786777000058 ], [ 90.179750564000074, 24.105386125000052 ], [ 90.185760345000062, 24.097990027000037 ], [ 90.198407692000046, 24.098907839000049 ], [ 90.200925638000058, 24.093779900000072 ], [ 90.209807195000053, 24.094003371000042 ], [ 90.214854506000052, 24.100962449000065 ], [ 90.230432733000043, 24.106034480000062 ], [ 90.229981094000038, 24.113994206000029 ], [ 90.218631359000085, 24.123428607000051 ], [ 90.217194957000061, 24.128411334000077 ], [ 90.219937522000066, 24.142702491000023 ], [ 90.225840263000066, 24.151046911000037 ], [ 90.225956695000036, 24.16250455900007 ], [ 90.241954301000078, 24.184304411000028 ], [ 90.248523844000033, 24.186788958000022 ], [ 90.249200131000066, 24.197866826000052 ], [ 90.258083864000071, 24.202444280000066 ], [ 90.266158458000064, 24.215115905000062 ], [ 90.290016568000055, 24.226077302000078 ], [ 90.288248563000082, 24.241614587000072 ], [ 90.300386358000083, 24.254391131000034 ], [ 90.297866063000072, 24.263807403000044 ], [ 90.30083286100006, 24.269356221000066 ], [ 90.29049776800008, 24.277774912000041 ], [ 90.325357513000085, 24.299189554000066 ], [ 90.347648270000036, 24.293816440000057 ], [ 90.35096967700008, 24.298936663000063 ], [ 90.359284198000068, 24.30013709800005 ], [ 90.356636665000053, 24.287901729000055 ], [ 90.36219346200005, 24.286125673000072 ], [ 90.362498554000069, 24.281004983000059 ], [ 90.376392612000075, 24.284898961000067 ], [ 90.379377717000068, 24.290530261000072 ], [ 90.387565367000036, 24.287771246000034 ], [ 90.392825561000052, 24.281613237000045 ], [ 90.40242478600004, 24.282688321000023 ], [ 90.409358998000073, 24.296688388000064 ], [ 90.421321849000037, 24.308320309000067 ], [ 90.424605626000073, 24.305209857000023 ], [ 90.42811660600006, 24.310199685000043 ], [ 90.426430807000031, 24.330487064000067 ], [ 90.44287170900003, 24.341133049000064 ], [ 90.457959690000052, 24.338902572000052 ], [ 90.472026164000056, 24.328664298000035 ], [ 90.474203089000071, 24.323642622000023 ], [ 90.485157511000068, 24.319496297000057 ], [ 90.487599255000077, 24.314152957000033 ], [ 90.511980066000035, 24.311782034000032 ], [ 90.529010845000073, 24.303294788000073 ], [ 90.521062724000046, 24.287702955000043 ], [ 90.546271476000072, 24.274497500000052 ], [ 90.544212744000049, 24.266073726000059 ], [ 90.563305494000076, 24.256097488000023 ], [ 90.572908377000033, 24.24645126300004 ], [ 90.579577959000062, 24.246510115000035 ], [ 90.603035311000042, 24.262821705000079 ], [ 90.622417557000063, 24.268610267000042 ], [ 90.646877571000061, 24.259596747000046 ], [ 90.657418634000067, 24.250651413000071 ], [ 90.682950300000073, 24.244348320000029 ], [ 90.685353287000055, 24.235647380000046 ], [ 90.672649252000042, 24.222614896000039 ], [ 90.671689413000081, 24.204843064000045 ], [ 90.686337362000074, 24.189527200000043 ], [ 90.684996310000031, 24.150057802000049 ], [ 90.686583118000044, 24.145617209000022 ], [ 90.695300011000086, 24.139958311000044 ], [ 90.67630250600007, 24.115529683000034 ], [ 90.684536447000085, 24.112784602000033 ], [ 90.695528638000042, 24.116488230000073 ], [ 90.703156838000041, 24.107849982000062 ], [ 90.699722344000065, 24.101310363000039 ], [ 90.668132734000039, 24.099659459000065 ], [ 90.656629113000065, 24.092303755000046 ], [ 90.648269365000033, 24.095942578000063 ], [ 90.64284693500008, 24.10726659200003 ], [ 90.639694861000066, 24.106087048000063 ], [ 90.641060400000072, 24.076237755000022 ], [ 90.635334052000076, 24.070778715000074 ], [ 90.652177983000058, 24.038702726000054 ], [ 90.652085982000074, 24.030704216000061 ], [ 90.657043308000084, 24.026571247000049 ], [ 90.658051261000082, 24.013777699000059 ], [ 90.638849563000065, 24.003677645000039 ], [ 90.630064995000055, 23.97945403500006 ], [ 90.618094210000038, 23.968418157000031 ], [ 90.614101903000062, 23.928094121000072 ], [ 90.607092360000081, 23.920757982000055 ], [ 90.595370113000058, 23.915166088000035 ], [ 90.575997716000074, 23.916594146000023 ], [ 90.560391229000061, 23.911095346000025 ], [ 90.562588579000078, 23.902364497000065 ], [ 90.570667870000079, 23.894989313000053 ], [ 90.557176678000076, 23.893043215000034 ], [ 90.553986753000061, 23.885890500000073 ], [ 90.534773640000083, 23.886907417000032 ], [ 90.532952859000034, 23.892041217000042 ], [ 90.525676456000042, 23.896514059000026 ], [ 90.526598705000083, 23.890611164000063 ], [ 90.522097760000065, 23.892131499000072 ], [ 90.516978849000054, 23.887884437000025 ], [ 90.520864247000077, 23.883221986000024 ], [ 90.52017955000008, 23.876419629000054 ], [ 90.505261444000041, 23.874842381000065 ], [ 90.502272177000066, 23.857900823000023 ], [ 90.483183830000087, 23.846895604000053 ], [ 90.47395308800003, 23.849283971000034 ] ] ] } },
{ "type": "Feature", "properties": { "district": "sylhet" }, "geometry": { "type": "Polygon", "coordinates": [ [ [ 91.660921730000041, 24.62590590700006 ], [ 91.654237454000054, 24.628791033000027 ], [ 91.642779595000036, 24.626409357000057 ], [ 91.631586371000083, 24.630732619000071 ], [ 91.645591699000079, 24.642249615000026 ], [ 91.646309299000052, 24.645416066000053 ], [ 91.639662337000061, 24.648238109000033 ], [ 91.640305294000086, 24.657086999000057 ], [ 91.648119480000048, 24.662894679000033 ], [ 91.65759375600004, 24.678699112000061 ], [ 91.652738602000056, 24.678827125000055 ], [ 91.649134007000043, 24.675005690000035 ], [ 91.65446856300008, 24.694969551000042 ], [ 91.647202741000058, 24.696849651000036 ], [ 91.643238883000038, 24.691238635000047 ], [ 91.644121279000046, 24.698419518000037 ], [ 91.661100087000079, 24.700376925000057 ], [ 91.662825277000081, 24.703813679000064 ], [ 91.65717750400006, 24.707555503000037 ], [ 91.658753064000052, 24.712892873000044 ], [ 91.65276212200007, 24.716792403000056 ], [ 91.655471925000086, 24.716384423000022 ], [ 91.659616798000059, 24.723798844000044 ], [ 91.665842204000057, 24.723813329000052 ], [ 91.665572832000066, 24.720657863000042 ], [ 91.672070985000062, 24.71913526700007 ], [ 91.674172032000058, 24.723791092000056 ], [ 91.659566562000066, 24.74254531400004 ], [ 91.66614594300006, 24.748971478000044 ], [ 91.673045974000047, 24.749387796000065 ], [ 91.677467830000069, 24.758117296000023 ], [ 91.676153669000087, 24.761547765000046 ], [ 91.671236398000076, 24.761011318000044 ], [ 91.670676655000079, 24.767998627000054 ], [ 91.666227985000035, 24.768137919000026 ], [ 91.663305204000039, 24.772587265000027 ], [ 91.649747657000034, 24.770420197000078 ], [ 91.651042706000055, 24.777210958000069 ], [ 91.648600195000085, 24.781108492000044 ], [ 91.636042301000032, 24.779860316000054 ], [ 91.644537331000038, 24.786453203000065 ], [ 91.647292157000038, 24.783440521000045 ], [ 91.653697725000086, 24.789591409000025 ], [ 91.652397175000033, 24.79351362400007 ], [ 91.664088844000048, 24.786300295000046 ], [ 91.675139122000076, 24.786706905000074 ], [ 91.670365334000053, 24.790819886000065 ], [ 91.67691128000007, 24.793554096000037 ], [ 91.672364068000036, 24.796230141000024 ], [ 91.674081098000045, 24.806565946000035 ], [ 91.67002404200008, 24.805535732000067 ], [ 91.667272397000033, 24.809978740000076 ], [ 91.666562387000056, 24.807694440000034 ], [ 91.65824930000008, 24.808607905000031 ], [ 91.658086621000052, 24.816081144000066 ], [ 91.662546757000086, 24.815466751000031 ], [ 91.658532842000056, 24.822799917000054 ], [ 91.657109061000085, 24.833917880000058 ], [ 91.658189958000037, 24.829599667000025 ], [ 91.660056883000038, 24.832112679000033 ], [ 91.661435797000081, 24.823769893000076 ], [ 91.664523593000069, 24.82565869900003 ], [ 91.664876057000072, 24.835137925000026 ], [ 91.661092599000085, 24.836557495000022 ], [ 91.660673151000083, 24.84367917700007 ], [ 91.657296240000051, 24.846810761000029 ], [ 91.664487054000062, 24.854361901000061 ], [ 91.675185283000076, 24.857200366000029 ], [ 91.67376050300004, 24.871867295000072 ], [ 91.682442709000043, 24.87004971500005 ], [ 91.684985613000038, 24.860610221000059 ], [ 91.69316505900008, 24.861366975000067 ], [ 91.694490611000049, 24.866682291000075 ], [ 91.697790412000074, 24.866769515000044 ], [ 91.699469719000035, 24.87007129400007 ], [ 91.695832364000069, 24.877661249000028 ], [ 91.691308923000065, 24.875817664000067 ], [ 91.68410676600007, 24.878183941000032 ], [ 91.683480763000034, 24.889865766000071 ], [ 91.676970261000065, 24.889784464000059 ], [ 91.682334117000039, 24.89390665600007 ], [ 91.69003551600008, 24.894242834000067 ], [ 91.68885924600005, 24.896775174000027 ], [ 91.694857514000034, 24.901408286000049 ], [ 91.694051148000085, 24.904067376000057 ], [ 91.681084406000082, 24.904775571000073 ], [ 91.693695328000047, 24.90759769400006 ], [ 91.695118446000038, 24.91135778000006 ], [ 91.691694855000037, 24.916616386000044 ], [ 91.685579103000066, 24.915497248000065 ], [ 91.690907785000036, 24.918976728000075 ], [ 91.687554107000039, 24.924398102000055 ], [ 91.690729148000059, 24.924344627000039 ], [ 91.693861401000049, 24.929446391000056 ], [ 91.689850334000084, 24.933277771000064 ], [ 91.690804596000078, 24.938263762000076 ], [ 91.700732668000057, 24.937806549000072 ], [ 91.703838092000069, 24.942656131000035 ], [ 91.709785264000061, 24.942753894000077 ], [ 91.713712861000033, 24.946557211000027 ], [ 91.704618193000044, 24.949510099000065 ], [ 91.712265608000052, 24.96466209600004 ], [ 91.699355171000036, 24.975232442000049 ], [ 91.703839462000076, 24.976382542000067 ], [ 91.703632449000054, 24.980858021000074 ], [ 91.675177076000068, 24.990703512000039 ], [ 91.666023467000059, 24.998643780000066 ], [ 91.66861933000007, 25.000217271000054 ], [ 91.688450401000068, 24.994642863000024 ], [ 91.696632515000033, 24.997739116000048 ], [ 91.678822743000069, 25.013851945000056 ], [ 91.668122745000062, 25.019422321000036 ], [ 91.668030164000072, 25.023019025000053 ], [ 91.669065688000046, 25.025310271000023 ], [ 91.680984371000079, 25.024519106000071 ], [ 91.672133486000064, 25.03917255500005 ], [ 91.687414726000043, 25.041445947000057 ], [ 91.688636142000064, 25.045466712000064 ], [ 91.683704315000057, 25.050865368000075 ], [ 91.687484947000087, 25.057974775000048 ], [ 91.700683088000062, 25.059184670000036 ], [ 91.71004651700008, 25.066356339000038 ], [ 91.717329274000065, 25.064019092000024 ], [ 91.734990636000077, 25.06536378900006 ], [ 91.729027463000079, 25.069752343000062 ], [ 91.734359816000051, 25.075644361000059 ], [ 91.722729847000039, 25.084758607000026 ], [ 91.718501927000034, 25.092722759000026 ], [ 91.720646568000063, 25.096931097000038 ], [ 91.717713547000074, 25.102159265000068 ], [ 91.724047245000065, 25.109075435000022 ], [ 91.72017315800008, 25.10680972800003 ], [ 91.719419813000059, 25.112231563000023 ], [ 91.726305784000033, 25.120251121000024 ], [ 91.727905025000041, 25.12911865500007 ], [ 91.719008923000047, 25.129638004000071 ], [ 91.720503403000066, 25.135744723000073 ], [ 91.713901418000034, 25.136032291000049 ], [ 91.712765257000058, 25.146964148000052 ], [ 91.705361391000054, 25.149014966000038 ], [ 91.70057601600007, 25.155515207000064 ], [ 91.703639691000035, 25.160084958000027 ], [ 91.705404952000038, 25.157019449000074 ], [ 91.714420647000054, 25.15763217500006 ], [ 91.71647220300008, 25.152439367000056 ], [ 91.732887498000082, 25.150332443000025 ], [ 91.73254558800005, 25.147922 ], [ 91.735400527000081, 25.149828477000028 ], [ 91.736283298000046, 25.143510327000058 ], [ 91.747572840000032, 25.140272124000035 ], [ 91.742428682000082, 25.144489425000074 ], [ 91.749739711000075, 25.159352844000068 ], [ 91.744715148000068, 25.170387380000022 ], [ 91.755951500000037, 25.177601303000074 ], [ 91.753757461000077, 25.172698077000064 ], [ 91.758469971000068, 25.168496405000042 ], [ 91.774469383000053, 25.163280668000027 ], [ 91.788256259000036, 25.167525041000033 ], [ 91.806433660000039, 25.168363492000026 ], [ 91.803941709000071, 25.171852376000061 ], [ 91.817591978000053, 25.171330476000037 ], [ 91.827096628000049, 25.17794662600005 ], [ 91.855513534000067, 25.172619940000061 ], [ 91.875883136000084, 25.177545255000041 ], [ 91.88056130800004, 25.173029079000059 ], [ 91.884428754000055, 25.177207132000035 ], [ 91.894633112000065, 25.176372131000051 ], [ 91.893823057000077, 25.178487196000049 ], [ 91.898437568000077, 25.180202923000024 ], [ 91.930940572000054, 25.181211381000026 ], [ 91.93425503800006, 25.178198325000039 ], [ 91.966517058000079, 25.176543863000063 ], [ 91.980507086000046, 25.171788424000056 ], [ 92.00341755900007, 25.186241394000035 ], [ 92.016917686000056, 25.186224167000034 ], [ 92.026110741000082, 25.17930566900003 ], [ 92.027953717000059, 25.183601998000029 ], [ 92.038899929000081, 25.182420943000068 ], [ 92.040461921000031, 25.186493812000037 ], [ 92.073764612000048, 25.185059033000073 ], [ 92.078751425000064, 25.181053992000045 ], [ 92.083158825000055, 25.182402689000071 ], [ 92.104356747000054, 25.174749336000048 ], [ 92.121052891000033, 25.163698955000029 ], [ 92.132834055000046, 25.160271132000048 ], [ 92.132728163000081, 25.156455796000046 ], [ 92.139643173000081, 25.154674915000044 ], [ 92.137949841000079, 25.151894222000067 ], [ 92.134096382000052, 25.153294837000033 ], [ 92.134297663000041, 25.142968706000033 ], [ 92.144500699000048, 25.139788346000046 ], [ 92.135761486000035, 25.138855921000072 ], [ 92.147320384000068, 25.135403537000059 ], [ 92.150761300000056, 25.138352908000059 ], [ 92.155467143000067, 25.133348577000049 ], [ 92.165666043000044, 25.136021543000027 ], [ 92.158743169000047, 25.133107967000058 ], [ 92.159430116000067, 25.130113635000043 ], [ 92.164810915000032, 25.130603524000037 ], [ 92.159492239000031, 25.126710409000054 ], [ 92.170859419000067, 25.128700798000068 ], [ 92.176654931000087, 25.123999568000045 ], [ 92.178901489000054, 25.126381902000048 ], [ 92.176660165000044, 25.122982638000053 ], [ 92.183824136000055, 25.11819564700005 ], [ 92.188004547000048, 25.133581450000065 ], [ 92.191418003000081, 25.135369780000076 ], [ 92.195180867000033, 25.130192583000053 ], [ 92.19442377200005, 25.125753433000057 ], [ 92.212963252000065, 25.121089865000044 ], [ 92.219532926000056, 25.116109866000045 ], [ 92.20033911400003, 25.120119557000066 ], [ 92.19609127700005, 25.10816496700005 ], [ 92.202670407000085, 25.106503556000064 ], [ 92.206906512000046, 25.108774983000046 ], [ 92.221793257000058, 25.104177115000027 ], [ 92.227736777000075, 25.09369934700004 ], [ 92.231161155000052, 25.097135441000034 ], [ 92.255218971000033, 25.085376663000034 ], [ 92.310547263000046, 25.069168618000049 ], [ 92.314034032000052, 25.07209414700003 ], [ 92.319025454000041, 25.07003141000007 ], [ 92.322147501000074, 25.07826936400005 ], [ 92.334463506000077, 25.078612593000059 ], [ 92.348481387000049, 25.073637172000076 ], [ 92.34887143800006, 25.060947747000057 ], [ 92.338100353000073, 25.051640207000048 ], [ 92.34230238300006, 25.054347345000053 ], [ 92.339235487000053, 25.050475369000026 ], [ 92.34140744900003, 25.048663457000032 ], [ 92.356628950000072, 25.047565332000033 ], [ 92.358020257000078, 25.050251502000037 ], [ 92.36079337700005, 25.046868828000072 ], [ 92.362907807000056, 25.050021722000054 ], [ 92.368307362000053, 25.046347352000055 ], [ 92.369620999000063, 25.040999561000035 ], [ 92.370768755000086, 25.042838144000029 ], [ 92.374702503000037, 25.043716306000078 ], [ 92.38317083700008, 25.038618954000071 ], [ 92.383719020000058, 25.042463850000047 ], [ 92.392721238000036, 25.039908812000078 ], [ 92.402185829000075, 25.03193845900006 ], [ 92.412855155000045, 25.028763874000049 ], [ 92.425219620000064, 25.029659479000031 ], [ 92.42408219400005, 25.010247251000067 ], [ 92.414311530000077, 24.990296599000033 ], [ 92.422048103000066, 24.988488619000066 ], [ 92.419432296000082, 24.967567213000052 ], [ 92.423606660000075, 24.964941704000069 ], [ 92.44778175600004, 24.965848569000059 ], [ 92.457389908000039, 24.970679715000074 ], [ 92.467774106000036, 24.963510043000042 ], [ 92.466077323000036, 24.95719243700006 ], [ 92.454981180000061, 24.954718917000037 ], [ 92.449652659000037, 24.950124928000037 ], [ 92.449572747000047, 24.938727263000033 ], [ 92.476121355000032, 24.942199850000065 ], [ 92.484341836000056, 24.947657431000039 ], [ 92.487638548000064, 24.946673526000041 ], [ 92.483936570000083, 24.928604513000039 ], [ 92.48748431100006, 24.920754551000073 ], [ 92.494524016000071, 24.916005081000037 ], [ 92.492819732000044, 24.906229936000045 ], [ 92.496728780000069, 24.902214052000033 ], [ 92.491056121000042, 24.891605774000027 ], [ 92.489493087000085, 24.872661493000066 ], [ 92.479091896000057, 24.872539471000039 ], [ 92.47618090800006, 24.868282747000023 ], [ 92.461364495000055, 24.874346580000065 ], [ 92.445173118000071, 24.873096405000069 ], [ 92.441745961000038, 24.87088699800006 ], [ 92.437771264000048, 24.857909393000057 ], [ 92.425005058000067, 24.854127771000037 ], [ 92.407205895000061, 24.860129333000032 ], [ 92.401546648000078, 24.849867454000048 ], [ 92.385904138000058, 24.853331533000073 ], [ 92.378207624000083, 24.864186545000052 ], [ 92.375416696000059, 24.874484830000029 ], [ 92.363190830000065, 24.872593857000027 ], [ 92.347505365000075, 24.893367390000037 ], [ 92.344648157000051, 24.89194103400007 ], [ 92.344685646000073, 24.880828965000035 ], [ 92.339661632000059, 24.878344329000072 ], [ 92.328229828000076, 24.889779129000033 ], [ 92.326377189000084, 24.896000181000034 ], [ 92.315876148000086, 24.895414416000051 ], [ 92.30717618500006, 24.901741453000056 ], [ 92.306685981000044, 24.910504763000063 ], [ 92.30065525200007, 24.915670871000032 ], [ 92.287920862000078, 24.91268952300004 ], [ 92.283039897000037, 24.90616589900003 ], [ 92.271024871000066, 24.905103711000038 ], [ 92.247498496000048, 24.909450020000065 ], [ 92.234749972000031, 24.90394574000004 ], [ 92.232123265000041, 24.900428513000065 ], [ 92.236026680000066, 24.89926252600003 ], [ 92.235551336000071, 24.893244839000033 ], [ 92.248034619000066, 24.885006926000074 ], [ 92.24618573500004, 24.867613839000057 ], [ 92.23825452400007, 24.86836947300003 ], [ 92.234850219000066, 24.861504711000066 ], [ 92.23972589400006, 24.857826687000056 ], [ 92.242421228000069, 24.840580529000079 ], [ 92.254873756000052, 24.838576665000062 ], [ 92.244810627000049, 24.831467498000052 ], [ 92.237344798000038, 24.831284965000066 ], [ 92.243967696000084, 24.82407869900004 ], [ 92.243549216000076, 24.819517952000069 ], [ 92.229021229000068, 24.819107922000057 ], [ 92.213142686000083, 24.813209441000026 ], [ 92.211384480000049, 24.805257840000024 ], [ 92.203354073000071, 24.802493358000049 ], [ 92.200871231000065, 24.806973482000046 ], [ 92.195944530000077, 24.802919974000076 ], [ 92.193196235000073, 24.789170289000026 ], [ 92.198275421000062, 24.778105836000066 ], [ 92.194081332000053, 24.768444613000042 ], [ 92.18030026200006, 24.769355141000062 ], [ 92.174460425000063, 24.773481438000033 ], [ 92.16316054300006, 24.768989361000024 ], [ 92.156842751000056, 24.770166604000053 ], [ 92.150837576000072, 24.765251884000065 ], [ 92.142500961000053, 24.76678305300004 ], [ 92.127104755000062, 24.760296925000034 ], [ 92.116524484000081, 24.76547398200006 ], [ 92.106753909000076, 24.757606672000065 ], [ 92.099363464000078, 24.756623202000071 ], [ 92.094729289000043, 24.759053297000037 ], [ 92.092925991000072, 24.764861760000031 ], [ 92.078267551000067, 24.766428531000031 ], [ 92.077256323000086, 24.749213431000044 ], [ 92.084230228000081, 24.746964621000075 ], [ 92.082866459000059, 24.732755 ], [ 92.077765770000042, 24.728310303000058 ], [ 92.080470127000069, 24.723547410000037 ], [ 92.075680962000035, 24.717931469000064 ], [ 92.063304280000068, 24.718357884000056 ], [ 92.06287214300005, 24.726576187000035 ], [ 92.057695184000067, 24.728627221000067 ], [ 92.059652997000057, 24.710213764000059 ], [ 92.048804423000036, 24.697278899000025 ], [ 92.039266573000077, 24.700114914000039 ], [ 92.039729912000041, 24.706794246000072 ], [ 92.025719989000038, 24.69716126700007 ], [ 92.031732382000087, 24.695635522000032 ], [ 92.03510308400007, 24.687376233000066 ], [ 92.03185972600005, 24.681135122000057 ], [ 92.032910333000075, 24.663057898000034 ], [ 92.028976644000068, 24.652332388000048 ], [ 92.020545558000038, 24.651066999000022 ], [ 92.016058748000034, 24.654662828000028 ], [ 92.016367046000084, 24.650718570000038 ], [ 91.99508198400008, 24.655105930000047 ], [ 91.983829809000042, 24.643907266000042 ], [ 91.966664408000042, 24.638923098000078 ], [ 91.963343057000031, 24.641050888000052 ], [ 91.963809497000057, 24.645729819000053 ], [ 91.947239847000048, 24.649555575000079 ], [ 91.942174674000057, 24.654738416000043 ], [ 91.933443271000044, 24.655112290000034 ], [ 91.931076679000057, 24.661771691000069 ], [ 91.922804309000071, 24.65244894600005 ], [ 91.909995110000068, 24.655677431000072 ], [ 91.911235826000052, 24.661735427000053 ], [ 91.903228485000056, 24.663645015000043 ], [ 91.902354539000044, 24.65194354700003 ], [ 91.890177193000056, 24.646082650000039 ], [ 91.884595048000051, 24.656999790000043 ], [ 91.866128406000087, 24.657417654000028 ], [ 91.861762490000046, 24.649891875000037 ], [ 91.846523279000053, 24.644431453000038 ], [ 91.839746590000061, 24.652508199000067 ], [ 91.828196516000048, 24.653589842000031 ], [ 91.800075241000059, 24.637552516000028 ], [ 91.797438093000039, 24.638002211000071 ], [ 91.794824768000069, 24.646252928000024 ], [ 91.783635357000037, 24.643299452000065 ], [ 91.77900535200007, 24.638324756000031 ], [ 91.781211272000064, 24.626527976000034 ], [ 91.771208886000068, 24.625614022000036 ], [ 91.770043181000062, 24.619594824000046 ], [ 91.753927400000066, 24.608388649000062 ], [ 91.750151407000033, 24.598915061000071 ], [ 91.736667728000043, 24.597852354000054 ], [ 91.727114809000057, 24.593442726000035 ], [ 91.684240248000037, 24.606116690000079 ], [ 91.684196585000052, 24.616405802000031 ], [ 91.675041732000068, 24.631196647000024 ], [ 91.672292403000085, 24.627564265000046 ], [ 91.669971481000061, 24.630328129000077 ], [ 91.660921730000041, 24.62590590700006 ] ] ] } },
{ "type": "Feature", "properties": { "district": "bandarban" }, "geometry": { "type": "Polygon", "coordinates": [ [ [ 92.613908712000068, 21.851907425000036 ], [ 92.615545198000063, 21.832166552000047 ], [ 92.621425196000075, 21.82532930800005 ], [ 92.609392925000066, 21.817105985000069 ], [ 92.608183420000046, 21.795177953000064 ], [ 92.611919439000076, 21.781035169000063 ], [ 92.607474732000071, 21.755465652000055 ], [ 92.608882796000046, 21.746749402000034 ], [ 92.605358882000075, 21.743184672000041 ], [ 92.608735196000055, 21.731087991000038 ], [ 92.601197874000036, 21.702596411000059 ], [ 92.607731577000038, 21.681313697000064 ], [ 92.601825504000033, 21.654710117000036 ], [ 92.611028066000074, 21.622976056000027 ], [ 92.60900808100007, 21.584655961000067 ], [ 92.615247607000072, 21.570356667000055 ], [ 92.61971378800007, 21.51593667700007 ], [ 92.62724240600005, 21.488192007000066 ], [ 92.62424549800005, 21.475455150000073 ], [ 92.631215304000079, 21.446780279000052 ], [ 92.641148686000065, 21.428772442000025 ], [ 92.639238148000061, 21.419948491000071 ], [ 92.643410123000081, 21.399966491000043 ], [ 92.650396249000039, 21.385889559000077 ], [ 92.651108950000037, 21.358568047000063 ], [ 92.656820760000073, 21.347698090000051 ], [ 92.663547587000039, 21.319974408000064 ], [ 92.679840465000041, 21.297686896000073 ], [ 92.680257382000036, 21.285618725000063 ], [ 92.648806600000057, 21.276492568000037 ], [ 92.645652863000066, 21.273039184000027 ], [ 92.641975654000078, 21.274243521000074 ], [ 92.63294610500003, 21.267514389000041 ], [ 92.629468699000086, 21.268579899000031 ], [ 92.629912968000042, 21.26322815900005 ], [ 92.621824023000045, 21.256790597000077 ], [ 92.622880999000074, 21.250877014000025 ], [ 92.596203623000065, 21.244077865000065 ], [ 92.590889557000082, 21.264555243000075 ], [ 92.585996230000035, 21.271699851000051 ], [ 92.582585130000041, 21.299199208000061 ], [ 92.571549211000047, 21.324368633000063 ], [ 92.573448261000067, 21.333250821000036 ], [ 92.567697492000036, 21.342782788000022 ], [ 92.562192052000057, 21.363686986000062 ], [ 92.563994064000042, 21.371965815000067 ], [ 92.557935920000034, 21.383885861000067 ], [ 92.54102879900006, 21.376143460000037 ], [ 92.534651806000056, 21.377513012000065 ], [ 92.533787105000044, 21.38044089300007 ], [ 92.508521767000047, 21.377295360000062 ], [ 92.51110312600008, 21.363895728000045 ], [ 92.499110587000075, 21.361065630000041 ], [ 92.459612542000059, 21.369112176000044 ], [ 92.438815515000044, 21.365177892000077 ], [ 92.428095692000056, 21.423574945000041 ], [ 92.38097549400004, 21.479867732000059 ], [ 92.343471015000034, 21.466879196000036 ], [ 92.337854124000046, 21.436015096000062 ], [ 92.326422283000056, 21.431992489000038 ], [ 92.328516738000076, 21.419075885000041 ], [ 92.314891597000042, 21.421732072000054 ], [ 92.309161063000033, 21.418200078000041 ], [ 92.30215454000006, 21.423486475000061 ], [ 92.297236329000043, 21.420134349000023 ], [ 92.291722764000042, 21.430478444000073 ], [ 92.269071056000087, 21.428201571000045 ], [ 92.269562978000067, 21.400419707000026 ], [ 92.255796928000052, 21.389245431000063 ], [ 92.258806158000084, 21.362178258000029 ], [ 92.211497980000047, 21.339836197000068 ], [ 92.197760155000083, 21.319633375000024 ], [ 92.21973967200006, 21.257607997000036 ], [ 92.210789207000062, 21.248228333000043 ], [ 92.218056293000075, 21.231896404000054 ], [ 92.214422722000052, 21.225790725000024 ], [ 92.210186174000057, 21.224683600000049 ], [ 92.201187791000052, 21.206577955000057 ], [ 92.184252233000052, 21.193166224000038 ], [ 92.179603793000069, 21.185068824000041 ], [ 92.173947567000084, 21.185269772000026 ], [ 92.171279450000043, 21.189984240000058 ], [ 92.174486157000047, 21.198756097000057 ], [ 92.16721682900004, 21.210213835000047 ], [ 92.16944486400007, 21.214522769000041 ], [ 92.16554238100008, 21.216034165000053 ], [ 92.168513403000077, 21.218210229000078 ], [ 92.166240986000048, 21.221006758000044 ], [ 92.17019029000005, 21.228447804000041 ], [ 92.179596840000045, 21.234798948000048 ], [ 92.182027419000065, 21.252726288000076 ], [ 92.190828339000063, 21.259632520000025 ], [ 92.189411607000068, 21.265414123000028 ], [ 92.192700364000075, 21.266630826000039 ], [ 92.190488324000057, 21.271727715000054 ], [ 92.182035259000031, 21.269558074000031 ], [ 92.179714663000084, 21.271647096000038 ], [ 92.180861256000071, 21.275657070000022 ], [ 92.17599473000007, 21.282056122000029 ], [ 92.177672891000043, 21.285153360000038 ], [ 92.171572079000043, 21.289182504000053 ], [ 92.171039776000043, 21.298698601000069 ], [ 92.167379907000054, 21.29882847500005 ], [ 92.157785773000057, 21.312474922000035 ], [ 92.15678263500007, 21.320743497000024 ], [ 92.15185509500003, 21.321760227000027 ], [ 92.149687620000066, 21.343780170000059 ], [ 92.145108125000036, 21.350305246000062 ], [ 92.143118017000063, 21.348765245000038 ], [ 92.126460014000031, 21.400690627000074 ], [ 92.136648327000046, 21.403493758000025 ], [ 92.140108146000046, 21.399126753000075 ], [ 92.143519677000086, 21.399976343000048 ], [ 92.146106582000073, 21.406426656000065 ], [ 92.156001343000071, 21.412507868000034 ], [ 92.15565622400004, 21.424884456000029 ], [ 92.163979005000044, 21.431925040000067 ], [ 92.167241285000046, 21.42967036400006 ], [ 92.178988179000044, 21.431788759000028 ], [ 92.182693204000032, 21.424057852000033 ], [ 92.187792676000072, 21.426484543000072 ], [ 92.201880806000077, 21.390525511000078 ], [ 92.214041598000051, 21.394989452000061 ], [ 92.220048977000033, 21.400789565000025 ], [ 92.235714838000035, 21.397828224000023 ], [ 92.245616466000058, 21.40126587900005 ], [ 92.246909181000035, 21.408321429000068 ], [ 92.237738068000056, 21.41398335100007 ], [ 92.241608865000046, 21.42619316400004 ], [ 92.233417670000051, 21.429587649000041 ], [ 92.232917126000075, 21.440385699000046 ], [ 92.229369008000049, 21.446342711000057 ], [ 92.235203393000063, 21.447488455000041 ], [ 92.235143303000086, 21.453234988000077 ], [ 92.242251267000086, 21.452132992000031 ], [ 92.238448059000063, 21.457049212000072 ], [ 92.23981591900008, 21.472658404000072 ], [ 92.232215198000063, 21.482043378000071 ], [ 92.226835279000056, 21.47887558900004 ], [ 92.221640979000085, 21.483195982000041 ], [ 92.222894500000052, 21.494658663000052 ], [ 92.216744369000082, 21.498626226000056 ], [ 92.217139303000067, 21.503831415000036 ], [ 92.207973162000087, 21.505928260000076 ], [ 92.202615774000037, 21.503246496000031 ], [ 92.20142725200003, 21.514070844000059 ], [ 92.193679952000082, 21.515039207000029 ], [ 92.186220791000039, 21.510239829000056 ], [ 92.185639069000047, 21.500981182000032 ], [ 92.18279431600007, 21.512172019000047 ], [ 92.175224106000087, 21.50733574700007 ], [ 92.169228659000055, 21.513728566000054 ], [ 92.170407385000033, 21.519343697000068 ], [ 92.159535294000079, 21.533179996000058 ], [ 92.159005609000076, 21.541047850000041 ], [ 92.177276874000086, 21.55492889900006 ], [ 92.18468222100006, 21.568512312000053 ], [ 92.178537646000052, 21.572317243000043 ], [ 92.172880898000074, 21.586637349000057 ], [ 92.168627781000055, 21.588055557000075 ], [ 92.172927530000038, 21.59186360700005 ], [ 92.173682482000061, 21.599782928000025 ], [ 92.167581464000079, 21.605360318000066 ], [ 92.161511221000069, 21.60568962900004 ], [ 92.159651648000079, 21.601130872000056 ], [ 92.147499381000046, 21.595660548000069 ], [ 92.146509675000061, 21.599671545000035 ], [ 92.141890839000041, 21.600809088000062 ], [ 92.144686499000045, 21.607574396000075 ], [ 92.140564434000055, 21.618326039000067 ], [ 92.124232411000037, 21.631086238000023 ], [ 92.11215362300004, 21.633969129000036 ], [ 92.10726162800006, 21.641298311000071 ], [ 92.098795644000063, 21.643906409000067 ], [ 92.114381351000077, 21.650771161000023 ], [ 92.112952416000041, 21.656168158000071 ], [ 92.10159813100006, 21.658626930000025 ], [ 92.112205476000042, 21.666029396000056 ], [ 92.106559644000072, 21.673654357000032 ], [ 92.10014456600004, 21.673198651000064 ], [ 92.103270866000059, 21.675880065000058 ], [ 92.10072285800004, 21.684266457000035 ], [ 92.09229933000006, 21.688654851000024 ], [ 92.103611383000043, 21.696211380000022 ], [ 92.101873362000049, 21.701707620000036 ], [ 92.104158182000049, 21.704870067000058 ], [ 92.10847721600004, 21.707446996000044 ], [ 92.114208147000056, 21.705700231000037 ], [ 92.113395694000076, 21.711522268000067 ], [ 92.106961477000084, 21.718991162000066 ], [ 92.115947962000064, 21.716340737000053 ], [ 92.11875735700005, 21.718206863000034 ], [ 92.109574543000065, 21.731042365000064 ], [ 92.112422847000062, 21.734438748000059 ], [ 92.121405411000069, 21.732700376000025 ], [ 92.115797764000035, 21.741114570000036 ], [ 92.138856351000072, 21.736489530000028 ], [ 92.139782290000085, 21.732891391000067 ], [ 92.145810119000032, 21.735971153000037 ], [ 92.158200277000049, 21.734588723000059 ], [ 92.161592333000044, 21.738558685000044 ], [ 92.155102912000075, 21.745462005000036 ], [ 92.160862658000042, 21.769357609000053 ], [ 92.175128036000046, 21.782607666000047 ], [ 92.176430899000081, 21.789174037000066 ], [ 92.180671003000043, 21.789158755000074 ], [ 92.180853325000044, 21.778603819000068 ], [ 92.188693858000079, 21.773853907000046 ], [ 92.19210305200005, 21.774539318000052 ], [ 92.194354537000038, 21.785186636000049 ], [ 92.203926150000086, 21.783325754000032 ], [ 92.212357191000081, 21.786539496000046 ], [ 92.203493798000068, 21.804521826000041 ], [ 92.204629551000039, 21.81672620300003 ], [ 92.195940323000059, 21.825298374000056 ], [ 92.186583905000077, 21.819198122000046 ], [ 92.184968359000038, 21.82922990000003 ], [ 92.179096796000067, 21.833469869000055 ], [ 92.182989237000072, 21.832805762000078 ], [ 92.184451663000061, 21.839660804000061 ], [ 92.180317713000079, 21.847766376000038 ], [ 92.168734604000065, 21.845198291000031 ], [ 92.169764627000063, 21.841267931000061 ], [ 92.167204345000073, 21.84033566200003 ], [ 92.170840660000067, 21.830939695000041 ], [ 92.179868016000057, 21.821539699000027 ], [ 92.180196605000049, 21.804927621000047 ], [ 92.185614337000061, 21.799927265000065 ], [ 92.189664114000038, 21.776232617000062 ], [ 92.182492923000041, 21.778821192000066 ], [ 92.182288760000063, 21.789242649000073 ], [ 92.179658095000036, 21.791388451000046 ], [ 92.174656678000076, 21.789613917000054 ], [ 92.174086164000073, 21.783601713000053 ], [ 92.166841351000073, 21.779931861000023 ], [ 92.165332851000073, 21.774602944000037 ], [ 92.15761156700006, 21.779790186000071 ], [ 92.148132958000076, 21.777266110000028 ], [ 92.142947262000064, 21.779543873000023 ], [ 92.130674641000041, 21.799939227000038 ], [ 92.123955157000069, 21.794306196000036 ], [ 92.11031507000007, 21.794782987000076 ], [ 92.108140305000063, 21.792487121000022 ], [ 92.103138925000053, 21.800313942000059 ], [ 92.102855710000085, 21.808275611000056 ], [ 92.097401242000046, 21.806340805000048 ], [ 92.080519185000071, 21.809926177000023 ], [ 92.076558375000047, 21.817333671000029 ], [ 92.080515722000086, 21.823691818000043 ], [ 92.077790164000078, 21.825741661000052 ], [ 92.081406918000084, 21.832060030000036 ], [ 92.086988686000041, 21.833545280000067 ], [ 92.089798377000079, 21.840153010000051 ], [ 92.081938339000033, 21.857809647000067 ], [ 92.085151626000084, 21.862915527000041 ], [ 92.081730018000087, 21.872754579000059 ], [ 92.083276351000052, 21.876973408000026 ], [ 92.07952288000007, 21.87692151400006 ], [ 92.080878794000057, 21.888480002000051 ], [ 92.075927240000055, 21.890239120000047 ], [ 92.070765881000057, 21.901010043000042 ], [ 92.059576330000084, 21.902764977000061 ], [ 92.060902003000081, 21.908898714000031 ], [ 92.075824925000063, 21.923579105000044 ], [ 92.080996866000078, 21.920758880000051 ], [ 92.088253461000079, 21.926016523000044 ], [ 92.094352535000041, 21.922082687000056 ], [ 92.09552838500008, 21.925550596000051 ], [ 92.099024107000048, 21.921758973000067 ], [ 92.106912246000036, 21.925002106000022 ], [ 92.108930895000071, 21.931783360000054 ], [ 92.117941210000083, 21.934568739000042 ], [ 92.119840821000082, 21.931516859000055 ], [ 92.114261135000049, 21.928162317000044 ], [ 92.116452916000071, 21.924619647000043 ], [ 92.113039641000057, 21.923109786000055 ], [ 92.111903985000083, 21.916734610000049 ], [ 92.129718786000069, 21.901574517000029 ], [ 92.146786003000045, 21.909142613000029 ], [ 92.150805630000036, 21.907133102000046 ], [ 92.163979518000076, 21.91138759200004 ], [ 92.167893120000031, 21.908221247000029 ], [ 92.174539100000061, 21.909844425000074 ], [ 92.174341838000032, 21.916330585000026 ], [ 92.171323585000039, 21.915802988000053 ], [ 92.165153604000068, 21.925354044000073 ], [ 92.16641233200005, 21.932344484000055 ], [ 92.162422486000082, 21.932590897000068 ], [ 92.159836315000064, 21.945394814000053 ], [ 92.166558059000067, 21.947952653000073 ], [ 92.173842540000066, 21.946445469000025 ], [ 92.174352194000051, 21.941889303000039 ], [ 92.176658141000075, 21.944426948000057 ], [ 92.180737954000051, 21.942961341000057 ], [ 92.186739561000081, 21.950473757000054 ], [ 92.19612778700008, 21.952381053000067 ], [ 92.191669216000037, 21.953257261000033 ], [ 92.194425053000032, 21.96165634700003 ], [ 92.214079678000076, 21.974773179000067 ], [ 92.209940611000036, 21.979007516000024 ], [ 92.209915705000071, 21.984080623000068 ], [ 92.200988730000063, 21.989389982000034 ], [ 92.202835386000061, 21.99987532800003 ], [ 92.214621157000067, 22.000690621000047 ], [ 92.216052080000054, 22.00561366200003 ], [ 92.21282418900006, 22.00835773700004 ], [ 92.201569716000051, 22.00816646100003 ], [ 92.202358694000054, 22.01856693700006 ], [ 92.195724615000074, 22.018695493000052 ], [ 92.192642579000051, 22.024785913000073 ], [ 92.182162106000078, 22.028900155000031 ], [ 92.177455907000081, 22.024353599000051 ], [ 92.173199564000072, 22.035420128000055 ], [ 92.170773997000083, 22.03442966800003 ], [ 92.166279536000047, 22.042949112000031 ], [ 92.161311926000053, 22.043631921000042 ], [ 92.168767660000071, 22.048629843000072 ], [ 92.176447386000063, 22.063953449000053 ], [ 92.164445524000087, 22.067145919000041 ], [ 92.163842587000033, 22.070691932000045 ], [ 92.155509758000051, 22.069412503000024 ], [ 92.164052179000066, 22.084288196000045 ], [ 92.144648503000042, 22.088058597000042 ], [ 92.141170129000045, 22.091673312000069 ], [ 92.147923183000046, 22.096924491000038 ], [ 92.150330158000031, 22.093666879000068 ], [ 92.155745470000056, 22.095347605000029 ], [ 92.157545901000049, 22.10040401200007 ], [ 92.169940944000075, 22.104510946000062 ], [ 92.173234818000083, 22.112877315000048 ], [ 92.160085545000072, 22.128404300000057 ], [ 92.171033913000031, 22.140630427000076 ], [ 92.168878003000032, 22.146843688000047 ], [ 92.162192007000044, 22.147504742000024 ], [ 92.161209408000047, 22.159762238000042 ], [ 92.155610320000051, 22.165194473000042 ], [ 92.163305580000042, 22.174957868000035 ], [ 92.164311305000069, 22.182149167000034 ], [ 92.151691693000032, 22.194859687000076 ], [ 92.151111525000033, 22.201368843000068 ], [ 92.146024569000076, 22.20573138900005 ], [ 92.149448156000062, 22.220837145000075 ], [ 92.137626561000047, 22.234465799000077 ], [ 92.141416215000049, 22.240188257000057 ], [ 92.143380239000066, 22.258697788000063 ], [ 92.137796990000083, 22.266494139000031 ], [ 92.139913979000085, 22.280060088000027 ], [ 92.137429009000073, 22.286085247000074 ], [ 92.148352673000034, 22.296844440000029 ], [ 92.150142196000047, 22.315922878000038 ], [ 92.152138674000071, 22.31440139800003 ], [ 92.154738373000043, 22.322857901000077 ], [ 92.151656767000077, 22.333402948000071 ], [ 92.143741673000079, 22.332739506000053 ], [ 92.145936798000037, 22.347740998000063 ], [ 92.188440781000054, 22.346365941000045 ], [ 92.197621290000086, 22.343411702000026 ], [ 92.195528670000044, 22.332278750000057 ], [ 92.208257532000061, 22.330458148000048 ], [ 92.224791233000076, 22.33105531800004 ], [ 92.263806870000053, 22.343893609000077 ], [ 92.280894962000048, 22.35569106500003 ], [ 92.361932919000083, 22.340862961000028 ], [ 92.372577832000047, 22.336228826000024 ], [ 92.400311530000067, 22.314766332000033 ], [ 92.461636283000075, 22.256451119000076 ], [ 92.476188104000073, 22.237190332000068 ], [ 92.483404371000063, 22.220024935000026 ], [ 92.497217922000061, 22.153296538000063 ], [ 92.498621626000045, 22.113528478000035 ], [ 92.515619962000073, 22.067903233000038 ], [ 92.524009809000063, 22.024696176000077 ], [ 92.538112047000084, 21.988534048000076 ], [ 92.570140934000051, 21.927068673000065 ], [ 92.585730624000064, 21.882683361000034 ], [ 92.613908712000068, 21.851907425000036 ] ] ] } }
]
}
