{
"type": "FeatureCollection",
"name": "row_texture_TEA-C000",
"crs": { "type": "name", "properties": { "name": "urn:ogc:def:crs:OGC:1.3:CRS84" } },
"features": [
{ "type": "Feature", "properties": { "candidate_id": "TEA-C000", "lon": 91.940154, "lat": 24.945815, "row_score": 4.02, "wavelength_m": 1.49, "tile_std": 34.7 }, "geometry": { "type": "Point", "coordinates": [ 91.940154, 24.945815 ] } },
{ "type": "Feature", "properties": { "candidate_id": "TEA-C000", "lon": 91.857874, "lat": 24.93217, "row_score": 4.14, "wavelength_m": 1.42, "tile_std": 27.1 }, "geometry": { "type": "Point", "coordinates": [ 91.857874, 24.93217 ] } },
{ "type": "Feature", "properties": { "candidate_id": "TEA-C000", "lon": 91.867667, "lat": 24.942708, "row_score": 3.6, "wavelength_m": 1.41, "tile_std": 26.4 }, "geometry": { "type": "Point", "coordinates": [ 91.867667, 24.942708 ] } },
{ "type": "Feature", "properties": { "candidate_id": "TEA-C000", "lon": 91.953921, "lat": 24.965893, "row_score": 4.76, "wavelength_m": 1.42, "tile_std": 16.6 }, "geometry": { "type": "Point", "coordinates": [ 91.953921, 24.965893 ] } },
{ "type": "Feature", "properties": { "candidate_id": "TEA-C000", "lon": 91.892345, "lat": 24.932113, "row_score": 4.62, "wavelength_m": 1.25, "tile_std": 25.0 }, "geometry": { "type": "Point", "coordinates": [ 91.892345, 24.932113 ] } },
{ "type": "Feature", "properties": { "candidate_id": "TEA-C000", "lon": 91.87957, "lat": 24.919694, "row_score": 3.45, "wavelength_m": 1.37, "tile_std": 26.7 }, "geometry": { "type": "Point", "coordinates": [ 91.87957, 24.919694 ] } },
{ "type": "Feature", "properties": { "candidate_id": "TEA-C000", "lon": 91.98511, "lat": 24.952374, "row_score": 4.88, "wavelength_m": 1.49, "tile_std": 30.2 }, "geometry": { "type": "Point", "coordinates": [ 91.98511, 24.952374 ] } },
{ "type": "Feature", "properties": { "candidate_id": "TEA-C000", "lon": 91.938656, "lat": 24.940697, "row_score": 4.28, "wavelength_m": 1.44, "tile_std": 32.7 }, "geometry": { "type": "Point", "coordinates": [ 91.938656, 24.940697 ] } },
{ "type": "Feature", "properties": { "candidate_id": "TEA-C000", "lon": 91.919808, "lat": 24.924554, "row_score": 3.77, "wavelength_m": 1.41, "tile_std": 29.2 }, "geometry": { "type": "Point", "coordinates": [ 91.919808, 24.924554 ] } },
{ "type": "Feature", "properties": { "candidate_id": "TEA-C000", "lon": 91.88839, "lat": 24.930978, "row_score": 4.74, "wavelength_m": 1.48, "tile_std": 25.9 }, "geometry": { "type": "Point", "coordinates": [ 91.88839, 24.930978 ] } },
{ "type": "Feature", "properties": { "candidate_id": "TEA-C000", "lon": 91.902097, "lat": 24.921431, "row_score": 5.73, "wavelength_m": 1.36, "tile_std": 25.2 }, "geometry": { "type": "Point", "coordinates": [ 91.902097, 24.921431 ] } },
{ "type": "Feature", "properties": { "candidate_id": "TEA-C000", "lon": 91.871553, "lat": 24.951082, "row_score": 4.42, "wavelength_m": 1.3, "tile_std": 24.2 }, "geometry": { "type": "Point", "coordinates": [ 91.871553, 24.951082 ] } },
{ "type": "Feature", "properties": { "candidate_id": "TEA-C000", "lon": 91.850157, "lat": 24.932809, "row_score": 3.94, "wavelength_m": 1.38, "tile_std": 30.4 }, "geometry": { "type": "Point", "coordinates": [ 91.850157, 24.932809 ] } },
{ "type": "Feature", "properties": { "candidate_id": "TEA-C000", "lon": 91.872896, "lat": 24.925572, "row_score": 4.41, "wavelength_m": 1.44, "tile_std": 39.5 }, "geometry": { "type": "Point", "coordinates": [ 91.872896, 24.925572 ] } },
{ "type": "Feature", "properties": { "candidate_id": "TEA-C000", "lon": 91.944345, "lat": 24.961773, "row_score": 4.89, "wavelength_m": 1.44, "tile_std": 18.8 }, "geometry": { "type": "Point", "coordinates": [ 91.944345, 24.961773 ] } },
{ "type": "Feature", "properties": { "candidate_id": "TEA-C000", "lon": 91.900414, "lat": 24.952475, "row_score": 3.34, "wavelength_m": 1.26, "tile_std": 24.6 }, "geometry": { "type": "Point", "coordinates": [ 91.900414, 24.952475 ] } },
{ "type": "Feature", "properties": { "candidate_id": "TEA-C000", "lon": 91.901641, "lat": 24.947856, "row_score": 4.15, "wavelength_m": 1.12, "tile_std": 26.9 }, "geometry": { "type": "Point", "coordinates": [ 91.901641, 24.947856 ] } },
{ "type": "Feature", "properties": { "candidate_id": "TEA-C000", "lon": 91.961331, "lat": 24.936859, "row_score": 3.73, "wavelength_m": 1.2, "tile_std": 38.5 }, "geometry": { "type": "Point", "coordinates": [ 91.961331, 24.936859 ] } },
{ "type": "Feature", "properties": { "candidate_id": "TEA-C000", "lon": 91.852131, "lat": 24.922664, "row_score": 4.12, "wavelength_m": 1.31, "tile_std": 28.9 }, "geometry": { "type": "Point", "coordinates": [ 91.852131, 24.922664 ] } },
{ "type": "Feature", "properties": { "candidate_id": "TEA-C000", "lon": 91.879358, "lat": 24.914306, "row_score": 5.23, "wavelength_m": 1.12, "tile_std": 24.6 }, "geometry": { "type": "Point", "coordinates": [ 91.879358, 24.914306 ] } },
{ "type": "Feature", "properties": { "candidate_id": "TEA-C000", "lon": 91.944934, "lat": 24.936781, "row_score": 4.98, "wavelength_m": 1.35, "tile_std": 28.3 }, "geometry": { "type": "Point", "coordinates": [ 91.944934, 24.936781 ] } },
{ "type": "Feature", "properties": { "candidate_id": "TEA-C000", "lon": 91.88415, "lat": 24.926816, "row_score": 3.92, "wavelength_m": 1.46, "tile_std": 25.4 }, "geometry": { "type": "Point", "coordinates": [ 91.88415, 24.926816 ] } },
{ "type": "Feature", "properties": { "candidate_id": "TEA-C000", "lon": 91.878352, "lat": 24.921629, "row_score": 3.69, "wavelength_m": 1.44, "tile_std": 29.5 }, "geometry": { "type": "Point", "coordinates": [ 91.878352, 24.921629 ] } },
{ "type": "Feature", "properties": { "candidate_id": "TEA-C000", "lon": 91.936431, "lat": 24.928722, "row_score": 4.35, "wavelength_m": 1.49, "tile_std": 36.6 }, "geometry": { "type": "Point", "coordinates": [ 91.936431, 24.928722 ] } },
{ "type": "Feature", "properties": { "candidate_id": "TEA-C000", "lon": 91.845226, "lat": 24.943221, "row_score": 4.07, "wavelength_m": 1.21, "tile_std": 37.0 }, "geometry": { "type": "Point", "coordinates": [ 91.845226, 24.943221 ] } },
{ "type": "Feature", "properties": { "candidate_id": "TEA-C000", "lon": 91.887903, "lat": 24.937293, "row_score": 3.8, "wavelength_m": 1.48, "tile_std": 27.9 }, "geometry": { "type": "Point", "coordinates": [ 91.887903, 24.937293 ] } },
{ "type": "Feature", "properties": { "candidate_id": "TEA-C000", "lon": 91.920686, "lat": 24.959796, "row_score": 4.98, "wavelength_m": 1.34, "tile_std": 11.0 }, "geometry": { "type": "Point", "coordinates": [ 91.920686, 24.959796 ] } },
{ "type": "Feature", "properties": { "candidate_id": "TEA-C000", "lon": 91.887452, "lat": 24.921874, "row_score": 4.5, "wavelength_m": 1.24, "tile_std": 25.5 }, "geometry": { "type": "Point", "coordinates": [ 91.887452, 24.921874 ] } },
{ "type": "Feature", "properties": { "candidate_id": "TEA-C000", "lon": 91.860954, "lat": 24.925348, "row_score": 3.74, "wavelength_m": 1.46, "tile_std": 43.6 }, "geometry": { "type": "Point", "coordinates": [ 91.860954, 24.925348 ] } },
{ "type": "Feature", "properties": { "candidate_id": "TEA-C000", "lon": 91.904917, "lat": 24.933816, "row_score": 5.05, "wavelength_m": 1.42, "tile_std": 30.8 }, "geometry": { "type": "Point", "coordinates": [ 91.904917, 24.933816 ] } },
{ "type": "Feature", "properties": { "candidate_id": "TEA-C000", "lon": 91.876893, "lat": 24.940271, "row_score": 3.73, "wavelength_m": 1.28, "tile_std": 25.6 }, "geometry": { "type": "Point", "coordinates": [ 91.876893, 24.940271 ] } },
{ "type": "Feature", "properties": { "candidate_id": "TEA-C000", "lon": 91.91335, "lat": 24.950547, "row_score": 3.77, "wavelength_m": 1.41, "tile_std": 30.4 }, "geometry": { "type": "Point", "coordinates": [ 91.91335, 24.950547 ] } },
{ "type": "Feature", "properties": { "candidate_id": "TEA-C000", "lon": 91.935182, "lat": 24.942307, "row_score": 3.46, "wavelength_m": 1.49, "tile_std": 36.0 }, "geometry": { "type": "Point", "coordinates": [ 91.935182, 24.942307 ] } },
{ "type": "Feature", "properties": { "candidate_id": "TEA-C000", "lon": 91.904143, "lat": 24.928979, "row_score": 5.23, "wavelength_m": 1.48, "tile_std": 28.1 }, "geometry": { "type": "Point", "coordinates": [ 91.904143, 24.928979 ] } },
{ "type": "Feature", "properties": { "candidate_id": "TEA-C000", "lon": 91.877063, "lat": 24.938526, "row_score": 3.66, "wavelength_m": 1.49, "tile_std": 29.9 }, "geometry": { "type": "Point", "coordinates": [ 91.877063, 24.938526 ] } },
{ "type": "Feature", "properties": { "candidate_id": "TEA-C000", "lon": 91.980575, "lat": 24.961813, "row_score": 3.62, "wavelength_m": 1.41, "tile_std": 9.9 }, "geometry": { "type": "Point", "coordinates": [ 91.980575, 24.961813 ] } },
{ "type": "Feature", "properties": { "candidate_id": "TEA-C000", "lon": 91.916651, "lat": 24.925091, "row_score": 3.92, "wavelength_m": 1.41, "tile_std": 32.8 }, "geometry": { "type": "Point", "coordinates": [ 91.916651, 24.925091 ] } },
{ "type": "Feature", "properties": { "candidate_id": "TEA-C000", "lon": 91.931513, "lat": 24.954785, "row_score": 4.04, "wavelength_m": 1.12, "tile_std": 28.6 }, "geometry": { "type": "Point", "coordinates": [ 91.931513, 24.954785 ] } },
{ "type": "Feature", "properties": { "candidate_id": "TEA-C000", "lon": 91.878355, "lat": 24.949533, "row_score": 3.28, "wavelength_m": 1.27, "tile_std": 17.4 }, "geometry": { "type": "Point", "coordinates": [ 91.878355, 24.949533 ] } },
{ "type": "Feature", "properties": { "candidate_id": "TEA-C000", "lon": 91.983681, "lat": 24.960518, "row_score": 4.22, "wavelength_m": 1.45, "tile_std": 13.9 }, "geometry": { "type": "Point", "coordinates": [ 91.983681, 24.960518 ] } },
{ "type": "Feature", "properties": { "candidate_id": "TEA-C000", "lon": 91.981864, "lat": 24.958275, "row_score": 4.16, "wavelength_m": 1.47, "tile_std": 9.2 }, "geometry": { "type": "Point", "coordinates": [ 91.981864, 24.958275 ] } },
{ "type": "Feature", "properties": { "candidate_id": "TEA-C000", "lon": 91.912128, "lat": 24.934292, "row_score": 4.08, "wavelength_m": 1.38, "tile_std": 34.4 }, "geometry": { "type": "Point", "coordinates": [ 91.912128, 24.934292 ] } },
{ "type": "Feature", "properties": { "candidate_id": "TEA-C000", "lon": 91.941739, "lat": 24.936016, "row_score": 4.62, "wavelength_m": 1.49, "tile_std": 24.8 }, "geometry": { "type": "Point", "coordinates": [ 91.941739, 24.936016 ] } },
{ "type": "Feature", "properties": { "candidate_id": "TEA-C000", "lon": 91.925362, "lat": 24.921817, "row_score": 3.77, "wavelength_m": 1.36, "tile_std": 27.7 }, "geometry": { "type": "Point", "coordinates": [ 91.925362, 24.921817 ] } },
{ "type": "Feature", "properties": { "candidate_id": "TEA-C000", "lon": 91.906466, "lat": 24.929644, "row_score": 4.19, "wavelength_m": 1.39, "tile_std": 26.5 }, "geometry": { "type": "Point", "coordinates": [ 91.906466, 24.929644 ] } },
{ "type": "Feature", "properties": { "candidate_id": "TEA-C000", "lon": 91.952131, "lat": 24.929792, "row_score": 4.04, "wavelength_m": 1.25, "tile_std": 50.3 }, "geometry": { "type": "Point", "coordinates": [ 91.952131, 24.929792 ] } },
{ "type": "Feature", "properties": { "candidate_id": "TEA-C000", "lon": 91.915537, "lat": 24.954741, "row_score": 3.54, "wavelength_m": 1.07, "tile_std": 31.8 }, "geometry": { "type": "Point", "coordinates": [ 91.915537, 24.954741 ] } },
{ "type": "Feature", "properties": { "candidate_id": "TEA-C000", "lon": 91.851432, "lat": 24.930495, "row_score": 3.68, "wavelength_m": 1.31, "tile_std": 37.6 }, "geometry": { "type": "Point", "coordinates": [ 91.851432, 24.930495 ] } },
{ "type": "Feature", "properties": { "candidate_id": "TEA-C000", "lon": 91.893492, "lat": 24.930303, "row_score": 4.28, "wavelength_m": 1.42, "tile_std": 21.2 }, "geometry": { "type": "Point", "coordinates": [ 91.893492, 24.930303 ] } },
{ "type": "Feature", "properties": { "candidate_id": "TEA-C000", "lon": 91.915, "lat": 24.925871, "row_score": 5.02, "wavelength_m": 1.42, "tile_std": 28.6 }, "geometry": { "type": "Point", "coordinates": [ 91.915, 24.925871 ] } },
{ "type": "Feature", "properties": { "candidate_id": "TEA-C000", "lon": 91.889489, "lat": 24.943721, "row_score": 3.47, "wavelength_m": 1.42, "tile_std": 34.3 }, "geometry": { "type": "Point", "coordinates": [ 91.889489, 24.943721 ] } },
{ "type": "Feature", "properties": { "candidate_id": "TEA-C000", "lon": 91.943149, "lat": 24.94533, "row_score": 4.81, "wavelength_m": 1.15, "tile_std": 29.5 }, "geometry": { "type": "Point", "coordinates": [ 91.943149, 24.94533 ] } },
{ "type": "Feature", "properties": { "candidate_id": "TEA-C000", "lon": 91.912365, "lat": 24.938106, "row_score": 3.51, "wavelength_m": 1.32, "tile_std": 20.1 }, "geometry": { "type": "Point", "coordinates": [ 91.912365, 24.938106 ] } },
{ "type": "Feature", "properties": { "candidate_id": "TEA-C000", "lon": 91.935147, "lat": 24.957224, "row_score": 3.92, "wavelength_m": 1.15, "tile_std": 9.5 }, "geometry": { "type": "Point", "coordinates": [ 91.935147, 24.957224 ] } },
{ "type": "Feature", "properties": { "candidate_id": "TEA-C000", "lon": 91.917385, "lat": 24.914318, "row_score": 4.59, "wavelength_m": 1.5, "tile_std": 25.6 }, "geometry": { "type": "Point", "coordinates": [ 91.917385, 24.914318 ] } },
{ "type": "Feature", "properties": { "candidate_id": "TEA-C000", "lon": 91.919318, "lat": 24.961487, "row_score": 3.94, "wavelength_m": 1.46, "tile_std": 14.7 }, "geometry": { "type": "Point", "coordinates": [ 91.919318, 24.961487 ] } },
{ "type": "Feature", "properties": { "candidate_id": "TEA-C000", "lon": 91.93661, "lat": 24.943842, "row_score": 4.67, "wavelength_m": 1.47, "tile_std": 23.0 }, "geometry": { "type": "Point", "coordinates": [ 91.93661, 24.943842 ] } },
{ "type": "Feature", "properties": { "candidate_id": "TEA-C000", "lon": 91.899475, "lat": 24.948132, "row_score": 4.26, "wavelength_m": 1.29, "tile_std": 21.8 }, "geometry": { "type": "Point", "coordinates": [ 91.899475, 24.948132 ] } },
{ "type": "Feature", "properties": { "candidate_id": "TEA-C000", "lon": 91.867227, "lat": 24.946913, "row_score": 3.74, "wavelength_m": 1.36, "tile_std": 29.0 }, "geometry": { "type": "Point", "coordinates": [ 91.867227, 24.946913 ] } },
{ "type": "Feature", "properties": { "candidate_id": "TEA-C000", "lon": 91.977444, "lat": 24.950023, "row_score": 3.89, "wavelength_m": 1.32, "tile_std": 27.4 }, "geometry": { "type": "Point", "coordinates": [ 91.977444, 24.950023 ] } },
{ "type": "Feature", "properties": { "candidate_id": "TEA-C000", "lon": 91.974104, "lat": 24.946349, "row_score": 4.61, "wavelength_m": 1.28, "tile_std": 23.9 }, "geometry": { "type": "Point", "coordinates": [ 91.974104, 24.946349 ] } },
{ "type": "Feature", "properties": { "candidate_id": "TEA-C000", "lon": 91.968535, "lat": 24.950885, "row_score": 4.18, "wavelength_m": 1.33, "tile_std": 31.2 }, "geometry": { "type": "Point", "coordinates": [ 91.968535, 24.950885 ] } },
{ "type": "Feature", "properties": { "candidate_id": "TEA-C000", "lon": 91.946568, "lat": 24.939716, "row_score": 5.51, "wavelength_m": 1.17, "tile_std": 33.2 }, "geometry": { "type": "Point", "coordinates": [ 91.946568, 24.939716 ] } },
{ "type": "Feature", "properties": { "candidate_id": "TEA-C000", "lon": 91.923246, "lat": 24.962238, "row_score": 4.89, "wavelength_m": 1.49, "tile_std": 8.6 }, "geometry": { "type": "Point", "coordinates": [ 91.923246, 24.962238 ] } },
{ "type": "Feature", "properties": { "candidate_id": "TEA-C000", "lon": 91.878411, "lat": 24.937625, "row_score": 3.79, "wavelength_m": 1.48, "tile_std": 31.3 }, "geometry": { "type": "Point", "coordinates": [ 91.878411, 24.937625 ] } },
{ "type": "Feature", "properties": { "candidate_id": "TEA-C000", "lon": 91.938775, "lat": 24.924006, "row_score": 4.13, "wavelength_m": 1.44, "tile_std": 31.2 }, "geometry": { "type": "Point", "coordinates": [ 91.938775, 24.924006 ] } },
{ "type": "Feature", "properties": { "candidate_id": "TEA-C000", "lon": 91.848259, "lat": 24.943182, "row_score": 3.44, "wavelength_m": 1.42, "tile_std": 38.8 }, "geometry": { "type": "Point", "coordinates": [ 91.848259, 24.943182 ] } },
{ "type": "Feature", "properties": { "candidate_id": "TEA-C000", "lon": 91.858588, "lat": 24.935342, "row_score": 4.02, "wavelength_m": 1.25, "tile_std": 26.9 }, "geometry": { "type": "Point", "coordinates": [ 91.858588, 24.935342 ] } },
{ "type": "Feature", "properties": { "candidate_id": "TEA-C000", "lon": 91.921455, "lat": 24.955212, "row_score": 4.68, "wavelength_m": 1.4, "tile_std": 27.3 }, "geometry": { "type": "Point", "coordinates": [ 91.921455, 24.955212 ] } },
{ "type": "Feature", "properties": { "candidate_id": "TEA-C000", "lon": 91.966874, "lat": 24.933875, "row_score": 4.16, "wavelength_m": 1.31, "tile_std": 38.6 }, "geometry": { "type": "Point", "coordinates": [ 91.966874, 24.933875 ] } },
{ "type": "Feature", "properties": { "candidate_id": "TEA-C000", "lon": 91.908372, "lat": 24.938893, "row_score": 4.26, "wavelength_m": 1.11, "tile_std": 29.8 }, "geometry": { "type": "Point", "coordinates": [ 91.908372, 24.938893 ] } },
{ "type": "Feature", "properties": { "candidate_id": "TEA-C000", "lon": 91.885086, "lat": 24.929037, "row_score": 4.26, "wavelength_m": 1.48, "tile_std": 25.4 }, "geometry": { "type": "Point", "coordinates": [ 91.885086, 24.929037 ] } },
{ "type": "Feature", "properties": { "candidate_id": "TEA-C000", "lon": 91.906494, "lat": 24.956276, "row_score": 4.54, "wavelength_m": 1.35, "tile_std": 9.0 }, "geometry": { "type": "Point", "coordinates": [ 91.906494, 24.956276 ] } },
{ "type": "Feature", "properties": { "candidate_id": "TEA-C000", "lon": 91.915628, "lat": 24.933481, "row_score": 3.99, "wavelength_m": 1.18, "tile_std": 36.8 }, "geometry": { "type": "Point", "coordinates": [ 91.915628, 24.933481 ] } },
{ "type": "Feature", "properties": { "candidate_id": "TEA-C000", "lon": 91.921008, "lat": 24.96542, "row_score": 3.97, "wavelength_m": 1.41, "tile_std": 14.1 }, "geometry": { "type": "Point", "coordinates": [ 91.921008, 24.96542 ] } },
{ "type": "Feature", "properties": { "candidate_id": "TEA-C000", "lon": 91.914649, "lat": 24.928426, "row_score": 4.4, "wavelength_m": 1.02, "tile_std": 26.8 }, "geometry": { "type": "Point", "coordinates": [ 91.914649, 24.928426 ] } },
{ "type": "Feature", "properties": { "candidate_id": "TEA-C000", "lon": 91.883403, "lat": 24.910386, "row_score": 4.75, "wavelength_m": 1.02, "tile_std": 23.0 }, "geometry": { "type": "Point", "coordinates": [ 91.883403, 24.910386 ] } },
{ "type": "Feature", "properties": { "candidate_id": "TEA-C000", "lon": 91.925647, "lat": 24.925764, "row_score": 4.65, "wavelength_m": 1.42, "tile_std": 30.3 }, "geometry": { "type": "Point", "coordinates": [ 91.925647, 24.925764 ] } },
{ "type": "Feature", "properties": { "candidate_id": "TEA-C000", "lon": 91.916105, "lat": 24.923992, "row_score": 3.84, "wavelength_m": 1.36, "tile_std": 21.9 }, "geometry": { "type": "Point", "coordinates": [ 91.916105, 24.923992 ] } },
{ "type": "Feature", "properties": { "candidate_id": "TEA-C000", "lon": 91.902004, "lat": 24.94268, "row_score": 3.62, "wavelength_m": 1.47, "tile_std": 31.0 }, "geometry": { "type": "Point", "coordinates": [ 91.902004, 24.94268 ] } },
{ "type": "Feature", "properties": { "candidate_id": "TEA-C000", "lon": 91.932957, "lat": 24.935571, "row_score": 5.52, "wavelength_m": 1.22, "tile_std": 39.0 }, "geometry": { "type": "Point", "coordinates": [ 91.932957, 24.935571 ] } },
{ "type": "Feature", "properties": { "candidate_id": "TEA-C000", "lon": 91.930706, "lat": 24.962566, "row_score": 4.4, "wavelength_m": 1.44, "tile_std": 12.1 }, "geometry": { "type": "Point", "coordinates": [ 91.930706, 24.962566 ] } },
{ "type": "Feature", "properties": { "candidate_id": "TEA-C000", "lon": 91.936988, "lat": 24.930191, "row_score": 3.49, "wavelength_m": 1.31, "tile_std": 35.7 }, "geometry": { "type": "Point", "coordinates": [ 91.936988, 24.930191 ] } },
{ "type": "Feature", "properties": { "candidate_id": "TEA-C000", "lon": 91.841259, "lat": 24.942743, "row_score": 4.18, "wavelength_m": 1.1, "tile_std": 48.5 }, "geometry": { "type": "Point", "coordinates": [ 91.841259, 24.942743 ] } },
{ "type": "Feature", "properties": { "candidate_id": "TEA-C000", "lon": 91.904781, "lat": 24.936543, "row_score": 4.74, "wavelength_m": 1.09, "tile_std": 33.1 }, "geometry": { "type": "Point", "coordinates": [ 91.904781, 24.936543 ] } },
{ "type": "Feature", "properties": { "candidate_id": "TEA-C000", "lon": 91.929325, "lat": 24.935164, "row_score": 4.58, "wavelength_m": 1.48, "tile_std": 23.7 }, "geometry": { "type": "Point", "coordinates": [ 91.929325, 24.935164 ] } },
{ "type": "Feature", "properties": { "candidate_id": "TEA-C000", "lon": 91.92379, "lat": 24.948563, "row_score": 4.27, "wavelength_m": 1.15, "tile_std": 27.6 }, "geometry": { "type": "Point", "coordinates": [ 91.92379, 24.948563 ] } },
{ "type": "Feature", "properties": { "candidate_id": "TEA-C000", "lon": 91.9445, "lat": 24.965643, "row_score": 4.4, "wavelength_m": 1.49, "tile_std": 19.1 }, "geometry": { "type": "Point", "coordinates": [ 91.9445, 24.965643 ] } },
{ "type": "Feature", "properties": { "candidate_id": "TEA-C000", "lon": 91.920492, "lat": 24.96329, "row_score": 4.73, "wavelength_m": 1.35, "tile_std": 10.0 }, "geometry": { "type": "Point", "coordinates": [ 91.920492, 24.96329 ] } },
{ "type": "Feature", "properties": { "candidate_id": "TEA-C000", "lon": 91.888911, "lat": 24.922473, "row_score": 4.15, "wavelength_m": 1.46, "tile_std": 34.6 }, "geometry": { "type": "Point", "coordinates": [ 91.888911, 24.922473 ] } },
{ "type": "Feature", "properties": { "candidate_id": "TEA-C000", "lon": 91.967365, "lat": 24.934296, "row_score": 4.43, "wavelength_m": 1.44, "tile_std": 44.7 }, "geometry": { "type": "Point", "coordinates": [ 91.967365, 24.934296 ] } },
{ "type": "Feature", "properties": { "candidate_id": "TEA-C000", "lon": 91.87564, "lat": 24.931636, "row_score": 4.44, "wavelength_m": 1.33, "tile_std": 33.5 }, "geometry": { "type": "Point", "coordinates": [ 91.87564, 24.931636 ] } },
{ "type": "Feature", "properties": { "candidate_id": "TEA-C000", "lon": 91.851993, "lat": 24.914715, "row_score": 3.98, "wavelength_m": 1.21, "tile_std": 33.0 }, "geometry": { "type": "Point", "coordinates": [ 91.851993, 24.914715 ] } },
{ "type": "Feature", "properties": { "candidate_id": "TEA-C000", "lon": 91.873558, "lat": 24.942357, "row_score": 3.71, "wavelength_m": 1.47, "tile_std": 24.0 }, "geometry": { "type": "Point", "coordinates": [ 91.873558, 24.942357 ] } },
{ "type": "Feature", "properties": { "candidate_id": "TEA-C000", "lon": 91.878665, "lat": 24.942753, "row_score": 3.56, "wavelength_m": 1.23, "tile_std": 25.1 }, "geometry": { "type": "Point", "coordinates": [ 91.878665, 24.942753 ] } },
{ "type": "Feature", "properties": { "candidate_id": "TEA-C000", "lon": 91.896458, "lat": 24.937466, "row_score": 4.05, "wavelength_m": 1.37, "tile_std": 31.4 }, "geometry": { "type": "Point", "coordinates": [ 91.896458, 24.937466 ] } },
{ "type": "Feature", "properties": { "candidate_id": "TEA-C000", "lon": 91.937775, "lat": 24.932988, "row_score": 4.5, "wavelength_m": 1.09, "tile_std": 35.5 }, "geometry": { "type": "Point", "coordinates": [ 91.937775, 24.932988 ] } },
{ "type": "Feature", "properties": { "candidate_id": "TEA-C000", "lon": 91.910706, "lat": 24.937832, "row_score": 3.95, "wavelength_m": 1.42, "tile_std": 26.8 }, "geometry": { "type": "Point", "coordinates": [ 91.910706, 24.937832 ] } },
{ "type": "Feature", "properties": { "candidate_id": "TEA-C000", "lon": 91.888287, "lat": 24.914821, "row_score": 3.58, "wavelength_m": 1.23, "tile_std": 32.6 }, "geometry": { "type": "Point", "coordinates": [ 91.888287, 24.914821 ] } },
{ "type": "Feature", "properties": { "candidate_id": "TEA-C000", "lon": 91.848043, "lat": 24.928484, "row_score": 5.7, "wavelength_m": 1.48, "tile_std": 43.0 }, "geometry": { "type": "Point", "coordinates": [ 91.848043, 24.928484 ] } },
{ "type": "Feature", "properties": { "candidate_id": "TEA-C000", "lon": 91.947276, "lat": 24.965376, "row_score": 4.0, "wavelength_m": 1.44, "tile_std": 24.4 }, "geometry": { "type": "Point", "coordinates": [ 91.947276, 24.965376 ] } },
{ "type": "Feature", "properties": { "candidate_id": "TEA-C000", "lon": 91.856469, "lat": 24.919309, "row_score": 4.02, "wavelength_m": 1.48, "tile_std": 29.9 }, "geometry": { "type": "Point", "coordinates": [ 91.856469, 24.919309 ] } },
{ "type": "Feature", "properties": { "candidate_id": "TEA-C000", "lon": 91.846132, "lat": 24.924015, "row_score": 3.87, "wavelength_m": 1.43, "tile_std": 29.8 }, "geometry": { "type": "Point", "coordinates": [ 91.846132, 24.924015 ] } },
{ "type": "Feature", "properties": { "candidate_id": "TEA-C000", "lon": 91.915356, "lat": 24.92684, "row_score": 4.34, "wavelength_m": 1.36, "tile_std": 31.0 }, "geometry": { "type": "Point", "coordinates": [ 91.915356, 24.92684 ] } },
{ "type": "Feature", "properties": { "candidate_id": "TEA-C000", "lon": 91.91752, "lat": 24.913999, "row_score": 4.59, "wavelength_m": 1.5, "tile_std": 25.6 }, "geometry": { "type": "Point", "coordinates": [ 91.91752, 24.913999 ] } },
{ "type": "Feature", "properties": { "candidate_id": "TEA-C000", "lon": 91.862564, "lat": 24.935299, "row_score": 3.49, "wavelength_m": 1.36, "tile_std": 28.6 }, "geometry": { "type": "Point", "coordinates": [ 91.862564, 24.935299 ] } },
{ "type": "Feature", "properties": { "candidate_id": "TEA-C000", "lon": 91.935646, "lat": 24.964073, "row_score": 4.12, "wavelength_m": 1.5, "tile_std": 14.0 }, "geometry": { "type": "Point", "coordinates": [ 91.935646, 24.964073 ] } },
{ "type": "Feature", "properties": { "candidate_id": "TEA-C000", "lon": 91.874753, "lat": 24.938672, "row_score": 4.01, "wavelength_m": 1.35, "tile_std": 32.6 }, "geometry": { "type": "Point", "coordinates": [ 91.874753, 24.938672 ] } },
{ "type": "Feature", "properties": { "candidate_id": "TEA-C000", "lon": 91.939087, "lat": 24.962602, "row_score": 4.45, "wavelength_m": 1.49, "tile_std": 12.9 }, "geometry": { "type": "Point", "coordinates": [ 91.939087, 24.962602 ] } },
{ "type": "Feature", "properties": { "candidate_id": "TEA-C000", "lon": 91.899236, "lat": 24.92147, "row_score": 3.44, "wavelength_m": 1.41, "tile_std": 42.3 }, "geometry": { "type": "Point", "coordinates": [ 91.899236, 24.92147 ] } },
{ "type": "Feature", "properties": { "candidate_id": "TEA-C000", "lon": 91.88614, "lat": 24.9253, "row_score": 4.49, "wavelength_m": 1.27, "tile_std": 36.0 }, "geometry": { "type": "Point", "coordinates": [ 91.88614, 24.9253 ] } },
{ "type": "Feature", "properties": { "candidate_id": "TEA-C000", "lon": 91.913401, "lat": 24.951723, "row_score": 3.63, "wavelength_m": 1.22, "tile_std": 29.0 }, "geometry": { "type": "Point", "coordinates": [ 91.913401, 24.951723 ] } },
{ "type": "Feature", "properties": { "candidate_id": "TEA-C000", "lon": 91.866283, "lat": 24.927219, "row_score": 4.86, "wavelength_m": 1.41, "tile_std": 33.8 }, "geometry": { "type": "Point", "coordinates": [ 91.866283, 24.927219 ] } },
{ "type": "Feature", "properties": { "candidate_id": "TEA-C000", "lon": 91.940976, "lat": 24.929785, "row_score": 3.5, "wavelength_m": 1.37, "tile_std": 27.1 }, "geometry": { "type": "Point", "coordinates": [ 91.940976, 24.929785 ] } },
{ "type": "Feature", "properties": { "candidate_id": "TEA-C000", "lon": 91.935915, "lat": 24.940631, "row_score": 4.97, "wavelength_m": 1.47, "tile_std": 29.5 }, "geometry": { "type": "Point", "coordinates": [ 91.935915, 24.940631 ] } },
{ "type": "Feature", "properties": { "candidate_id": "TEA-C000", "lon": 91.931686, "lat": 24.923809, "row_score": 5.51, "wavelength_m": 1.39, "tile_std": 27.2 }, "geometry": { "type": "Point", "coordinates": [ 91.931686, 24.923809 ] } },
{ "type": "Feature", "properties": { "candidate_id": "TEA-C000", "lon": 91.878468, "lat": 24.92456, "row_score": 3.6, "wavelength_m": 1.45, "tile_std": 36.0 }, "geometry": { "type": "Point", "coordinates": [ 91.878468, 24.92456 ] } },
{ "type": "Feature", "properties": { "candidate_id": "TEA-C000", "lon": 91.928983, "lat": 24.927666, "row_score": 4.01, "wavelength_m": 1.21, "tile_std": 28.8 }, "geometry": { "type": "Point", "coordinates": [ 91.928983, 24.927666 ] } }
]
}
