<?xml version="1.0" encoding="UTF-8"?>
<kml xmlns="http://www.opengis.net/kml/2.2" xmlns:gx="http://www.google.com/kml/ext/2.2" xmlns:kml="http://www.opengis.net/kml/2.2" xmlns:atom="http://www.w3.org/2005/Atom">
<Document>
	<name>tea10.kml</name>
	<StyleMap id="cand">
		<Pair>
			<key>normal</key>
			<styleUrl>#cand1</styleUrl>
		</Pair>
		<Pair>
			<key>highlight</key>
			<styleUrl>#cand0</styleUrl>
		</Pair>
	</StyleMap>
	<Style id="cand0">
		<LineStyle>
			<color>ff00a5ff</color>
			<width>2</width>
		</LineStyle>
		<PolyStyle>
			<color>0000a5ff</color>
		</PolyStyle>
	</Style>
	<Style id="cand1">
		<LineStyle>
			<color>ff00a5ff</color>
			<width>2</width>
		</LineStyle>
		<PolyStyle>
			<color>0000a5ff</color>
		</PolyStyle>
	</Style>
	<Placemark>
		<name>tea10</name>
		<styleUrl>#cand</styleUrl>
		<Polygon>
			<tessellate>1</tessellate>
			<outerBoundaryIs>
				<LinearRing>
					<coordinates>
						91.88309306384853,24.92991177443419,0 91.88297492345646,24.92984356968696,0 91.8827722991429,24.92925356630513,0 91.88382172748184,24.92827096831646,0 91.88483612832469,24.92754393395769,0 91.88502916640853,24.92754086878886,0 91.88718281446681,24.92703925937534,0 91.88767942447689,24.92693441992671,0 91.8892885201689,24.92664532380303,0 91.88962637809897,24.92673568088026,0 91.88975021845442,24.92674196342766,0 91.89093468001666,24.92740294352881,0 91.89105890250687,24.92745692355916,0 91.89300420621151,24.92748463645213,0 91.89319648007962,24.927481871858,0 91.89440204766478,24.92689375890028,0 91.89414779158454,24.92485711759795,0 91.89383656681048,24.92485398108343,0 91.89291226629659,24.92439280168734,0 91.89249042889973,24.92426915399896,0 91.8920701668915,24.92414338712138,0 91.89182377064486,24.92413886449545,0 91.89089297580398,24.9236392534175,0 91.8907329502064,24.92344839331792,0 91.89044318531396,24.92331749789421,0 91.890092971768,24.92318555550608,0 91.88935435788446,24.92196889612049,0 91.88926376462376,24.92172974414004,0 91.8908796841757,24.92123173862209,0 91.89123843481161,24.92124315020066,0 91.8915388844067,24.92124987069634,0 91.89285483349479,24.92174856539065,0 91.89303521692099,24.92175490279183,0 91.89313999600591,24.92188521868787,0 91.89406275145781,24.92285458546439,0 91.89445059095736,24.92323990568102,0 91.89478894774243,24.92350875070681,0 91.89519585890704,24.92376447687146,0 91.89544741572806,24.92379967213475,0 91.89563822030183,24.92383092833886,0 91.89587349137318,24.92400476439587,0 91.89618087363993,24.92456894496763,0 91.8960933256311,24.9248298227485,0 91.89667376429523,24.92654278626559,0 91.8978147112513,24.92644215909169,0 91.89820337296619,24.92640750146781,0 91.90012121451136,24.92593776428714,0 91.90043726110291,24.92593416419816,0 91.90224923629032,24.92529541849149,0 91.90262039155148,24.92532443406332,0 91.90264858254974,24.92483205082053,0 91.90259254355325,24.9245647856218,0 91.90241238739733,24.92443296355272,0 91.90171488740174,24.92371516360931,0 91.90141304758819,24.92354034158953,0 91.90103915831349,24.92350782692119,0 91.90063731126254,24.92304989138819,0 91.90033669568395,24.92292618372747,0 91.90132023973767,24.92210275698229,0 91.90150575947769,24.92209300935587,0 91.90230629429432,24.92206307265823,0 91.90242531395157,24.92208049482958,0 91.90254298546198,24.92215093583531,0 91.90341536337185,24.92325483866457,0 91.9038733837307,24.9239592574582,0 91.90393097181635,24.92403700235269,0 91.90497550434378,24.92431449865224,0 91.90528429084483,24.92433625014166,0 91.90691610435911,24.9238056706059,0 91.90722776692122,24.92363264007457,0 91.91000751532628,24.92245483487521,0 91.91031389753456,24.92243233030944,0 91.91037508108927,24.92242550574787,0 91.91185066540093,24.92258033751131,0 91.91185374299363,24.92276717069462,0 91.91186154000226,24.92321498761,0 91.91187354155657,24.92391860109966,0 91.91187642631513,24.92410464809572,0 91.91177675728838,24.92542535137579,0 91.91128974076734,24.92653055259331,0 91.91129074377574,24.92660133807433,0 91.91130596295038,24.92786040340202,0 91.91184150313914,24.92918351510015,0 91.91401148035706,24.93035057780674,0 91.91544613847671,24.93050693291944,0 91.91557982400104,24.93053328559604,0 91.91651618407289,24.93239828995392,0 91.91873645149117,24.93400479850616,0 91.91721700632276,24.93431360204697,0 91.91695301797326,24.93443794129363,0 91.91675089088643,24.93447876998518,0 91.91571334908716,24.93515644852549,0 91.91557749870154,24.93519585868721,0 91.91524759938443,24.93540521411935,0 91.91340293719767,24.93683531723757,0 91.91320003573136,24.93695823473603,0 91.91314082727759,24.9372415875247,0 91.91270386766941,24.93922147668433,0 91.91211031087457,24.94089643155069,0 91.91204217326126,24.94109409675545,0 91.91134677175056,24.94173966272714,0 91.91000922264134,24.94150318109117,0 91.90951799957827,24.94141572112306,0 91.90916780416764,24.9412811333814,0 91.90804778732198,24.94089996791058,0 91.90763059223205,24.94081384577341,0 91.90728932693267,24.94008900256744,0 91.90721924705205,24.9400997566655,0 91.9064684149853,24.93915316412819,0 91.90626583888684,24.93895962157034,0 91.90593929976617,24.93820436759323,0 91.90580942801094,24.93798892851865,0 91.90612353670691,24.93661249998689,0 91.90641834735078,24.93527716813659,0 91.90623421932915,24.93435352938677,0 91.90597352142129,24.93419915012069,0 91.90473443651226,24.93323372341617,0 91.90427573606863,24.93307635744997,0 91.90400822028494,24.93309539134887,0 91.90387355264481,24.93311268752033,0 91.90215677973295,24.93285299006665,0 91.90177029100384,24.93278063212252,0 91.90150395263144,24.93278983851834,0 91.8995117908826,24.93281611272577,0 91.89905701998818,24.9327731579159,0 91.89769227457467,24.9325212831956,0 91.89733841448219,24.93261671228724,0 91.89497095390107,24.93200389828546,0 91.89484659459276,24.93193145161852,0 91.89450728098996,24.93196480935136,0 91.89320162715538,24.93193217940641,0 91.89308479147158,24.9318404267661,0 91.89087102130719,24.9316412351211,0 91.88760551620419,24.93141046333637,0 91.88393127669571,24.93136233373836,0 91.88309306384853,24.92991177443419,0 
					</coordinates>
				</LinearRing>
			</outerBoundaryIs>
		</Polygon>
		<atom:link rel="app" href="https://www.google.com/earth/about/versions/#earth-pro" title="Google Earth Pro 7.3.7.1155"></atom:link>
	</Placemark>
</Document>
</kml>
