<?xml version="1.0" encoding="UTF-8"?>
<kml xmlns="http://www.opengis.net/kml/2.2" xmlns:gx="http://www.google.com/kml/ext/2.2" xmlns:kml="http://www.opengis.net/kml/2.2" xmlns:atom="http://www.w3.org/2005/Atom">
<Document>
	<name>tea1.kml</name>
	<StyleMap id="cand">
		<Pair>
			<key>normal</key>
			<styleUrl>#cand1</styleUrl>
		</Pair>
		<Pair>
			<key>highlight</key>
			<styleUrl>#cand0</styleUrl>
		</Pair>
	</StyleMap>
	<Style id="cand0">
		<LineStyle>
			<color>ff00a5ff</color>
			<width>2</width>
		</LineStyle>
		<PolyStyle>
			<color>0000a5ff</color>
		</PolyStyle>
	</Style>
	<Style id="cand1">
		<LineStyle>
			<color>ff00a5ff</color>
			<width>2</width>
		</LineStyle>
		<PolyStyle>
			<color>0000a5ff</color>
		</PolyStyle>
	</Style>
	<Placemark>
		<name>tea1</name>
		<styleUrl>#cand</styleUrl>
		<Polygon>
			<tessellate>1</tessellate>
			<outerBoundaryIs>
				<LinearRing>
					<coordinates>
						91.86398579322834,24.93825741697582,0 91.86395049986055,24.93773772788262,0 91.86373776610215,24.9376332744479,0 91.86378074958904,24.93754161531318,0 91.86380774983212,24.9373080223066,0 91.86378521196035,24.93712251999106,0 91.86371507238289,24.93690657614852,0 91.86352525352297,24.9366570995245,0 91.86324817078054,24.93653152919419,0 91.86315701412956,24.93641177475739,0 91.86311348197148,24.93615945734253,0 91.86312020768455,24.93577644172473,0 91.86309605357539,24.93556170505451,0 91.86322992250717,24.93544833891571,0 91.86342754761385,24.935469478195,0 91.86364895477149,24.93591957066462,0 91.86406866534971,24.93600710446402,0 91.86442046076179,24.93593319886514,0 91.86485643913839,24.93603143329429,0 91.8650897531999,24.93621832102972,0 91.86548774759538,24.93621203628845,0 91.86570893009238,24.93639436635274,0 91.86591328560729,24.93630251809313,0 91.86608694615859,24.93611438133685,0 91.86609852445375,24.93594596034593,0 91.865895497872,24.93567096084009,0 91.86559163684694,24.93556162964784,0 91.86522130649807,24.93553397645419,0 91.86496606540517,24.93551318279334,0 91.86484660111411,24.93525969813389,0 91.86479379817197,24.93505946868989,0 91.86506681565427,24.93495051932462,0 91.8653222454173,24.93503791945691,0 91.86560030621233,24.93500801193807,0 91.86585743292281,24.93506526699549,0 91.86587702494981,24.93537064316248,0 91.86603062999006,24.93542109088989,0 91.8662117660399,24.935639048357,0 91.86638125980828,24.93567650525483,0 91.86659670099756,24.93581975746598,0 91.866777449613,24.9359100357871,0 91.86692336067827,24.93592171256982,0 91.86708800081419,24.93610261916562,0 91.86700507123064,24.93646656669877,0 91.86691214455639,24.93669658352974,0 91.86684744271683,24.93692229829255,0 91.86689273972929,24.93712297877101,0 91.86708058926327,24.93716213383903,0 91.86691522214814,24.93736668650354,0 91.86683179191023,24.93750729613899,0 91.8665837548559,24.93723999637986,0 91.86643067001968,24.93704882431987,0 91.8662730032448,24.93696498118611,0 91.86598941029145,24.93700448698422,0 91.86582740376605,24.93691161869562,0 91.86559705790383,24.93702908771176,0 91.86552655843236,24.93722158463815,0 91.86560403993485,24.93743382964803,0 91.865667236945,24.93760714533557,0 91.86580285986354,24.93776196728927,0 91.86599538790665,24.93786441503738,0 91.86623759242428,24.93801766751139,0 91.86645252187253,24.93810490580634,0 91.86673908928441,24.93816434492564,0 91.86710913489209,24.93820389149429,0 91.86739213948353,24.93808302913536,0 91.86762517314541,24.93778487637081,0 91.86780810226466,24.93761736246912,0 91.86802289163072,24.93729161600428,0 91.86811702830825,24.93719480527238,0 91.86809149577856,24.93701496214041,0 91.8678222261176,24.93702187583656,0 91.86751415665493,24.93694420549125,0 91.86742444067148,24.93682330309002,0 91.86780923518778,24.93682912112774,0 91.86805147387102,24.9368550575663,0 91.86822669028247,24.93683429594996,0 91.86837317551442,24.9369346712546,0 91.8682893756371,24.93721929204322,0 91.86829012887438,24.93734617034897,0 91.86812634569071,24.93750045949048,0 91.86800920592739,24.93777110449454,0 91.86801682429852,24.93796917302969,0 91.8682337917387,24.93804205401888,0 91.86845519228707,24.93789587832999,0 91.86860791618716,24.93782043200611,0 91.86880054186729,24.93801588761185,0 91.86867294924681,24.93828210765031,0 91.86853342534206,24.93842108829583,0 91.86850575276951,24.9385543853586,0 91.86830951683314,24.93868675995633,0 91.86799474353482,24.93873623804775,0 91.86785787232094,24.93894518160385,0 91.86775058898893,24.93914466256371,0 91.86752984568588,24.93926753770896,0 91.86739197084555,24.93949793052096,0 91.86735922102532,24.9396646786349,0 91.86694575609523,24.93975241379098,0 91.86702789326065,24.93952503460698,0 91.86684990663207,24.93928897064882,0 91.86656248471895,24.93927508789096,0 91.86620307280832,24.93924984614311,0 91.86598876343871,24.93923299049784,0 91.86575642958432,24.93926324569089,0 91.86549580789033,24.93912156276164,0 91.86547116248765,24.9394027787183,0 91.86526370099183,24.93946434668648,0 91.86516932840017,24.93955566372825,0 91.86537762555805,24.93965245797736,0 91.86524763305569,24.93980970486252,0 91.86508088068366,24.93988654842853,0 91.86500488392909,24.94006500664536,0 91.86498936340327,24.94022704103136,0 91.86427537674699,24.94027961943874,0 91.86414451703504,24.94052413837992,0 91.86411353467308,24.94067080239657,0 91.86385819870723,24.94081885773739,0 91.86357157652708,24.9408371785031,0 91.86330763855197,24.94091865247713,0 91.86305415937431,24.94112288420976,0 91.86280733009906,24.94127456493651,0 91.86256762662592,24.94138621350499,0 91.8625349371232,24.94090912536196,0 91.86306310411454,24.94063489462706,0 91.86337192202024,24.94019827465677,0 91.86312321775893,24.93980222394074,0 91.86284458399231,24.93965079190894,0 91.86271488979293,24.93939947947326,0 91.86259241806745,24.93911914643223,0 91.86274451471628,24.93875938105113,0 91.86283583116749,24.93854516791411,0 91.86329637225215,24.93861694884598,0 91.86346958493962,24.93880832545592,0 91.86374297367264,24.93887541282966,0 91.8640545516925,24.93851999914394,0 91.86398579322834,24.93825741697582,0 
					</coordinates>
				</LinearRing>
			</outerBoundaryIs>
		</Polygon>
		<atom:link rel="app" href="https://www.google.com/earth/about/versions/#earth-pro" title="Google Earth Pro 7.3.7.1155"></atom:link>
	</Placemark>
</Document>
</kml>
