<?xml version="1.0" encoding="UTF-8"?>
<kml xmlns="http://www.opengis.net/kml/2.2" xmlns:gx="http://www.google.com/kml/ext/2.2" xmlns:kml="http://www.opengis.net/kml/2.2" xmlns:atom="http://www.w3.org/2005/Atom">
<Document>
	<name>tea11.kml</name>
	<Style id="cand">
		<LineStyle>
			<color>ff00a5ff</color>
			<width>2</width>
		</LineStyle>
		<PolyStyle>
			<color>0000a5ff</color>
		</PolyStyle>
	</Style>
	<StyleMap id="cand0">
		<Pair>
			<key>normal</key>
			<styleUrl>#cand</styleUrl>
		</Pair>
		<Pair>
			<key>highlight</key>
			<styleUrl>#cand1</styleUrl>
		</Pair>
	</StyleMap>
	<Style id="cand1">
		<LineStyle>
			<color>ff00a5ff</color>
			<width>2</width>
		</LineStyle>
		<PolyStyle>
			<color>0000a5ff</color>
		</PolyStyle>
	</Style>
	<Placemark>
		<name>tea11</name>
		<styleUrl>#cand0</styleUrl>
		<Polygon>
			<tessellate>1</tessellate>
			<outerBoundaryIs>
				<LinearRing>
					<coordinates>
						91.97652429257811,24.969063387545,0 91.97743851834764,24.96937009983038,0 91.97957234166287,24.96928506373779,0 91.98196657450255,24.96931323035377,0 91.98241415669369,24.96932336501536,0 91.98503370767695,24.96837540795514,0 91.98595329691346,24.96625543748171,0 91.98597408361383,24.96603894389649,0 91.986814616394,24.96575975296456,0 91.98759258498403,24.96489456552122,0 91.98783613076716,24.96464991508386,0 91.98921192124271,24.96273405765147,0 91.98817312605217,24.96196263548799,0 91.98678854525328,24.96074914459821,0 91.98536723471901,24.96007804958108,0 91.98480922271297,24.95867474430746,0 91.98333981385382,24.9573371972898,0 91.98136301194489,24.95600275861031,0 91.98356254162229,24.95534327906723,0 91.98360721112451,24.95621038714643,0 91.98610780761689,24.95737146825278,0 91.98775419276663,24.95632566061349,0 91.98802557211773,24.9563207339576,0 91.98836771261827,24.95630341471254,0 91.98934017530324,24.95667527256326,0 91.98931603748002,24.95689978711561,0 91.98919928565742,24.95780130620873,0 91.98936362335655,24.95919285149095,0 91.98942150293247,24.95928417411544,0 91.98948709865353,24.95990204347632,0 91.99111688023415,24.96031520282163,0 91.99125773026363,24.96030904276515,0 91.99150769428726,24.96063209423253,0 91.99189785008997,24.96011634727592,0 91.99196789808505,24.9594061576832,0 91.99179705178946,24.95904362471191,0 91.99175578575699,24.95877390088979,0 91.9928654669654,24.9565977230022,0 91.99402932448264,24.95738251807832,0 91.99409730342848,24.95738261056374,0 91.99642711573691,24.95795612574819,0 91.99654549632352,24.95932999072607,0 91.99586774201364,24.96014473135467,0 91.99585548651004,24.96032770499225,0 91.99581174427033,24.9609770148838,0 91.9958830551773,24.96210427900599,0 91.99582596666039,24.9629665193638,0 91.99633857836926,24.96388002408814,0 91.99639292365438,24.96417107464013,0 91.99804805061407,24.96420051598629,0 91.99818296601627,24.96439988736368,0 91.99909370084259,24.96511367079745,0 91.99916626705271,24.9651149862327,0 92.00113849713372,24.96470669370531,0 92.00135741841039,24.96461001069272,0 92.00159847760304,24.96322988029015,0 92.00160234170228,24.96302664444785,0 92.00220303329314,24.96110214720033,0 92.00290264027413,24.96116794343758,0 92.00311270081841,24.96122869581431,0 92.00346323702492,24.96151907563722,0 92.00502088410479,24.96218864743827,0 92.00573909127628,24.96271958139067,0 92.00602673478386,24.96288948234657,0 92.00710898550523,24.96354529013337,0 92.0072606988264,24.96384288013029,0 92.0080438063402,24.96555949407986,0 92.00952252720259,24.96449535722747,0 92.00959466890426,24.9644944065483,0 92.01110062790895,24.96435010955901,0 92.01147837556834,24.96458929934337,0 92.01294471397584,24.96478569333751,0 92.01298941349384,24.9653866578569,0 92.0129208396072,24.96660720556614,0 92.01412802907575,24.96778290707658,0 92.0149197980373,24.96753892280726,0 92.01526849708034,24.96741001145192,0 92.01569805541597,24.96733019094074,0 92.01695473842746,24.96715705659619,0 92.01716868031882,24.96844998811802,0 92.01718071774192,24.9685608902164,0 92.01846944230802,24.97070515984369,0 92.01893883966076,24.97017140975565,0 92.02079434169822,24.96951985876231,0 92.02172065024098,24.96971420970427,0 92.02188547051531,24.96981856315963,0 92.02347332866604,24.97087494550339,0 92.02370124172204,24.97239268105685,0 92.02319168773495,24.97308642526039,0 92.02298919254865,24.97490494633882,0 92.023106683777,24.97520918457331,0 92.0239508941474,24.97669557943715,0 92.02422875761496,24.97848623065467,0 92.02417256165512,24.97973121879558,0 92.02321188011999,24.98098531975674,0 92.02250785338803,24.98185710671654,0 92.02186196983364,24.9819155136366,0 92.02130160849396,24.98139442401354,0 92.01998790836203,24.98051062613006,0 92.01923810055986,24.98107507303718,0 92.01833848387912,24.98351637261718,0 92.0180880592078,24.98351616836917,0 92.01731262717473,24.98325844478961,0 92.01644834289283,24.98112225163865,0 92.01636376383351,24.98110577530164,0 92.01522604264918,24.98123229530783,0 92.01498470927473,24.98126893605239,0 92.01457849858248,24.98130372587232,0 92.01366595058771,24.98117857711397,0 92.01353696148639,24.97937861274833,0 92.01353566128765,24.97824207083987,0 92.0134163828582,24.97666174218305,0 92.01291765797136,24.97514990510357,0 92.01120332532859,24.97537475463192,0 92.01081832272244,24.97551243403594,0 92.00973546892813,24.97585827845515,0 92.00927043176507,24.97608129137764,0 92.00840947487406,24.9763320327627,0 92.00709245636416,24.97755730386004,0 92.00639786428627,24.97895292790199,0 92.00519396242535,24.9797668973889,0 92.00381313866174,24.97980700273408,0 92.00235090364158,24.97972344079314,0 92.00131067802619,24.97885600124383,0 92.00123218072061,24.97873622817583,0 92.00013974886696,24.97752829533504,0 91.99890064763977,24.97637080474949,0 91.99846648795705,24.97537972432936,0 91.99750023306694,24.97416051641041,0 91.99608741283909,24.97319922116172,0 91.99593702801123,24.97315851323108,0 91.99330814843827,24.97298939761255,0 91.99176827698085,24.97295476154058,0 91.99169110514049,24.97295437764503,0 91.99019102489807,24.97246925816825,0 91.98844670525334,24.97224593533095,0 91.9870870712811,24.97267340992829,0 91.98598383080272,24.97174722576045,0 91.98447370101958,24.97264004899753,0 91.98078648298475,24.97254892018893,0 91.97990769457867,24.97405655933502,0 91.97876938606787,24.9739158457568,0 91.9784032391271,24.97375046648051,0 91.97805844881603,24.9734762109125,0 91.97706312118292,24.97338884003263,0 91.97685533768683,24.97327059904991,0 91.97647082122704,24.97326211659319,0 91.97384072679887,24.97427615225897,0 91.97267106963088,24.97593134858569,0 91.97092451510163,24.97725238272672,0 91.96962276730804,24.97735616492843,0 91.96929736220953,24.9773704517029,0 91.96728119682224,24.97833446533598,0 91.96507997441925,24.97897810514651,0 91.9642344657919,24.97799241153711,0 91.96551373136494,24.97599335236499,0 91.96524189505296,24.9745874158379,0 91.96377809349454,24.97424521635025,0 91.9624111622898,24.97311936413391,0 91.96308166473844,24.97104681491197,0 91.96454422007301,24.96933668836729,0 91.96694246754909,24.96858954041757,0 91.9699254386463,24.96825929560326,0 91.97239413878678,24.96786087379589,0 91.97496848564495,24.96836720314332,0 91.9781619513836,24.96840563301855,0 91.97652429257811,24.969063387545,0 
					</coordinates>
				</LinearRing>
			</outerBoundaryIs>
		</Polygon>
		<atom:link rel="app" href="https://www.google.com/earth/about/versions/#earth-pro" title="Google Earth Pro 7.3.7.1155"></atom:link>
	</Placemark>
</Document>
</kml>
