<?xml version="1.0" encoding="UTF-8"?>
<kml xmlns="http://www.opengis.net/kml/2.2" xmlns:gx="http://www.google.com/kml/ext/2.2" xmlns:kml="http://www.opengis.net/kml/2.2" xmlns:atom="http://www.w3.org/2005/Atom">
<Document>
	<name>tea12.kml</name>
	<Style id="cand">
		<LineStyle>
			<color>ff00a5ff</color>
			<width>2</width>
		</LineStyle>
		<PolyStyle>
			<color>0000a5ff</color>
		</PolyStyle>
	</Style>
	<Style id="cand0">
		<LineStyle>
			<color>ff00a5ff</color>
			<width>2</width>
		</LineStyle>
		<PolyStyle>
			<color>0000a5ff</color>
		</PolyStyle>
	</Style>
	<StyleMap id="cand1">
		<Pair>
			<key>normal</key>
			<styleUrl>#cand0</styleUrl>
		</Pair>
		<Pair>
			<key>highlight</key>
			<styleUrl>#cand</styleUrl>
		</Pair>
	</StyleMap>
	<Placemark>
		<name>tea12</name>
		<styleUrl>#cand1</styleUrl>
		<Polygon>
			<tessellate>1</tessellate>
			<outerBoundaryIs>
				<LinearRing>
					<coordinates>
						91.87848661550356,24.94582085047064,0 91.87846580504041,24.94575904608791,0 91.87850978429897,24.94492916171649,0 91.87853135793412,24.94475216102759,0 91.87856996411254,24.94465529705122,0 91.87861541424031,24.94453532002396,0 91.87866093499848,24.94443288216898,0 91.87868319352751,24.94440172869773,0 91.87869504669531,24.94437104121867,0 91.87869783311449,24.94433769442145,0 91.87897522951897,24.94406826603134,0 91.87902804529753,24.94404236287989,0 91.87907252598538,24.94401188738231,0 91.87927734525692,24.94400310014511,0 91.87937635685009,24.94400804703354,0 91.87941676866862,24.94400790194613,0 91.87973871496,24.94369952557231,0 91.87981693787199,24.94367072471223,0 91.88013922688162,24.94360477466191,0 91.88017633984944,24.94360580746386,0 91.88026872226672,24.94360803003815,0 91.88034179207621,24.94362989730246,0 91.88036947250843,24.94363740878661,0 91.88044306776712,24.94367247336443,0 91.88049816172884,24.94371009520478,0 91.88090669412827,24.94359418651578,0 91.88099025406875,24.94354102828105,0 91.88101302653843,24.94350380754629,0 91.88131574624225,24.94308868710453,0 91.88136757890373,24.94302174791847,0 91.88139674417377,24.94301060281078,0 91.88163794306023,24.94292362639304,0 91.88170470780904,24.94291653922309,0 91.88174266041845,24.94292015152685,0 91.88179011136451,24.94292256939329,0 91.88210242236453,24.94288447971384,0 91.88211183963429,24.94288360037453,0 91.88215877076172,24.94289413733182,0 91.88230878480687,24.94292073306133,0 91.88267467045233,24.94298067320718,0 91.88271237697943,24.94299103641734,0 91.88276904110842,24.94301047226437,0 91.88280730847768,24.94304920970381,0 91.88308313336006,24.9431373776118,0 91.8831115825581,24.94314462025475,0 91.88341337684722,24.94318246741234,0 91.88346064831332,24.94318255338755,0 91.88350882863764,24.94319547785389,0 91.88355818816555,24.94322223367534,0 91.88390664576448,24.94350334086118,0 91.88392623155237,24.94350359227316,0 91.88397622722229,24.94351599609872,0 91.88418141059722,24.94354149373604,0 91.88422134406859,24.9435582491742,0 91.88453629679253,24.9436573160785,0 91.88456751419176,24.94367087784214,0 91.88461919268424,24.9437437107588,0 91.88488103023479,24.94419097489638,0 91.88490622838241,24.94423525537829,0 91.88505916158938,24.94448168946189,0 91.88506906624404,24.94448047936863,0 91.88526903238576,24.94494726991254,0 91.88534738878262,24.94553279065015,0 91.88516829963064,24.94625096870193,0 91.8851334844469,24.94633036291342,0 91.88512400470742,24.94634547871892,0 91.88471538396914,24.94682819527178,0 91.8846541936506,24.94681841848264,0 91.88434433937933,24.94736637419132,0 91.88351168495811,24.9475332829996,0 91.88221515769816,24.94736539812378,0 91.8814437233295,24.94711421323167,0 91.88051108719478,24.9472538462563,0 91.8793036563445,24.94697677039116,0 91.87848661550356,24.94582085047064,0 
					</coordinates>
				</LinearRing>
			</outerBoundaryIs>
		</Polygon>
		<atom:link rel="app" href="https://www.google.com/earth/about/versions/#earth-pro" title="Google Earth Pro 7.3.7.1155"></atom:link>
	</Placemark>
</Document>
</kml>
