<?xml version="1.0" encoding="UTF-8"?>
<kml xmlns="http://www.opengis.net/kml/2.2" xmlns:gx="http://www.google.com/kml/ext/2.2" xmlns:kml="http://www.opengis.net/kml/2.2" xmlns:atom="http://www.w3.org/2005/Atom">
<Document>
	<name>tea2.kml</name>
	<Style id="cand">
		<LineStyle>
			<color>ff00a5ff</color>
			<width>2</width>
		</LineStyle>
		<PolyStyle>
			<color>0000a5ff</color>
		</PolyStyle>
	</Style>
	<Style id="cand0">
		<LineStyle>
			<color>ff00a5ff</color>
			<width>2</width>
		</LineStyle>
		<PolyStyle>
			<color>0000a5ff</color>
		</PolyStyle>
	</Style>
	<StyleMap id="cand1">
		<Pair>
			<key>normal</key>
			<styleUrl>#cand</styleUrl>
		</Pair>
		<Pair>
			<key>highlight</key>
			<styleUrl>#cand0</styleUrl>
		</Pair>
	</StyleMap>
	<Placemark>
		<name>tea2</name>
		<styleUrl>#cand1</styleUrl>
		<Polygon>
			<tessellate>1</tessellate>
			<outerBoundaryIs>
				<LinearRing>
					<coordinates>
						91.86382827520504,24.93527466341516,0 91.86365508611524,24.93534037544741,0 91.863556346807,24.93537522541313,0 91.86342116041908,24.93542842327252,0 91.86319743257346,24.93544230281263,0 91.86298565097229,24.93540310316174,0 91.8629111284863,24.93529958230087,0 91.86228516390945,24.93523797960988,0 91.86226053640802,24.93523840438868,0 91.86218636201423,24.93524106892484,0 91.86206109520555,24.93529412960543,0 91.86188358316016,24.93531289701454,0 91.86170709636362,24.9354404505069,0 91.86172931700095,24.93554548949032,0 91.86176380912312,24.93564135464372,0 91.86195523745749,24.93569714693023,0 91.86196833206526,24.93569411035227,0 91.86217119649919,24.93566939915755,0 91.86233274238209,24.93575594906588,0 91.86220576317386,24.93638655204142,0 91.8622066937819,24.93652075608348,0 91.86211338915136,24.93665207081342,0 91.86210012489555,24.93666681211357,0 91.86187539484905,24.93679105835178,0 91.86178291005515,24.93689342569207,0 91.86176903506782,24.93693153513595,0 91.8616498470405,24.93704732031432,0 91.86163393062148,24.93718263554485,0 91.86183195855001,24.93755084656905,0 91.86197346119337,24.93761609423485,0 91.86199950617035,24.93761598583225,0 91.86212919960842,24.93767547943189,0 91.86233795563989,24.93762632991496,0 91.86250795315647,24.93754690964461,0 91.86266459394888,24.93742773921855,0 91.86285936095517,24.93727487886941,0 91.86302581546902,24.93725546170262,0 91.86318006687922,24.93738390906235,0 91.86354972794574,24.93776576850192,0 91.86341887859814,24.93774959499295,0 91.86329998815869,24.93767874554794,0 91.86316942426107,24.93762647658068,0 91.86300120818632,24.93764061061292,0 91.86281963084336,24.9377699397083,0 91.86262327340533,24.93783699778287,0 91.86261008385628,24.93783976825431,0 91.86240071618732,24.93784482830376,0 91.86208894507831,24.93775168326098,0 91.86190719920572,24.93769058464951,0 91.86162451996394,24.9375597776489,0 91.86157392922387,24.93749774457067,0 91.86157676196306,24.93738478380163,0 91.86149242791497,24.9371923142788,0 91.86140613577309,24.93705567388585,0 91.86125591253509,24.93694263575769,0 91.86114520865934,24.93679592644553,0 91.86125226147395,24.93663822806776,0 91.86127032526706,24.93647938623439,0 91.86124010436043,24.93625977413981,0 91.86110685768294,24.93610286344865,0 91.86099475287455,24.9360668581537,0 91.86084375604491,24.93606620554156,0 91.86059568737674,24.9359824944067,0 91.86047263702035,24.9359341018387,0 91.86027901915973,24.9358028245709,0 91.86021906973758,24.93575536356283,0 91.85990089594016,24.93565891587481,0 91.85972252076924,24.93571732890192,0 91.85945604863329,24.93577596846025,0 91.85922434142122,24.93571503390129,0 91.85913914837413,24.93569096199899,0 91.8589693969728,24.93563182830457,0 91.85875243385348,24.93554926316992,0 91.85856714572112,24.93534352171294,0 91.85882349191931,24.93535756918478,0 91.85911622590437,24.93539427222596,0 91.85938183290796,24.9353884983106,0 91.85941966047,24.93538773821824,0 91.85970075377344,24.93539225865969,0 91.85993098119992,24.93539926132091,0 91.86016535202846,24.93540149209735,0 91.8602405997954,24.93538977278101,0 91.86038395455618,24.93528342867071,0 91.86037125359665,24.93508500991038,0 91.86031161975995,24.93506100112493,0 91.86012146252946,24.93496742701279,0 91.85989483558734,24.93488560314407,0 91.85987186050893,24.93487331236419,0 91.85968087612136,24.93478161140118,0 91.85946212814677,24.93467610446501,0 91.85949638322124,24.93430120156146,0 91.85967746294081,24.93429128489047,0 91.85984493843908,24.93415742558834,0 91.85998076943034,24.93411313345799,0 91.86020043571781,24.93425781526978,0 91.86034883897214,24.93421274491926,0 91.86040101625991,24.93414627201956,0 91.86033840756704,24.93397054610518,0 91.86049611991638,24.93393806384036,0 91.8606923021139,24.93385113585843,0 91.86083058224173,24.93372039975945,0 91.86091879301446,24.93362290523244,0 91.86100830621751,24.93344216303602,0 91.86107081523804,24.93334694654789,0 91.86101757305154,24.93318806709799,0 91.86116429697435,24.93304124649421,0 91.86122626209398,24.93295736646369,0 91.86138796343846,24.93306226083335,0 91.86156403809339,24.93310425423738,0 91.86171649811703,24.93311612313666,0 91.86184730324305,24.93308461156857,0 91.86206313443284,24.93290660926479,0 91.86207473087882,24.93291707926496,0 91.86216782902581,24.93300071490078,0 91.86225004375999,24.93303221417511,0 91.86235638784356,24.93301186179013,0 91.86264141114745,24.93279136008009,0 91.86283032228418,24.93244837507523,0 91.86301665397417,24.93255846203027,0 91.86305216868671,24.93265412152996,0 91.86309988670972,24.93284264648619,0 91.86312067791356,24.93299142812364,0 91.86305222960762,24.93310156033134,0 91.86315692766507,24.93313187625734,0 91.86314405599639,24.93323059698352,0 91.86313115160659,24.93336062283164,0 91.86316721244987,24.93345417935523,0 91.86323272627607,24.93349523383297,0 91.86322966700618,24.93354443024933,0 91.86323435649187,24.93357628886166,0 91.86323542850394,24.93363665733686,0 91.86321570735376,24.93366882174722,0 91.86318367250585,24.93370457856604,0 91.86317964034062,24.93370814729596,0 91.86312304030555,24.93375119895252,0 91.8630948549776,24.93379471147647,0 91.86307465486843,24.93383113390239,0 91.86307083299025,24.93387854410375,0 91.86307496285677,24.93388218779726,0 91.86308763278153,24.93393349374184,0 91.86307560902542,24.93399246007179,0 91.86301779147234,24.93402212368657,0 91.86295562824363,24.93405570124561,0 91.86289740822011,24.9340819126549,0 91.86286802226027,24.93413078379313,0 91.86283830137265,24.93419907601637,0 91.86283789994164,24.93424883737636,0 91.86292166119134,24.93432975300224,0 91.86295964302529,24.93432960612784,0 91.86298493715979,24.93430648232984,0 91.86302281626253,24.93429116494206,0 91.86304378550128,24.9342719895693,0 91.86304786210222,24.93424512780077,0 91.86304780632975,24.93423363606897,0 91.86308127175921,24.93421475267047,0 91.86313125641027,24.93418054959502,0 91.86320169856943,24.93413489699148,0 91.86321499978172,24.93418437770065,0 91.86322831926914,24.93423032371074,0 91.8632332377415,24.93427269718853,0 91.86323832064859,24.93432308689171,0 91.86327701784616,24.93435816738235,0 91.8633575937354,24.93436590918934,0 91.86340778137189,24.93434622135338,0 91.86345800050941,24.93433421745228,0 91.86351209343307,24.93431453150773,0 91.86361930736096,24.93427820708672,0 91.86360332415605,24.93413692633651,0 91.86363927978556,24.93398508656552,0 91.8636971322945,24.9338997197404,0 91.86380910610413,24.93386607176438,0 91.863988211654,24.93384428853912,0 91.86420167839781,24.93386139227848,0 91.86413292605182,24.93398216263681,0 91.8640096588457,24.93403512859881,0 91.86393522716601,24.93403034926691,0 91.86385037830911,24.9340865601453,0 91.86385047954708,24.93415241722386,0 91.8637033685154,24.9342522521329,0 91.86370539792868,24.93429337131729,0 91.86370259918201,24.93433911537991,0 91.86365287328761,24.93434437839322,0 91.86356681566062,24.93436917122648,0 91.86344332827551,24.93440127204232,0 91.86338495592,24.93448738161548,0 91.86332652756624,24.9345669148092,0 91.86328258493222,24.93466659860441,0 91.86327514295415,24.93476644578317,0 91.86327538757288,24.9348460276598,0 91.86328298039221,24.93492565339518,0 91.86336380224662,24.93493888327628,0 91.86343705959848,24.93488573217426,0 91.86343010988904,24.93500528476776,0 91.86338613980706,24.93511174572863,0 91.86337853131427,24.93522497836139,0 91.86349554180165,24.93526499226776,0 91.86353209807066,24.9351918602859,0 91.86362024266168,24.93513860963781,0 91.86368641607551,24.93507869168097,0 91.8636786956172,24.93495912276416,0 91.86375161123627,24.93489946643129,0 91.86381691577856,24.93484660102761,0 91.86389707753527,24.93477373874557,0 91.86397744767382,24.93474061664873,0 91.86400576011044,24.93466810323519,0 91.86409195979928,24.93460926140486,0 91.86418555561245,24.9346033952713,0 91.86427499147014,24.93458630011844,0 91.86432170076066,24.93467745004391,0 91.86439260318394,24.93466825190455,0 91.86445166114167,24.93470368367422,0 91.86440582334458,24.93476090843068,0 91.86432198986171,24.93476335061374,0 91.86423088046273,24.93479493306407,0 91.86415948971421,24.93481410200758,0 91.86405103814577,24.93489325903108,0 91.86396370862771,24.93495947825434,0 91.86401489653551,24.93505255051472,0 91.86405022882812,24.93512595307283,0 91.86416099161434,24.93515527272234,0 91.86409739464857,24.93524609396759,0 91.86403540658736,24.93529861206797,0 91.86392578608024,24.93541146759181,0 91.86381716622905,24.93545149969181,0 91.86382827520504,24.93527466341516,0 
					</coordinates>
				</LinearRing>
			</outerBoundaryIs>
		</Polygon>
		<atom:link rel="app" href="https://www.google.com/earth/about/versions/#earth-pro" title="Google Earth Pro 7.3.7.1155"></atom:link>
	</Placemark>
</Document>
</kml>
