<?xml version="1.0" encoding="UTF-8"?>
<kml xmlns="http://www.opengis.net/kml/2.2" xmlns:gx="http://www.google.com/kml/ext/2.2" xmlns:kml="http://www.opengis.net/kml/2.2" xmlns:atom="http://www.w3.org/2005/Atom">
<Document>
	<name>tea3.kml</name>
	<Style id="cand">
		<LineStyle>
			<color>ff00a5ff</color>
			<width>2</width>
		</LineStyle>
		<PolyStyle>
			<color>0000a5ff</color>
		</PolyStyle>
	</Style>
	<StyleMap id="cand0">
		<Pair>
			<key>normal</key>
			<styleUrl>#cand1</styleUrl>
		</Pair>
		<Pair>
			<key>highlight</key>
			<styleUrl>#cand</styleUrl>
		</Pair>
	</StyleMap>
	<Style id="cand1">
		<LineStyle>
			<color>ff00a5ff</color>
			<width>2</width>
		</LineStyle>
		<PolyStyle>
			<color>0000a5ff</color>
		</PolyStyle>
	</Style>
	<Placemark>
		<name>tea3</name>
		<styleUrl>#cand0</styleUrl>
		<Polygon>
			<tessellate>1</tessellate>
			<outerBoundaryIs>
				<LinearRing>
					<coordinates>
						91.85798264310094,24.9319067153487,0 91.85810137644813,24.93189518574397,0 91.85821596005506,24.93189867463126,0 91.85823635755131,24.93192447380017,0 91.85823626532225,24.93199102963836,0 91.8582360407917,24.93207568630885,0 91.85814616064441,24.93216136218134,0 91.85810521498179,24.93216855183572,0 91.85807241049754,24.93218276991968,0 91.85802319679523,24.93221434153887,0 91.85799047829852,24.93221319631173,0 91.85795787422299,24.93219128374511,0 91.85794564703269,24.93218043095599,0 91.85787642106133,24.93213351157018,0 91.85784371257581,24.93208759663812,0 91.85783546204452,24.93206651216091,0 91.85779879538362,24.93204007750289,0 91.85773418907335,24.93200725362171,0 91.85772221888064,24.93200254539887,0 91.85771003429942,24.93199519690414,0 91.85767831518464,24.93198870967129,0 91.85755508758375,24.93190825793639,0 91.85746144888911,24.93188626630823,0 91.85737166487202,24.93187189525627,0 91.85730504728693,24.93185156574364,0 91.85725619716594,24.93185513574783,0 91.85720791062921,24.93186920944837,0 91.85713239815654,24.93190788026584,0 91.85703950557911,24.93195176400209,0 91.8570498209222,24.93197550823967,0 91.85706624548639,24.93200427726537,0 91.85706812429454,24.93203894743187,0 91.85706856710321,24.9320677764815,0 91.85707154867492,24.93212401340286,0 91.85707580825937,24.93213842712471,0 91.85708749372033,24.93217568530971,0 91.85709770649059,24.93222970712709,0 91.85711052106151,24.93231205519338,0 91.85712282998723,24.93233777459096,0 91.85717956542746,24.93237926037196,0 91.85718187029612,24.93241912484858,0 91.85716794028066,24.93244803271042,0 91.85712525554783,24.93243287111597,0 91.85707911679177,24.93239777828164,0 91.85703697107169,24.93237365783503,0 91.85701607344299,24.93234084344197,0 91.85694694025825,24.93237362167852,0 91.85693105185993,24.93239896358723,0 91.85689006049091,24.93237680042819,0 91.85684914811975,24.93235824225527,0 91.85679199105866,24.93232471103687,0 91.85675930906044,24.93229127313519,0 91.85676246427916,24.93225139887058,0 91.8567263782984,24.93223952644113,0 91.85669089090889,24.9322234620443,0 91.85665123558447,24.93220016757217,0 91.85664637532736,24.9321637914413,0 91.85664235701543,24.93213409628868,0 91.85663812268814,24.93208975558922,0 91.85663435154478,24.93208580896232,0 91.85662603790672,24.93204886235466,0 91.85666042795458,24.93198757162035,0 91.8566644097416,24.93197650674699,0 91.85667663217174,24.93193200145067,0 91.85668100434197,24.931876142225,0 91.85668910808955,24.93186134828995,0 91.85669329407871,24.93182046006417,0 91.85670125187278,24.93181318311384,0 91.85669721378196,24.93177231038759,0 91.85668933001551,24.93172390164943,0 91.85668118546909,24.9316459509072,0 91.85665237738232,24.9315458098804,0 91.85665191479063,24.93150884625761,0 91.8566514519181,24.93147185531173,0 91.85667136035032,24.93141628794387,0 91.85668346725896,24.93136801165899,0 91.85669564298534,24.93133087426981,0 91.85669497403781,24.93125290453001,0 91.85667441114254,24.93121200363806,0 91.85666616841684,24.93117481233632,0 91.85666593868145,24.93112646758881,0 91.85666183853567,24.93111530774698,0 91.85666172235963,24.9310855494724,0 91.85665744139354,24.93103345362946,0 91.85665743603035,24.93102973265707,0 91.85665761998271,24.93097021734423,0 91.85666176034154,24.93095162455037,0 91.85669436214083,24.93089578075996,0 91.85675587946734,24.93086229088192,0 91.85680492649155,24.93081759250692,0 91.85687817638046,24.93079880620283,0 91.85694416629579,24.93073188501536,0 91.85700564711175,24.93069089502141,0 91.85701849011765,24.93062787278513,0 91.85696944202579,24.9306130854183,0 91.85694096150893,24.93059088474065,0 91.85693277447135,24.93058345424451,0 91.85689174990073,24.93054625762088,0 91.85689175157788,24.93051278192033,0 91.85689176402903,24.93050906964351,0 91.85689541444708,24.93046787439692,0 91.85689536885195,24.93046412524188,0 91.85689486712209,24.93042286062882,0 91.85686992212946,24.9303891409444,0 91.85682899514742,24.93036317331413,0 91.85680037353785,24.93033719002996,0 91.85675989476439,24.93031151246154,0 91.85670695865767,24.93029317539581,0 91.85669468133062,24.93028947492522,0 91.85662852671425,24.93027426223082,0 91.85661195527143,24.93026299761494,0 91.85655781755128,24.93026251966522,0 91.85653732779758,24.93026254317308,0 91.85648374425362,24.93026242684973,0 91.8564381295146,24.93021002097904,0 91.85642582700339,24.9301951299836,0 91.8564013222791,24.93016169453663,0 91.85640134451675,24.93015425751032,0 91.8563765758324,24.93010947325743,0 91.85636837842765,24.93009831119197,0 91.8563480955651,24.93006866911789,0 91.85634423078824,24.93005394251295,0 91.85633605362382,24.93005024247813,0 91.85631163234282,24.93002803139667,0 91.85629944720348,24.93000577665231,0 91.85628709170417,24.93000575202597,0 91.85627063128172,24.93000573444696,0 91.85623783802305,24.92998715193499,0 91.85622971940359,24.92997232020864,0 91.85622563167655,24.92996860886434,0 91.85620520634792,24.92994260300062,0 91.85620532225305,24.92993151238497,0 91.85616857212651,24.92989070263016,0 91.85623163456322,24.92981738868147,0 91.85623581798507,24.92981001421543,0 91.85625640982123,24.92979892720271,0 91.8563580472443,24.92976843388694,0 91.85636617056173,24.92976464421443,0 91.85641093348924,24.9297531529693,0 91.85642721024243,24.9297418610096,0 91.85644359647004,24.9297418240279,0 91.8564559154472,24.92974182917775,0 91.85650922345269,24.9297455241652,0 91.85638596282602,24.92968211710303,0 91.85631155116687,24.92964813523476,0 91.85636486923019,24.92959965480536,0 91.85650580832451,24.92952292821823,0 91.8565423248042,24.92951501727262,0 91.8567012481442,24.92948375101203,0 91.8567301669766,24.9294839786259,0 91.85673429795597,24.92948401124851,0 91.85678385755627,24.92948067336738,0 91.85687042671384,24.92946630866659,0 91.85687454248708,24.92946632630399,0 91.85694828661444,24.92944375527053,0 91.85700592976961,24.92944034030572,0 91.85699799970376,24.92949665569412,0 91.85699388986194,24.92950780709685,0 91.85698588967382,24.92954164778977,0 91.85701101717783,24.92962433280507,0 91.85704014846709,24.92967707950048,0 91.85709841346475,24.92968605189393,0 91.85711097412354,24.92968653724922,0 91.85717852335243,24.92967195821254,0 91.85724227427505,24.92965515359821,0 91.85728770792838,24.9297009597999,0 91.85730353107341,24.92972948722201,0 91.85732369425062,24.92973650198953,0 91.85737212059119,24.9297430131348,0 91.85738027277333,24.92974673783531,0 91.8574090635237,24.9297512650997,0 91.85745834143154,24.92974903244602,0 91.85747064397589,24.92974939431494,0 91.85752397036504,24.92973285943216,0 91.85753214416204,24.92973309139975,0 91.85760153210886,24.92970949623962,0 91.85761377108753,24.92970260244407,0 91.85766273107068,24.92966082092576,0 91.85769131651581,24.92964079356342,0 91.85769951497036,24.92963433275182,0 91.85771164922228,24.92963461375462,0 91.85776821233787,24.92966142673546,0 91.85776799382383,24.92970327865232,0 91.85776798099138,24.92970682043201,0 91.85775977256225,24.92973855696218,0 91.85771905971434,24.92980594867065,0 91.85763376393959,24.92985200307298,0 91.85762152223185,24.92986263116907,0 91.85759694493566,24.92989099278633,0 91.85759284990318,24.92989451807448,0 91.85758055853742,24.92990509871125,0 91.8575191079823,24.92995853485922,0 91.85749021648019,24.93002001544225,0 91.85751855762462,24.93007133529043,0 91.85752258267603,24.93008229372068,0 91.85751832074989,24.93011133254694,0 91.85750163678988,24.93016210394608,0 91.85750156935235,24.93017303880868,0 91.85747673618187,24.93021661099406,0 91.85745622922778,24.93021638890254,0 91.85730801267866,24.93025148278048,0 91.85729975877118,24.93025508483595,0 91.85725863807825,24.93029187866007,0 91.85726685597885,24.93029934319447,0 91.85728341373546,24.93034779284922,0 91.85728754661854,24.93036268361876,0 91.85730374433922,24.93038845318515,0 91.8573198873555,24.93044384508751,0 91.85732390236103,24.93048457250513,0 91.85732378451274,24.93049929561447,0 91.85731956487602,24.93054370899677,0 91.85736024712195,24.93064001284534,0 91.8573968105633,24.93066576832057,0 91.85742514220306,24.93069521131575,0 91.85743735588936,24.93070629605765,0 91.85750282986749,24.93074336892353,0 91.85757256152004,24.93074708869631,0 91.85754802902521,24.93071740859304,0 91.85762599162004,24.93071374695955,0 91.85765063110989,24.93071008319921,0 91.85767526149162,24.93070641726956,0 91.85771628523737,24.93070275982772,0 91.85776141028852,24.93069170360819,0 91.85777780641848,24.93069171762565,0 91.85789665526589,24.93066969120274,0 91.85791303729306,24.9306660358483,0 91.85794579405585,24.9306660211287,0 91.85802358785089,24.93064377798791,0 91.85802768368777,24.9306437720408,0 91.85804815632136,24.93064005909394,0 91.85807271792071,24.93063265094445,0 91.85816695589057,24.93061395601114,0 91.85817514962474,24.93061023735705,0 91.85825297833314,24.93058793692718,0 91.85826523018096,24.93058427610531,0 91.85827341367836,24.93057685799916,0 91.85834290568327,24.93052504307779,0 91.85836727844101,24.93044736522364,0 91.85836702180369,24.93039582005466,0 91.85837108608597,24.93038844616904,0 91.85841975896409,24.93032232168952,0 91.85843601881196,24.93031133577286,0 91.85845236929889,24.93031132364159,0 91.85848504034671,24.93030763930598,0 91.85853438081806,24.93034059331223,0 91.85855087711634,24.93036266235266,0 91.85856738999485,24.93039586015114,0 91.85857578765382,24.93044756309577,0 91.85857584091018,24.93045864050788,0 91.85859616455694,24.93050327489895,0 91.85864075260979,24.93054068477596,0 91.85864069063305,24.93055185333231,0 91.85860396857446,24.93058886759892,0 91.85857953881521,24.93060362324939,0 91.85844907410296,24.93065892022461,0 91.85841637920115,24.93067743783601,0 91.85833053190794,24.93073301818536,0 91.85833052154092,24.93075900797537,0 91.85835907960823,24.93083700517784,0 91.85836723048165,24.93085557794296,0 91.85837533908864,24.93091126705711,0 91.85833450884077,24.93096317777236,0 91.85824460394188,24.93099282177434,0 91.85821595791521,24.93099281828298,0 91.85820368185364,24.93099281619145,0 91.85817503942125,24.93099280962686,0 91.85814639772497,24.93099280128592,0 91.85809326147337,24.93099274496393,0 91.8580113925096,24.93102241041883,0 91.85801547686289,24.93102613884728,0 91.85811346806985,24.9310930488697,0 91.85811345763379,24.93110417676733,0 91.85816650311084,24.93111529702756,0 91.85819507439334,24.93111900165209,0 91.85821139645084,24.93111900006542,0 91.85823588016615,24.93111899812865,0 91.85825632798286,24.93111899960797,0 91.85829314033954,24.93112270813452,0 91.85832168026045,24.93113752719328,0 91.85824000152172,24.93119683169216,0 91.85821142446535,24.93120796202146,0 91.85819101311102,24.93120797202662,0 91.8581705985473,24.93121169030044,0 91.85809300259001,24.9312339984318,0 91.85797438698479,24.93124884900989,0 91.85795802003656,24.93125254340247,0 91.85783532766153,24.93128587533855,0 91.8577984866413,24.93130076628286,0 91.857687728267,24.93130103709943,0 91.85762620310778,24.93132338231156,0 91.85760978228564,24.93133083477951,0 91.85759336485791,24.93133828614783,0 91.85752750538782,24.93136449393067,0 91.85751125783105,24.93139784945335,0 91.85751552775331,24.93142373321755,0 91.85750331468395,24.93146453462957,0 91.85749910104211,24.93149808016117,0 91.85753208031551,24.93147931214697,0 91.85763454056115,24.9314829453152,0 91.85765091127321,24.93149038688539,0 91.85773282423651,24.93149408487599,0 91.85775330217662,24.93149036551555,0 91.85776968015819,24.93149037098057,0 91.85779833808506,24.93149039699314,0 91.85783523019006,24.93149024660386,0 91.85785979761695,24.93149021445629,0 91.85808084553405,24.93153478269294,0 91.85821181363106,24.93156444268359,0 91.858354954616,24.93157544849411,0 91.85855908615451,24.93154914478608,0 91.85868954031999,24.93153038447167,0 91.85878332682974,24.93151916540906,0 91.85890151725047,24.93151903688502,0 91.85894230002847,24.93151531065111,0 91.85908398624095,24.93146675975884,0 91.85919288851882,24.93146270186386,0 91.85926449157554,24.93148068242191,0 91.85920076317259,24.93152544415721,0 91.85912845863851,24.93154060921335,0 91.85905182380847,24.93156685209118,0 91.85901148194078,24.93158557095835,0 91.85899122505705,24.93160786472106,0 91.85897101978352,24.93164871396548,0 91.858946507037,24.93169316248049,0 91.8589464560163,24.93171535803898,0 91.85892200766831,24.93174873478352,0 91.85883656626116,24.93181197499311,0 91.85882841937401,24.93181199524892,0 91.85875495044522,24.9318194866521,0 91.85873865795674,24.93181953270312,0 91.85851418153653,24.93184959610542,0 91.85848559947546,24.93184965619783,0 91.85847338024662,24.93184972439946,0 91.85836324984606,24.93185767031437,0 91.85833874288201,24.9318577645254,0 91.85831422970899,24.93185785869432,0 91.85822832922192,24.93186547592353,0 91.85822423447149,24.93186547712274,0 91.85816284136034,24.93186558896971,0 91.85814237567448,24.93186563581614,0 91.85807276217083,24.93186945259943,0 91.8580481859873,24.93186947474419,0 91.85800721665098,24.93187689219518,0 91.85797854448754,24.93187695982042,0 91.85798264310094,24.9319067153487,0 
					</coordinates>
				</LinearRing>
			</outerBoundaryIs>
		</Polygon>
		<atom:link rel="app" href="https://www.google.com/earth/about/versions/#earth-pro" title="Google Earth Pro 7.3.7.1155"></atom:link>
	</Placemark>
</Document>
</kml>
