<?xml version="1.0" encoding="UTF-8"?>
<kml xmlns="http://www.opengis.net/kml/2.2" xmlns:gx="http://www.google.com/kml/ext/2.2" xmlns:kml="http://www.opengis.net/kml/2.2" xmlns:atom="http://www.w3.org/2005/Atom">
<Document>
	<name>tea4.kml</name>
	<Style id="cand">
		<LineStyle>
			<color>ff00a5ff</color>
			<width>2</width>
		</LineStyle>
		<PolyStyle>
			<color>0000a5ff</color>
		</PolyStyle>
	</Style>
	<Style id="cand0">
		<LineStyle>
			<color>ff00a5ff</color>
			<width>2</width>
		</LineStyle>
		<PolyStyle>
			<color>0000a5ff</color>
		</PolyStyle>
	</Style>
	<StyleMap id="cand1">
		<Pair>
			<key>normal</key>
			<styleUrl>#cand</styleUrl>
		</Pair>
		<Pair>
			<key>highlight</key>
			<styleUrl>#cand0</styleUrl>
		</Pair>
	</StyleMap>
	<Placemark>
		<name>tea4</name>
		<styleUrl>#cand1</styleUrl>
		<Polygon>
			<tessellate>1</tessellate>
			<outerBoundaryIs>
				<LinearRing>
					<coordinates>
						91.85799607645593,24.93590697991761,0 91.85801595229535,24.93592491790978,0 91.85803579750002,24.93593091675934,0 91.85806874843769,24.93592511928026,0 91.8580885461912,24.93592518649542,0 91.85812814201989,24.93591331719075,0 91.85815456315378,24.93591335735809,0 91.85819419038188,24.93591341826903,0 91.85823381179607,24.9359134786262,0 91.85826681811179,24.93591354039935,0 91.85829980794676,24.93591361506925,0 91.85832619607177,24.93591367537309,0 91.85835259345362,24.93591971427781,0 91.85837239316797,24.93592573816487,0 91.85840539417097,24.93593776988994,0 91.85842521919052,24.93595574892981,0 91.85844506275923,24.93597970445335,0 91.85844511777626,24.93600362715124,0 91.85844518638874,24.93603353414708,0 91.85844525515269,24.93606344521869,0 91.85843213005073,24.93608735135872,0 91.85842547894626,24.93611135332829,0 91.85841885179028,24.93612934788433,0 91.85839901322124,24.93615332990965,0 91.85837262322626,24.9361532885757,0 91.85833962215402,24.93615923909896,0 91.85831322545296,24.93615919741118,0 91.85828682300178,24.93615915828114,0 91.85825380801087,24.93615911426588,0 91.85822738773251,24.93616508192677,0 91.85819435924648,24.93617104230424,0 91.8581679337473,24.93617701101289,0 91.85813490222773,24.93617697241255,0 91.85809525692532,24.93618292675048,0 91.85806880409883,24.93618892236516,0 91.85803573310258,24.93620091527073,0 91.85799604583195,24.93620690753983,0 91.85796957363539,24.93621892563915,0 91.85793652116439,24.93623089053747,0 91.85789687181575,24.93624882597064,0 91.85787044003494,24.93626077679067,0 91.85784399630039,24.93627874113695,0 91.85781754907565,24.93629670767896,0 91.85779109017479,24.93630869352839,0 91.85777786124304,24.93632068363029,0 91.85775140116162,24.9363386680684,0 91.85772493876347,24.93635065558368,0 91.85769848424685,24.9363686209798,0 91.85767864342959,24.93639259122767,0 91.85765218343292,24.93641055788962,0 91.85763895206966,24.93642254244854,0 91.85761248580648,24.93644651392908,0 91.85759263299245,24.93646449586582,0 91.85757939635371,24.93648248624116,0 91.85755291932138,24.93650646813946,0 91.85753967926374,24.93653046562216,0 91.85751319495422,24.9365724787839,0 91.85749995367895,24.93660250185362,0 91.85747346252353,24.93663252117528,0 91.85746684126725,24.93665053614188,0 91.85744697634236,24.93667454838389,0 91.85742710930242,24.93669255629644,0 91.85741386493626,24.93672858175941,0 91.8574006239788,24.93674659694321,0 91.85738075721009,24.93677061141985,0 91.8573608954712,24.93678262044216,0 91.85734103473607,24.93680663746495,0 91.85732117567015,24.93683065290858,0 91.85730131520336,24.93684866288607,0 91.85727483560213,24.93687267555113,0 91.85725496394797,24.93689669098397,0 91.85722845728063,24.93692070926323,0 91.85722183498639,24.93693271731367,0 91.85719534886046,24.93696273809805,0 91.85719539227934,24.93698673359853,0 91.8571954248725,24.93700472598941,0 91.85719547383394,24.93703470750179,0 91.8571954005739,24.93705876657699,0 91.85719530909267,24.93708885629562,0 91.85719522442244,24.93711895697343,0 91.85720842080775,24.9371430361211,0 91.85722826524257,24.93716710468921,0 91.85724817108709,24.93718508842932,0 91.85727469144848,24.93719707156231,0 91.85729458511999,24.9372090505479,0 91.85732108676886,24.93721504494087,0 91.85734758708178,24.937221038938,0 91.85737407839392,24.93722104885962,0 91.85741383727299,24.93722097597453,0 91.85745357903023,24.93722090948295,0 91.85749330772441,24.937220859981,0 91.85751978703431,24.93722082717605,0 91.85755949709603,24.93722077806941,0 91.85759257993153,24.93722073334276,0 91.8576322678405,24.93722067547972,0 91.85766533168608,24.93722062750417,0 91.8576917763577,24.93722058858129,0 91.85773143557492,24.93721453612744,0 91.8577645147747,24.93721454655643,0 91.85779759564035,24.93721455681571,0 91.85782406183398,24.93721456547103,0 91.85785052934513,24.93721457363611,0 91.85787699766382,24.93721458208485,0 91.85791008313279,24.9372145923974,0 91.85794317256938,24.93721460275015,0 91.85797628673802,24.93722063213798,0 91.85800279613031,24.93723266642705,0 91.85802924712786,24.93723865637863,0 91.85806238985535,24.9372506991753,0 91.85808888448776,24.93725671966822,0 91.85812200917707,24.93726274694276,0 91.8581551282529,24.9372747683698,0 91.85818822261081,24.93728677413213,0 91.85821458583784,24.93729270628183,0 91.85825407900566,24.93730457819268,0 91.85828705923225,24.93731651642078,0 91.85831342641369,24.93732845974527,0 91.85833319050437,24.93734040811161,0 91.85835954436166,24.93735234330135,0 91.85839247258421,24.93737025247559,0 91.858431654161,24.93738196109545,0 91.85845761148249,24.93739966015303,0 91.85847699519393,24.93741737460068,0 91.85850884463909,24.93744062990226,0 91.85852787971268,24.93745811905955,0 91.858546833581,24.93748749035272,0 91.85856573628152,24.93751680327626,0 91.85857204891634,24.93754645635187,0 91.85857834241274,24.93757608661615,0 91.85857814542275,24.93760575883787,0 91.85857150977121,24.93762956362844,0 91.85856516615969,24.93763569746947,0 91.85852725418549,24.93765480913969,0 91.85849565086002,24.93766186600363,0 91.85847593564964,24.93767986166926,0 91.85843018636271,24.93768023904292,0 91.85840377448963,24.93768620512035,0 91.85834432524234,24.93769211111189,0 91.85831800891906,24.93769816799453,0 91.85828511228476,24.93771023384789,0 91.85827180149377,24.93772805293814,0 91.85825802669191,24.93776323979827,0 91.85823707794985,24.93778564963026,0 91.85821743133472,24.93780368630286,0 91.85819672900807,24.93783217400883,0 91.85817662866563,24.93784949134215,0 91.85815023226453,24.93786122469091,0 91.85812428233508,24.93786771712298,0 91.85808512216022,24.93787416244517,0 91.85805891294758,24.93788029593157,0 91.85802576048073,24.93789168347189,0 91.85799965834775,24.93789208685114,0 91.85796045986629,24.93789267135615,0 91.85793430271713,24.93789305750281,0 91.85790809676088,24.93789336877868,0 91.85787530492728,24.93789372480024,0 91.85785561918604,24.93789393841572,0 91.8578162235369,24.93789436580851,0 91.85778336934325,24.93789472259296,0 91.85776364677719,24.93789493881298,0 91.85771760036755,24.93789546535391,0 91.85768467534719,24.93789580408783,0 91.85765832015009,24.93789607522565,0 91.85761873569565,24.93790224441338,0 91.85759228458295,24.93791371562009,0 91.85755274276474,24.93792071298442,0 91.85751972536772,24.93792121624943,0 91.85749329315482,24.9379272104618,0 91.85746021291283,24.93792831355484,0 91.85743375252648,24.93794032491916,0 91.85739401615211,24.9379408137448,0 91.85736088848,24.93794710767288,0 91.85732775988276,24.93794730785745,0 91.85730127986523,24.93795929442359,0 91.85727478255953,24.93796536938881,0 91.85724163034982,24.93796555969613,0 91.85720187527555,24.93796564835133,0 91.8571621813136,24.93796550500598,0 91.85712248394481,24.93796540047685,0 91.85709602825544,24.93797732281665,0 91.85707618813582,24.93798326476258,0 91.85704312571809,24.93800117081516,0 91.85701666745855,24.93801912332023,0 91.85699682646646,24.93803708565659,0 91.85699018648386,24.9380551343269,0 91.85697024650666,24.93808533333445,0 91.85696368899757,24.93811519908018,0 91.8569571329099,24.93813905382033,0 91.85695719892848,24.93816289779329,0 91.85696388431238,24.93818673166738,0 91.85697056802763,24.93821055901174,0 91.85699046867828,24.93822841798414,0 91.85700376379873,24.93825223126736,0 91.8570170407824,24.93827008513956,0 91.85704353448028,24.93829396202706,0 91.85706999246928,24.93831194430896,0 91.85708321153923,24.93832396469767,0 91.85712942746947,24.93834828005506,0 91.85715583747857,24.9383544966054,0 91.85717566011274,24.93836062740191,0 91.85721536102083,24.93836062978115,0 91.85727496447888,24.93836028227767,0 91.85730806325704,24.93836010716247,0 91.85734120437597,24.93835345457145,0 91.85736772013851,24.93835265908841,0 91.85738758742733,24.93835210576692,0 91.8574206658333,24.93835116607589,0 91.85746691837466,24.93834928700773,0 91.85748670531871,24.93834853641082,0 91.85752620634432,24.93833427701044,0 91.85755901854343,24.93833203780035,0 91.85758517237089,24.93832983419243,0 91.85763077944377,24.93832624460381,0 91.85766322851596,24.93832375420148,0 91.85768912232243,24.93832186641594,0 91.85771493113415,24.93831985206367,0 91.85774093889118,24.93831949448644,0 91.85778029395171,24.93832681485518,0 91.85781324982278,24.93833440101197,0 91.85784655361067,24.93834912398713,0 91.85787281606432,24.93834952419099,0 91.85790630654766,24.93836430812009,0 91.85793946083362,24.93837157255536,0 91.85799796689241,24.93836991084894,0 91.85803693344849,24.93836890066162,0 91.85806295180427,24.93836841365885,0 91.85807582517728,24.93836782509036,0 91.85810829508121,24.93837312124698,0 91.85813381789255,24.93837156175669,0 91.85816564835406,24.93836961650266,0 91.85820442276071,24.93838652589596,0 91.85822979397346,24.93839090735641,0 91.85826129511837,24.93840050400262,0 91.85828646600245,24.93841648463655,0 91.8583112561488,24.93842590467855,0 91.85832986984123,24.93843602306961,0 91.85834881521754,24.93846445220702,0 91.85834917523475,24.93848277865376,0 91.85836772176262,24.9385104312432,0 91.85838041618385,24.93853342475064,0 91.85836236780051,24.93855377645524,0 91.85835039394884,24.93855578347451,0 91.85832636985408,24.93856573587631,0 91.85829674662537,24.93857799883001,0 91.85826052683501,24.93858481372215,0 91.85824207000663,24.9385876729585,0 91.85820985830203,24.938595187043,0 91.85818393959661,24.93860211910745,0 91.85815146690297,24.93860323980137,0 91.85811895297805,24.9386043619916,0 91.85807985025332,24.93860562013938,0 91.85802747665117,24.9386067951696,0 91.85800751605197,24.93863009825172,0 91.85798742403639,24.93864687167078,0 91.85796110963881,24.93866494974846,0 91.85794119819276,24.93868227448247,0 91.85792790583311,24.93869968035601,0 91.85792097755088,24.93872203401764,0 91.85792005544768,24.93875363558911,0 91.85791282216235,24.9387802667333,0 91.85790597745243,24.9388026440931,0 91.85789897608095,24.93883009678862,0 91.85789225086849,24.93884696155475,0 91.85787305389711,24.93887298574476,0 91.857835171258,24.93890536574906,0 91.85780939665963,24.93892678759207,0 91.85777044505082,24.9389431121185,0 91.85773757920836,24.93895026850546,0 91.85771118159863,24.93895042022442,0 91.8576781203853,24.93894991501201,0 91.85764500470535,24.93894838716277,0 91.85761187976451,24.93894578284718,0 91.85758541486628,24.93893117190046,0 91.85756566408355,24.93890701110248,0 91.85756572716426,24.9388850673895,0 91.85755257284646,24.93885586073925,0 91.85753940995731,24.93883260301197,0 91.8575196403068,24.93881474649889,0 91.85749328166233,24.93880773754392,0 91.85746039406897,24.9388053021766,0 91.85742758809702,24.93879100155876,0 91.85738840255974,24.93878681529289,0 91.85735575987269,24.93877898673096,0 91.85732974336263,24.93877092785792,0 91.85731034299539,24.93876858758583,0 91.8572779581133,24.93876013606436,0 91.85724565833681,24.93875170677632,0 91.85721298166304,24.93873453747067,0 91.85718027962628,24.93872331132852,0 91.85715418148492,24.93871744631437,0 91.85713408504972,24.93870240994723,0 91.85710792349916,24.93869664773041,0 91.8570746170448,24.93868167115534,0 91.85704800281478,24.93867161180181,0 91.85702133539795,24.93866151960442,0 91.85700145129034,24.93865637040551,0 91.85696820188308,24.93864603359578,0 91.8569414723102,24.93863565353032,0 91.85690132111395,24.93861996737333,0 91.85686811302344,24.9386089379307,0 91.85684162191944,24.93860342069137,0 91.85682170195321,24.93859789951287,0 91.85678846806621,24.93858672872466,0 91.85675565546217,24.93858643932996,0 91.85672914043305,24.93857488307008,0 91.85671582880029,24.93856323345151,0 91.8566830294606,24.93855097019098,0 91.8566567999785,24.93853281742516,0 91.85663725221605,24.93852046072289,0 91.85661131350128,24.93850180013165,0 91.8565852422828,24.93847746826719,0 91.85656569835477,24.93845922837633,0 91.85654616273504,24.93844099597864,0 91.85652663548584,24.93842277129366,0 91.85652012804421,24.93841669825591,0 91.85648737577208,24.9383747723604,0 91.8564675981263,24.93835100364502,0 91.85644781861539,24.93832723259406,0 91.85643380816404,24.93829263102451,0 91.85643310498217,24.93827567461147,0 91.85641992219799,24.93824583964631,0 91.8564128854522,24.93821655960008,0 91.85639966277688,24.93818675322879,0 91.85638637617882,24.93816298787682,0 91.8563733595994,24.93814487677203,0 91.8563662289282,24.93811561637706,0 91.85635295043021,24.93809181798933,0 91.85633925219514,24.93806247642407,0 91.85633246575678,24.93804473749517,0 91.85631244808758,24.93802104868363,0 91.85629884004996,24.93799750492053,0 91.85627887427512,24.93797371939289,0 91.85626549289616,24.93795592681222,0 91.85624593093235,24.93793776114615,0 91.8562201129848,24.93791931957519,0 91.85620106895745,24.93791273096572,0 91.85616263231667,24.93791183370683,0 91.85613721128418,24.93791109530212,0 91.85610474894689,24.93791075523211,0 91.85607862808797,24.9379106007673,0 91.85604697435481,24.93792160420588,0 91.85601397504257,24.93792765602045,0 91.85598892051952,24.93794462827442,0 91.85597008602727,24.93795590335735,0 91.85593688359039,24.93796808223605,0 91.85591109781755,24.93798558902045,0 91.8558854643417,24.93800299615631,0 91.85586687770618,24.93802004987707,0 91.85585441779924,24.93803147395067,0 91.85582089317084,24.93804984546496,0 91.8558006646103,24.9380621365208,0 91.85576577073191,24.93807552011935,0 91.85573781325641,24.93808266205527,0 91.85570237292262,24.93809039961837,0 91.8556746570149,24.93809731896661,0 91.85564681013938,24.93809832766032,0 91.85561975317422,24.93810476673445,0 91.85558545254217,24.93810563787592,0 91.85555126377842,24.93810640212205,0 91.85551835092075,24.93812429480895,0 91.8554983753932,24.93813637194361,0 91.85547234826315,24.93815408928913,0 91.85544582032786,24.9381601465067,0 91.85541306102067,24.93817195394164,0 91.85539335792043,24.93817787202371,0 91.85534710738148,24.93818985548025,0 91.85530650562816,24.93819649051145,0 91.85526664224945,24.93820256947526,0 91.85522041873215,24.93820256146251,0 91.85518735629448,24.9382025722379,0 91.85516087563266,24.93819660928432,0 91.85512150502005,24.93819645947302,0 91.85507575424,24.93819617058707,0 91.85504983052815,24.93819590025208,0 91.85502410786707,24.93820150570465,0 91.85499839934356,24.9382071079653,0 91.8549663272742,24.93821856507261,0 91.85494720946542,24.93823015753909,0 91.85491509663022,24.93824763191096,0 91.85489604334887,24.93826516731911,0 91.85488372529966,24.93827664485569,0 91.85485884353413,24.93829973233544,0 91.85483333763153,24.93831117210435,0 91.8548077287345,24.93832275036332,0 91.85478203500051,24.93834030168585,0 91.85475620743179,24.93835792645464,0 91.85473031706341,24.93837558547244,0 91.85469798670239,24.93838720299263,0 91.85467212737323,24.93839888173481,0 91.85464626838704,24.93841652148664,0 91.85462051735821,24.93843410166927,0 91.85457565838192,24.93845134421528,0 91.85453696356984,24.93846285837421,0 91.854504628171,24.93847448377646,0 91.85447188834763,24.93848038942448,0 91.85445845952366,24.93848650238104,0 91.85441161927695,24.93849291686992,0 91.8543780809884,24.93849327816937,0 91.85433654024126,24.93849437339212,0 91.85428637087828,24.93849650529032,0 91.85424445792039,24.93849773104623,0 91.85421001888628,24.93849847872009,0 91.8541755494923,24.93849922733162,0 91.85414779368401,24.93849392084474,0 91.85411257189732,24.93848303575574,0 91.85409836880781,24.93847752886962,0 91.85415817887807,24.93840549711674,0 91.85412978641909,24.93839443188315,0 91.85408717505125,24.93835979318724,0 91.85407954604906,24.93833024879121,0 91.85405861147112,24.93829470501449,0 91.85405106494191,24.93825909364845,0 91.85403708610227,24.9382233687907,0 91.85403679749393,24.93819346832385,0 91.85403659294123,24.93816953097464,0 91.85404215611004,24.93813990988626,0 91.85406041494056,24.93811047741398,0 91.85408634293228,24.93808064024175,0 91.85410623878624,24.93806861722299,0 91.85413297671259,24.93806252781718,0 91.85415957507715,24.93804446760786,0 91.85418635686958,24.93804437066504,0 91.85421310108741,24.93802025122273,0 91.85423335179348,24.93799608566583,0 91.85423984260768,24.93797210002371,0 91.8542394550874,24.93794819825824,0 91.85421842178474,24.93792454115764,0 91.8541909474433,24.93791283172491,0 91.85415760947154,24.93790086600499,0 91.85413763100578,24.93789488156809,0 91.85409776478762,24.93789490121961,0 91.85407118691116,24.93789491473504,0 91.85403131919595,24.93789493425444,0 91.85399809398841,24.93789495093158,0 91.85396473493633,24.93788899430104,0 91.85394440500227,24.9378710746442,0 91.85391721590058,24.93784117381048,0 91.85391676723128,24.93781723474411,0 91.85393649021984,24.93780525581464,0 91.85398375057667,24.93778097885806,0 91.85402441335042,24.93776871072008,0 91.85405097714334,24.93775066668838,0 91.85408413248422,24.93773864230055,0 91.85411048571746,24.93772064746677,0 91.85413709375375,24.93770860096043,0 91.85417027121197,24.93768454221756,0 91.85420350274877,24.93766648412669,0 91.85423674198881,24.93765443437476,0 91.85427683468305,24.93763631539661,0 91.85432983659923,24.93763032997237,0 91.85435660675975,24.93761823645721,0 91.85439617417778,24.93760628375226,0 91.85443653779542,24.93759410820554,0 91.85446338114457,24.93758801230993,0 91.85450311886032,24.93757600142616,0 91.85452974153975,24.93757597091124,0 91.85454268115318,24.93755801347298,0 91.85456877656161,24.93754010104758,0 91.85459496198624,24.93753415757575,0 91.8546209775226,24.93752225317894,0 91.85463408105461,24.93751627929448,0 91.85466067437352,24.9375042406615,0 91.85469421335512,24.93749814006542,0 91.85472105559063,24.93748604050579,0 91.85472781801293,24.9374739731173,0 91.8547548069873,24.93744381375478,0 91.85477498368107,24.93741970450759,0 91.85478844024549,24.93740162915904,0 91.8548086326948,24.93737151318456,0 91.85481526830598,24.9373474706785,0 91.85482206843588,24.93731137753009,0 91.85482864472175,24.93729335504863,0 91.85484852166172,24.93725729384166,0 91.85486208480154,24.93723921860681,0 91.8548827268293,24.93721507256062,0 91.85491655584602,24.93720296025593,0 91.8549435359096,24.9371968873033,0 91.85496955862307,24.93719094591719,0 91.85498251102618,24.93718498044891,0 91.85502138364333,24.93717308575567,0 91.85504083559658,24.93715511420563,0 91.85504732864361,24.9371310894664,0 91.85506031023002,24.93710106641826,0 91.85507335258437,24.93707103147193,0 91.85508638930787,24.93704700339823,0 91.85509301226749,24.93702294919576,0 91.85509317455252,24.93699287865132,0 91.85509327192362,24.93697483929003,0 91.85509997500212,24.93693877025669,0 91.85510670326023,24.93690873844882,0 91.85511330853552,24.93687266865993,0 91.85511993748355,24.93684258638603,0 91.85512005827684,24.93681252974924,0 91.8551201549169,24.93678848553641,0 91.85513324918213,24.93677044714406,0 91.85513341149901,24.93674639957174,0 91.85513373432178,24.93671636002296,0 91.85514041397201,24.93669232209222,0 91.85515351636226,24.93666827014863,0 91.85515996617352,24.93663820855078,0 91.8551733804245,24.93660817239591,0 91.85519332454565,24.93658413784258,0 91.8552069610013,24.93655413568659,0 91.8552205096162,24.93653014086582,0 91.855240744822,24.93649413367825,0 91.85524748470928,24.93647613007854,0 91.85526749882473,24.93645212624913,0 91.85528078008575,24.93642811678984,0 91.85530036398801,24.93640402909926,0 91.8553265612813,24.93637991585378,0 91.85533965464801,24.9363618532917,0 91.85535270847519,24.93633176564699,0 91.85536573824025,24.93630767924799,0 91.85537884443215,24.93628360324405,0 91.85538550284333,24.93627160216844,0 91.85538557914838,24.93624157060049,0 91.85538564205532,24.93621152910082,0 91.85538563143108,24.93619350012782,0 91.85537244431899,24.9361634706969,0 91.85536588179247,24.93613344262369,0 91.85536594308607,24.93610341495028,0 91.85536596735578,24.93609140426473,0 91.85537287780639,24.93605544503462,0 91.85539954994417,24.93604349164505,0 91.85543961200904,24.93603159539852,0 91.85546617612131,24.93603162180857,0 91.85549943204309,24.9360196579614,0 91.85551931204193,24.93600764855956,0 91.85553262512298,24.93599566325424,0 91.85556572752803,24.93597763703904,0 91.85561205560971,24.93595359374678,0 91.85563193461607,24.93594158483329,0 91.85566503905494,24.93592355801387,0 91.85569140988366,24.9359174853258,0 91.85573093697352,24.93590535491343,0 91.85575089132796,24.93589939165583,0 91.85579100945506,24.93587556838403,0 91.85581768761905,24.93586366282012,0 91.8558510812454,24.9358578241824,0 91.85588443551866,24.93585797459731,0 91.8559176379772,24.93585803686745,0 91.85595073407994,24.93585803713282,0 91.85598403082979,24.93587016998233,0 91.85601071885701,24.93587629699135,0 91.85604399043362,24.93589441934272,0 91.85606391160002,24.93590649057998,0 91.85609040017192,24.9359244880293,0 91.85611674653573,24.9359304080648,0 91.85614971527079,24.93593632910897,0 91.856176188844,24.93593632868074,0 91.85620916652347,24.93594225074524,0 91.85623553027045,24.9359481737507,0 91.85626184875885,24.93595406202537,0 91.85628838128937,24.93595409603633,0 91.85630166542605,24.93595412867794,0 91.85636143323654,24.9359542748567,0 91.85640122154507,24.93595433974032,0 91.85644098728086,24.93595438168283,0 91.85647417097665,24.93595446132323,0 91.85650069937262,24.93596051311181,0 91.85653388189239,24.93596059793409,0 91.85656708199625,24.93596070595485,0 91.85659358550151,24.935960743899,0 91.85662007982485,24.93596677496317,0 91.85665319437756,24.9359668120524,0 91.85667967469585,24.93597283124937,0 91.85670613723474,24.93597883292096,0 91.8567325915171,24.93597882638908,0 91.8567722633799,24.93597880623951,0 91.85679870469806,24.93597878190362,0 91.85682514791844,24.93597875778181,0 91.85685820413892,24.93597872730389,0 91.8568912628935,24.93597869698234,0 91.85691771152342,24.93597867301069,0 91.85695077450258,24.935978642533,0 91.85696397092305,24.93600258646663,0 91.85696394871398,24.93602055473255,0 91.8569507065037,24.93603254638084,0 91.85691100214166,24.93605055003417,0 91.85685808993655,24.93605658441301,0 91.85682501878158,24.93606260143198,0 91.85679857061987,24.93606262341162,0 91.85676551468082,24.93606265287086,0 91.85673246973407,24.93606269003771,0 91.85669943938922,24.9360627397214,0 91.85665971738865,24.93606872108553,0 91.85664646938778,24.93606869696764,0 91.85660670172686,24.93608063530912,0 91.85657355472357,24.93609258392726,0 91.85653369243965,24.93611646577488,0 91.85651373237025,24.93613439448043,0 91.85648714410942,24.93615232332937,0 91.85647397293971,24.93617638195732,0 91.85645420116236,24.93620044964513,0 91.85642776758544,24.93621247566053,0 91.85640130471486,24.93622447517088,0 91.85636818352336,24.93624246113525,0 91.85634829795629,24.9362484473431,0 91.856315120983,24.93626041897887,0 91.85628176664906,24.93627230124542,0 91.85626168353549,24.93627820479111,0 91.85622158914332,24.93628403646189,0 91.85620163995866,24.93629002353593,0 91.85616838139632,24.93628995742144,0 91.8561284953235,24.9362899006148,0 91.8560753424737,24.9362898335,0 91.85605542714245,24.9362898167768,0 91.85601563595773,24.9362958287915,0 91.85598914681782,24.93630183665382,0 91.85594283024707,24.93630786691661,0 91.8559031455226,24.93631389934535,0 91.85587670143474,24.93631992546139,0 91.85584362498507,24.93632594494278,0 91.85581718532733,24.9363379776512,0 91.85578414548183,24.93635602249777,0 91.85575106154,24.93635603193861,0 91.8557244783657,24.93636802288822,0 91.85569784908688,24.93638601170906,0 91.85567778543985,24.93641600692042,0 91.85565774987073,24.93644000615994,0 91.85563767801348,24.93647001234337,0 91.8556375779912,24.93648802190126,0 91.85562408207505,24.93651802511182,0 91.85561734112866,24.93654806545641,0 91.85561062880424,24.93657810884964,0 91.85560392434509,24.93660214568933,0 91.85560372558376,24.93663217719014,0 91.85560362620463,24.93666222798031,0 91.85560363103204,24.93669830393965,0 91.8556036410864,24.93672836790687,0 91.85559701505156,24.93676444338537,0 91.85559702704549,24.9367704553148,0 91.85557722905205,24.9368065251977,0 91.85555738991974,24.93683057704959,0 91.85554418119011,24.93685462358518,0 91.85552428507543,24.93688469500902,0 91.85551093164156,24.93690873328594,0 91.85549749738041,24.93694481306972,0 91.85549068232925,24.93698089199884,0 91.85547741260697,24.93701095669564,0 91.85545750393138,24.93704102507259,0 91.85545089764818,24.9370650737779,0 91.85543099542583,24.93709513857523,0 91.85541773563897,24.93711918963824,0 91.85541114175096,24.93714924822274,0 91.85541120304985,24.93717930227893,0 91.85541128839671,24.93722137483603,0 91.85541136151558,24.93725743408715,0 91.85541806350534,24.93728146785907,0 91.85541825992733,24.93731148311822,0 91.85541842428562,24.93733548932918,0 91.85541851120114,24.93735951240308,0 91.85542517836365,24.93738354449379,0 91.85544526291014,24.9374135418061,0 91.85546537869502,24.9374254954192,0 91.85549891014088,24.93743739671093,0 91.85552557397953,24.93743735122135,0 91.85555875344416,24.93742532162936,0 91.85558524255342,24.93740730402626,0 91.85560508160123,24.93738929287607,0 91.85562484099982,24.93737130264754,0 91.85564450972248,24.93735333765008,0 91.85567735678163,24.93733538821159,0 91.85570390424489,24.93732336010722,0 91.85572380933615,24.93731133906396,0 91.85575682233736,24.93731137368615,0 91.85578980891995,24.93730540713432,0 91.85581624328337,24.93730543589679,0 91.85585594486803,24.93730545741264,0 91.855882413552,24.93730547161811,0 91.8559022702988,24.93731750335428,0 91.85592212733057,24.93732953516628,0 91.85594861871098,24.93735959779474,0 91.85596855496399,24.93738362722026,0 91.85598845312352,24.93740165751512,0 91.85601491952778,24.93741970984617,0 91.85604137037961,24.93743777503894,0 91.85606162620003,24.93744964262376,0 91.85608842361384,24.93745552841371,0 91.85612842893686,24.93745541867203,0 91.85615477610091,24.93745549209739,0 91.85618756028938,24.93744964695034,0 91.85621397142947,24.93743767316566,0 91.85624061656372,24.93742559254814,0 91.85627392584261,24.93741349425897,0 91.85630710643325,24.93739544995243,0 91.85633351953328,24.93737746775256,0 91.85635333162173,24.93735947209147,0 91.85637314978061,24.93733545913233,0 91.856386380355,24.93731744046987,0 91.85639961193858,24.93729341065959,0 91.85641300346607,24.93726931864057,0 91.85642638346027,24.93723922411938,0 91.8564330899444,24.93721516009725,0 91.85645307385964,24.9371910921046,0 91.85646640082389,24.93717304484255,0 91.8564863590733,24.93715499780408,0 91.8565063515618,24.93712492972264,0 91.85653960137199,24.93709486515729,0 91.85655961175246,24.93706480569537,0 91.85657297731508,24.93704076153891,0 91.85659294522461,24.9370227293799,0 91.85661290848809,24.93700470174454,0 91.85663953148898,24.93699267137879,0 91.85665954061577,24.93697463152045,0 91.85669939008761,24.93695662391069,0 91.85673242563627,24.93693863279298,0 91.85676546562306,24.93692063910374,0 91.85679184261556,24.93690865156253,0 91.85681809681438,24.93689666740944,0 91.85684439735397,24.93688467519794,0 91.8568641511819,24.93687267042695,0 91.85689705903729,24.93685466057088,0 91.8569168941311,24.93684865686557,0 91.85693679577409,24.93683664211969,0 91.8569633065363,24.93681261361324,0 91.85697655762974,24.93678858383772,0 91.85698980095457,24.93677056104385,0 91.85700967043056,24.93674052214494,0 91.85702294758825,24.93671649965709,0 91.85702959192992,24.93669848402546,0 91.85704286880392,24.93667446559758,0 91.85706275693127,24.93664443768412,0 91.85707600722661,24.93662641902552,0 91.85709588073156,24.93660239294744,0 91.85712237461217,24.93657836469853,0 91.85712900425546,24.93656034849784,0 91.85714225844944,24.93653032194222,0 91.85714888755894,24.93651230684699,0 91.85716876394231,24.93648227656677,0 91.85719525958356,24.93644623842322,0 91.85722175357679,24.93641620368732,0 91.85723500142686,24.93639818409218,0 91.85724824795757,24.9363861683175,0 91.85727473310573,24.93635612717344,0 91.85730788182684,24.9363321562998,0 91.85734101900368,24.93630819782432,0 91.8573741376765,24.93628420170417,0 91.85738738142319,24.93626617046517,0 91.85741386879121,24.93624814760363,0 91.85744036474644,24.93623018406398,0 91.85746685675826,24.93621824896525,0 91.8574867230482,24.93620021767065,0 91.85750658704357,24.93618221914189,0 91.85751982809762,24.93617027734349,0 91.85755954238653,24.93614638632163,0 91.85758601567608,24.93612842306194,0 91.8576191028056,24.93610447251303,0 91.85765220175281,24.93608644251146,0 91.85767205597489,24.9360804521485,0 91.85769852025086,24.93606249104957,0 91.85773160032613,24.93604453026002,0 91.85777128912139,24.93602058706778,0 91.85779113125956,24.93600861657499,0 91.85782419405598,24.93598468070608,0 91.85785725922099,24.93596672855476,0 91.85791474653085,24.93594376190642,0 91.85799607645593,24.93590697991761,0 
					</coordinates>
				</LinearRing>
			</outerBoundaryIs>
		</Polygon>
		<atom:link rel="app" href="https://www.google.com/earth/about/versions/#earth-pro" title="Google Earth Pro 7.3.7.1155"></atom:link>
	</Placemark>
</Document>
</kml>
