<?xml version="1.0" encoding="UTF-8"?>
<kml xmlns="http://www.opengis.net/kml/2.2" xmlns:gx="http://www.google.com/kml/ext/2.2" xmlns:kml="http://www.opengis.net/kml/2.2" xmlns:atom="http://www.w3.org/2005/Atom">
<Document>
	<name>tea5.kml</name>
	<Style id="cand">
		<LineStyle>
			<color>ff00a5ff</color>
			<width>2</width>
		</LineStyle>
		<PolyStyle>
			<color>0000a5ff</color>
		</PolyStyle>
	</Style>
	<StyleMap id="cand0">
		<Pair>
			<key>normal</key>
			<styleUrl>#cand1</styleUrl>
		</Pair>
		<Pair>
			<key>highlight</key>
			<styleUrl>#cand</styleUrl>
		</Pair>
	</StyleMap>
	<Style id="cand1">
		<LineStyle>
			<color>ff00a5ff</color>
			<width>2</width>
		</LineStyle>
		<PolyStyle>
			<color>0000a5ff</color>
		</PolyStyle>
	</Style>
	<Placemark>
		<name>tea5</name>
		<styleUrl>#cand0</styleUrl>
		<Polygon>
			<tessellate>1</tessellate>
			<outerBoundaryIs>
				<LinearRing>
					<coordinates>
						91.85441080395405,24.93949966475553,0 91.85445195159586,24.93950057641892,0 91.85449307941514,24.93951007626142,0 91.85452032789597,24.93955889161581,0 91.85452947513693,24.93957225274432,0 91.85456629947691,24.93960772576432,0 91.85459868248063,24.93963375488774,0 91.85463111978675,24.93964210691637,0 91.85463575124852,24.93964204132192,0 91.854709869423,24.93964561009092,0 91.8547559401629,24.93963130082853,0 91.85477440264216,24.93963084889518,0 91.85487573702812,24.93960936513254,0 91.85490295325695,24.93958763756279,0 91.85491635440982,24.93957017007389,0 91.85497036785574,24.93952674026722,0 91.85512020051058,24.93930646422952,0 91.85516965548062,24.93948457811447,0 91.85526762966491,24.93951982621439,0 91.85537648131445,24.93957657414701,0 91.85546581153127,24.93960686208012,0 91.85557107632219,24.93959771976608,0 91.85559835299036,24.93959325427276,0 91.85569737604128,24.93956678864153,0 91.85575442528528,24.9395885522236,0 91.85572370485252,24.93960609887189,0 91.85567591802079,24.93964139085325,0 91.85555900822203,24.93968209669068,0 91.85546823648519,24.93970940830029,0 91.85538209152779,24.93974538633789,0 91.85533132479712,24.93975442888053,0 91.85521909766089,24.93974608019384,0 91.8551762758066,24.93972422556179,0 91.8551137563537,24.93967136902516,0 91.85503422770699,24.93965340346229,0 91.85490575885024,24.93970663211379,0 91.85491127564853,24.93974237651252,0 91.8549035939007,24.93981785080452,0 91.85490905158261,24.93986100291668,0 91.85479268770659,24.9399154792087,0 91.85473663733485,24.93995250293935,0 91.85468484780559,24.9399931982385,0 91.85465631246285,24.93999899418561,0 91.85457520986645,24.94002897432694,0 91.85449371210292,24.94005740836934,0 91.85440722938397,24.94008736984615,0 91.85433984528511,24.94010491591571,0 91.8542522502195,24.94014866476449,0 91.85413411893843,24.9402214464455,0 91.85407443076467,24.94026080277816,0 91.854080672393,24.9403700912365,0 91.85403668623236,24.94049047526287,0 91.8540215161656,24.94061459661378,0 91.85402106538967,24.94074159321047,0 91.85403650736781,24.94085487703595,0 91.85405722010258,24.94097501475073,0 91.85409174770263,24.94112900729924,0 91.8540069725216,24.94105383267285,0 91.85395861250656,24.94098222781555,0 91.85390400672267,24.94083708416483,0 91.85388347053396,24.94074140971426,0 91.85387184755633,24.94057925988225,0 91.85384911128935,24.94044676279909,0 91.85383948416161,24.94035576019046,0 91.85384474370977,24.94026156363235,0 91.85382893117433,24.94019783116558,0 91.85381321301212,24.94004948707892,0 91.85383337323125,24.93995007294208,0 91.8537941126645,24.9398898775484,0 91.85375896597797,24.93984800719379,0 91.85369464856714,24.93982455249246,0 91.85360126090585,24.93981511042493,0 91.85358626857783,24.93977249063763,0 91.85362304960125,24.93972952862558,0 91.8537246028681,24.93969441815799,0 91.85378761535692,24.93964655846884,0 91.85394303071104,24.93959398642347,0 91.85402606582517,24.93959055567242,0 91.8541431784128,24.93954953030992,0 91.85425944015986,24.93951230127733,0 91.85436514753013,24.93949847863128,0 91.85441080395405,24.93949966475553,0 
					</coordinates>
				</LinearRing>
			</outerBoundaryIs>
		</Polygon>
		<atom:link rel="app" href="https://www.google.com/earth/about/versions/#earth-pro" title="Google Earth Pro 7.3.7.1155"></atom:link>
	</Placemark>
</Document>
</kml>
