<?xml version="1.0" encoding="UTF-8"?>
<kml xmlns="http://www.opengis.net/kml/2.2" xmlns:gx="http://www.google.com/kml/ext/2.2" xmlns:kml="http://www.opengis.net/kml/2.2" xmlns:atom="http://www.w3.org/2005/Atom">
<Document>
	<name>tea6.kml</name>
	<Style id="cand">
		<LineStyle>
			<color>ff00a5ff</color>
			<width>2</width>
		</LineStyle>
		<PolyStyle>
			<color>0000a5ff</color>
		</PolyStyle>
	</Style>
	<StyleMap id="cand0">
		<Pair>
			<key>normal</key>
			<styleUrl>#cand1</styleUrl>
		</Pair>
		<Pair>
			<key>highlight</key>
			<styleUrl>#cand</styleUrl>
		</Pair>
	</StyleMap>
	<Style id="cand1">
		<LineStyle>
			<color>ff00a5ff</color>
			<width>2</width>
		</LineStyle>
		<PolyStyle>
			<color>0000a5ff</color>
		</PolyStyle>
	</Style>
	<Placemark>
		<name>tea6</name>
		<styleUrl>#cand0</styleUrl>
		<Polygon>
			<tessellate>1</tessellate>
			<outerBoundaryIs>
				<LinearRing>
					<coordinates>
						91.85993943419263,24.93962553874687,0 91.85989539175077,24.93964827454643,0 91.85977615522012,24.93964226652989,0 91.8597497432488,24.93963534630702,0 91.85974558495964,24.93963202792703,0 91.85970120195805,24.93961446791518,0 91.85966332761311,24.93956850567055,0 91.85966849311093,24.93953121566151,0 91.85966772411275,24.93951414304421,0 91.85968170311695,24.93947297389519,0 91.85968106686853,24.93943161341504,0 91.85967818731274,24.93940719614983,0 91.85968689391318,24.93937931601417,0 91.85971423331029,24.93935154003527,0 91.85972963046376,24.93934114497485,0 91.85974923689895,24.93929613986124,0 91.85976743966324,24.93926172587025,0 91.8597704365834,24.93922727839,0 91.85981444395223,24.93918599245904,0 91.85982935459506,24.93916526901566,0 91.85983302182075,24.93915836238369,0 91.85982841860407,24.93909265682112,0 91.85980543784029,24.93903033826302,0 91.85980165378994,24.93902687477928,0 91.85978337220305,24.93896110704177,0 91.85982250711592,24.93891266638833,0 91.85987537732161,24.93890573400758,0 91.85994005936462,24.93888495838853,0 91.85996717237882,24.93885037967498,0 91.86000530212381,24.93881232086989,0 91.86001666732624,24.93879847400596,0 91.86001706621208,24.93877084233107,0 91.86000511993747,24.93868428216102,0 91.8600049157299,24.93867040454945,0 91.86001228212311,24.93862536325552,0 91.86001229186108,24.93861844226345,0 91.86008278864058,24.93859808324508,0 91.86012023736419,24.93857022864237,0 91.86011900173482,24.93852840795397,0 91.86011787378925,24.93848999960399,0 91.86014815091269,24.93845873143943,0 91.86024143803013,24.93843020576001,0 91.86037065425717,24.93838471790726,0 91.86039723078335,24.93836031248773,0 91.86038245718927,24.93833625969268,0 91.86034957226366,24.93828496853033,0 91.86034216558842,24.93828162106712,0 91.8602943763682,24.93825137799843,0 91.860287155611,24.93824121133388,0 91.86030275872361,24.93820677278241,0 91.86036672921023,24.93816472023821,0 91.86046892870669,24.93811217734159,0 91.86048415628706,24.93810174209521,0 91.86049560036582,24.93809479824003,0 91.8605680661834,24.93807043152732,0 91.86060608221125,24.93807026708978,0 91.86065501690172,24.93806269491416,0 91.86070038449228,24.93804833763132,0 91.86077279995854,24.93803416242979,0 91.86078043729619,24.93803414175073,0 91.86084956628387,24.93802396178333,0 91.86094682180931,24.93802238161918,0 91.86099318902038,24.93803691010464,0 91.86102367779209,24.93805414716589,0 91.86105756634069,24.9380881491372,0 91.86106147708922,24.93808826899803,0 91.86108763471584,24.93812213230044,0 91.86108724338992,24.93813549231795,0 91.86109040929193,24.93815893530853,0 91.86110151172802,24.93818623028864,0 91.86112801110272,24.93821361719204,0 91.86113555541282,24.93825518191822,0 91.86116628050353,24.93827957399958,0 91.86122360257242,24.9382932276421,0 91.86122742062565,24.9382932037623,0 91.86131197580332,24.93830390229207,0 91.86136199458483,24.93830421346962,0 91.86136967652767,24.93830424686309,0 91.86143872308126,24.9383043909474,0 91.86145784769325,24.93830430923851,0 91.86146933581486,24.93830776635267,0 91.86158407562846,24.9383032692362,0 91.86160325824756,24.93830672832303,0 91.8616684976141,24.93830315790584,0 91.8616838518065,24.93830663527071,0 91.86177981625465,24.93830661053274,0 91.86183738045538,24.93830670415318,0 91.86184505416225,24.93830671775525,0 91.86190641732948,24.93832428481119,0 91.86196007272021,24.93833141574576,0 91.86197156941377,24.9383314448789,0 91.86202902602579,24.93834552472882,0 91.86205928284976,24.93845398406842,0 91.86205888529925,24.93851010644779,0 91.86200138066179,24.93852419246018,0 91.86194386685776,24.93853839196871,0 91.86190929497148,24.93854922780772,0 91.86182517462451,24.93855338782054,0 91.86181754399122,24.93855343802353,0 91.86176794033332,24.93855430022328,0 91.86173752247453,24.93854419954506,0 91.86172992342294,24.93854077075194,0 91.86169946955499,24.93851235130525,0 91.86169169068948,24.93847223870177,0 91.86166876476673,24.93845502653387,0 91.86162317437878,24.93845635379817,0 91.8615399777655,24.93846161671889,0 91.86149525254518,24.93848749876447,0 91.86142655896978,24.93851410789533,0 91.86135307281327,24.93855032943848,0 91.86132996946091,24.93857768680191,0 91.86128943421312,24.93866497501257,0 91.8612714312014,24.93872060247776,0 91.8612497441386,24.93879657197772,0 91.86119988760994,24.93887873560898,0 91.86120655944167,24.93893727592217,0 91.86120890475154,24.93899520161872,0 91.86120351405712,24.93906281009942,0 91.86121987159638,24.93911994308941,0 91.8612162416039,24.93915029446201,0 91.86117120959878,24.9391841903741,0 91.86116389361912,24.93918076330011,0 91.86114544904845,24.93915707008846,0 91.86112201751914,24.93911344306866,0 91.86112318655456,24.93903976555102,0 91.86110743132323,24.93901273437981,0 91.86107060731851,24.93898180632766,0 91.86096230230081,24.9389575940272,0 91.86091354652463,24.93896798834496,0 91.86086113221708,24.93897836261183,0 91.8608150504223,24.93897836481688,0 91.86076622686998,24.93899908351626,0 91.86070811524536,24.93904034005917,0 91.86067742572051,24.93909159464539,0 91.86064298988325,24.93913284881223,0 91.8606415085579,24.93918315819419,0 91.86061805220001,24.9392701647229,0 91.8605894603221,24.93932289244956,0 91.86047798369482,24.93935900060061,0 91.86041952116096,24.93934450943371,0 91.86032253360902,24.93936810753449,0 91.8602282444397,24.93941967106975,0 91.86020954664215,24.93945226198805,0 91.86005776224447,24.9395014383793,0 91.86004954381501,24.93950505407008,0 91.8599230247135,24.93956754921287,0 91.85993943419263,24.93962553874687,0 
					</coordinates>
				</LinearRing>
			</outerBoundaryIs>
		</Polygon>
		<atom:link rel="app" href="https://www.google.com/earth/about/versions/#earth-pro" title="Google Earth Pro 7.3.7.1155"></atom:link>
	</Placemark>
</Document>
</kml>
