<?xml version="1.0" encoding="UTF-8"?>
<kml xmlns="http://www.opengis.net/kml/2.2" xmlns:gx="http://www.google.com/kml/ext/2.2" xmlns:kml="http://www.opengis.net/kml/2.2" xmlns:atom="http://www.w3.org/2005/Atom">
<Document>
	<name>tea7.kml</name>
	<StyleMap id="cand">
		<Pair>
			<key>normal</key>
			<styleUrl>#cand0</styleUrl>
		</Pair>
		<Pair>
			<key>highlight</key>
			<styleUrl>#cand1</styleUrl>
		</Pair>
	</StyleMap>
	<Style id="cand0">
		<LineStyle>
			<color>ff00a5ff</color>
			<width>2</width>
		</LineStyle>
		<PolyStyle>
			<color>0000a5ff</color>
		</PolyStyle>
	</Style>
	<Style id="cand1">
		<LineStyle>
			<color>ff00a5ff</color>
			<width>2</width>
		</LineStyle>
		<PolyStyle>
			<color>0000a5ff</color>
		</PolyStyle>
	</Style>
	<Placemark>
		<name>tea7</name>
		<styleUrl>#cand</styleUrl>
		<Polygon>
			<tessellate>1</tessellate>
			<outerBoundaryIs>
				<LinearRing>
					<coordinates>
						91.85179510199482,24.91618410946501,0 91.85185348032603,24.91599926038657,0 91.85192663986706,24.9158472568289,0 91.85193610280733,24.91569520935098,0 91.85198857113197,24.91555123022071,0 91.85208021495227,24.915475040756,0 91.85215890211362,24.91536463371447,0 91.85215900876958,24.91523631463565,0 91.85220980842246,24.91509985427148,0 91.85230384322412,24.91506109760244,0 91.8523849635616,24.91526354480371,0 91.85241290248982,24.91537387294913,0 91.85254819639451,24.91539501821018,0 91.85269822154433,24.91517140064216,0 91.85286916417861,24.91513243399796,0 91.85289553408072,24.91530071822002,0 91.85282108146352,24.91546177108969,0 91.85288226808305,24.91562096016997,0 91.85288594431134,24.91564154286979,0 91.85293703192951,24.91570367852997,0 91.85294747429037,24.91571408327618,0 91.85306705789486,24.91578233265273,0 91.8530661701396,24.91579274262602,0 91.85314901132671,24.9158298879884,0 91.85314804016659,24.91584042164847,0 91.853256186755,24.91587659142822,0 91.85333714224475,24.91595589034052,0 91.85349364884962,24.9159666611205,0 91.85360582168944,24.91594551491724,0 91.85384040803703,24.91591908100885,0 91.8539754152596,24.91589787731623,0 91.85403341985676,24.9159030475517,0 91.8540568948071,24.91603034293648,0 91.853905865801,24.91612661711711,0 91.8538764978022,24.9161266059421,0 91.85367902916896,24.91622618041997,0 91.85366033187304,24.91635564047432,0 91.85362700924291,24.91641092235794,0 91.85352123649575,24.91648279066694,0 91.85343062498134,24.91650463902525,0 91.85326930208743,24.91653562387443,0 91.85326340372809,24.91653555555229,0 91.85314706316476,24.91659987665322,0 91.85319820435008,24.91676796217031,0 91.85320913761637,24.91677947211041,0 91.85333058530384,24.91678528151785,0 91.85333633966698,24.91678561703162,0 91.85342264946949,24.91679611196364,0 91.85359007109214,24.91669175719925,0 91.85360374170286,24.91666373384168,0 91.85367121486291,24.91655067836097,0 91.853789293845,24.91647251138668,0 91.85379590688287,24.91646136529559,0 91.85392260317801,24.91642302202609,0 91.85402490107091,24.91638020601739,0 91.8540777432201,24.91639140219753,0 91.8540818137997,24.91643552146305,0 91.85409896788916,24.91658664493577,0 91.85410415426288,24.91660370532642,0 91.85410940453315,24.91674718931075,0 91.85397092817001,24.91686205820784,0 91.85396977305589,24.91688525266982,0 91.85390078891861,24.91692585677072,0 91.85382516469832,24.91697238131017,0 91.85382374803265,24.91699600240547,0 91.85382180458561,24.91702593628099,0 91.85381529853204,24.91713864157574,0 91.85346502789569,24.91719614036436,0 91.85325159244294,24.91718587057324,0 91.85322246204373,24.91717350819534,0 91.85318675053543,24.91716708778222,0 91.85316860422544,24.91716689662778,0 91.85309824451799,24.91720775128617,0 91.85309409989618,24.91724985518118,0 91.85310841614741,24.91739341588868,0 91.85311953557799,24.91740572890927,0 91.85317739679348,24.91755257564197,0 91.85318189070692,24.91762396884235,0 91.85319952663887,24.91768971611516,0 91.85325953658777,24.91769991929996,0 91.85333164464366,24.91764640821504,0 91.85356018200693,24.91757714088266,0 91.85369905350842,24.91757507982107,0 91.85371165760627,24.91757491732606,0 91.85381848738155,24.91758483832026,0 91.85389709293074,24.91763507114029,0 91.85408777873783,24.91769074775286,0 91.85408581788663,24.91773484641144,0 91.85415009650553,24.91784008237034,0 91.85414929173909,24.91785929528449,0 91.85419183283486,24.91791592143793,0 91.85420441659133,24.91792203520263,0 91.85433062596697,24.91796649373581,0 91.85445286922979,24.91797261600589,0 91.85449773667787,24.91797680532883,0 91.85484999971158,24.91792404942812,0 91.85492008920222,24.91784651868962,0 91.85492017401418,24.91782807793295,0 91.85500863477634,24.91764092761217,0 91.8551330858716,24.91755642039625,0 91.85518236053068,24.91747329605222,0 91.85531193686766,24.917473034524,0 91.85546007151233,24.91739732840504,0 91.85550876262619,24.91732442731928,0 91.85564282159883,24.91723811469431,0 91.85572166394972,24.91719176893488,0 91.8558489072859,24.91714958534324,0 91.85592502417381,24.91710295893041,0 91.85600934828975,24.91710524988893,0 91.85611255495081,24.91710420335043,0 91.85617294398047,24.91710297574485,0 91.85638257697539,24.91708599164516,0 91.85647044621059,24.91708037933828,0 91.85652246028368,24.91707617012868,0 91.85657965757171,24.91707089825079,0 91.85679301020032,24.91694638600573,0 91.85697440640949,24.91688027749883,0 91.85698736461008,24.91688655866157,0 91.85704734792412,24.916919180597,0 91.85712230139806,24.91703566519466,0 91.857098680335,24.9171286812774,0 91.85708556559223,24.91716631307269,0 91.85704653506518,24.91724172182618,0 91.85703562385751,24.91725400180953,0 91.85701522109963,24.91729634838779,0 91.85700277628261,24.91740822548407,0 91.85702439216647,24.91743368506665,0 91.85690279459693,24.91754789104633,0 91.85690806770936,24.91759352741311,0 91.85690033881967,24.91764396202736,0 91.8569236530799,24.91774745610564,0 91.85693563062674,24.91780541537372,0 91.85694625301643,24.91786130000203,0 91.85700995495776,24.91795919597766,0 91.85702358352067,24.91797160136849,0 91.85703676651229,24.91797781613359,0 91.85722882496347,24.9180558488554,0 91.85746789469549,24.9180845535085,0 91.8574934117358,24.91808468304712,0 91.85756577742181,24.91810977399997,0 91.85762600017611,24.91811376755576,0 91.8577467890895,24.91821741295812,0 91.85776783996654,24.9183489300385,0 91.85776806405013,24.91835471882873,0 91.8578107253591,24.91840972344557,0 91.85782424146102,24.91841611087097,0 91.85787866042683,24.91844757883829,0 91.85790408834477,24.91852188352633,0 91.85778706936738,24.91861259166511,0 91.85777377470768,24.91861205715654,0 91.85759114457211,24.91860489835655,0 91.85730270533797,24.91872380174252,0 91.8571941539407,24.91883296730096,0 91.85719527340842,24.91886287861715,0 91.85712716142605,24.91899986271315,0 91.85713400260883,24.91900610003427,0 91.85715105478062,24.9190702470672,0 91.85715422675858,24.91911047257889,0 91.85715619249687,24.91913702935456,0 91.85710772624282,24.91920734148532,0 91.85702028030721,24.91934010704988,0 91.85728369863092,24.91956025448323,0 91.85751550632236,24.91969887139945,0 91.85773407463553,24.91974011628947,0 91.8580804755512,24.91977948195556,0 91.85822558415282,24.92013794224595,0 91.85831378289033,24.92020795957976,0 91.85848698402273,24.92040855431127,0 91.85844045374418,24.92058616623333,0 91.85816611034474,24.92083576375792,0 91.85808850621638,24.92106992351972,0 91.85809116648774,24.92110991737737,0 91.8580263482594,24.92127955449999,0 91.8580980618565,24.92149493505426,0 91.85816038072601,24.92153476037219,0 91.8583315985926,24.92148221231415,0 91.85834706535691,24.9214382540691,0 91.85878613624824,24.92130302608998,0 91.85888122723996,24.9216834570255,0 91.8589348484936,24.92181449754563,0 91.85899427764568,24.92200938760208,0 91.85879373080343,24.92219176255594,0 91.85854702314801,24.9220850438999,0 91.85852027213348,24.92203584900214,0 91.85812272299958,24.92197591222466,0 91.85808174999939,24.92195680882903,0 91.85794498041925,24.9219313309451,0 91.85780011760919,24.92214121272058,0 91.85740732214202,24.92222370875485,0 91.85698013208166,24.92220088189473,0 91.85682973715851,24.92207110936948,0 91.85687975194502,24.92193641601372,0 91.85689504529677,24.92187056429152,0 91.85697895403537,24.92133507909486,0 91.85699148477245,24.92109122166388,0 91.85698620443381,24.92102613691544,0 91.85708764578372,24.9206086009107,0 91.85711293420788,24.92042148876484,0 91.8571010505314,24.92025737766864,0 91.85709424229654,24.92015660828517,0 91.85707203107719,24.92009972441739,0 91.85700196368595,24.91990391184532,0 91.85698018114705,24.91986485526565,0 91.85675071801045,24.91962665970011,0 91.85670750683593,24.91958245613096,0 91.85653386066964,24.91955240792094,0 91.85647146798539,24.91949170062122,0 91.85618249115524,24.91946504060426,0 91.85613257321498,24.91981223361282,0 91.85615423664044,24.9198350855945,0 91.85626817016536,24.92003206662777,0 91.85618190733776,24.92020191255488,0 91.85578750079442,24.92051797024706,0 91.85579880494379,24.92069132153178,0 91.8558716951041,24.92088892026925,0 91.8559293251601,24.92118759308394,0 91.85600543906465,24.92144740534008,0 91.85608519714087,24.92146321947129,0 91.85617076806918,24.92156680139148,0 91.85623011252449,24.92183613232972,0 91.8558696361973,24.92187873086258,0 91.85560489682307,24.92188625189869,0 91.85554464738576,24.92188702618317,0 91.85530735118874,24.9219399916241,0 91.85510944293823,24.92197401790327,0 91.85467862040211,24.92181980761654,0 91.85450748078931,24.92154447030627,0 91.85448511960372,24.92148110811386,0 91.85437698978291,24.92125084184512,0 91.85438098705677,24.92082617361403,0 91.85449940011429,24.92026744401707,0 91.85449188477615,24.92006318619834,0 91.85448861281549,24.91998051798076,0 91.85423542040196,24.91947591275472,0 91.85387902335833,24.9193511107637,0 91.85369830710141,24.91917050782158,0 91.85352080832894,24.91905586716573,0 91.85318544470526,24.91883649996553,0 91.85291663466184,24.91901164654358,0 91.85282108236784,24.91912817932596,0 91.85260924731834,24.91928941910999,0 91.8522008965746,24.91939839120695,0 91.85184914081051,24.9193815648987,0 91.85179003534228,24.91920020735215,0 91.8517700048865,24.91897905719755,0 91.85178926985293,24.91890175569831,0 91.85184712685331,24.91878276171077,0 91.8520397908936,24.91858381248379,0 91.85215493230525,24.91849910208269,0 91.85225066494175,24.91843521680606,0 91.85244282662288,24.91839300660892,0 91.85267076208243,24.91820924326642,0 91.85281975048707,24.91798483359385,0 91.85283842109789,24.91796420620605,0 91.85298612641415,24.91775781996716,0 91.85300439462074,24.91771895347502,0 91.85303578293397,24.91742394823005,0 91.85291876743564,24.91728397057121,0 91.85283877990288,24.91710168365407,0 91.85258949549544,24.91686379387674,0 91.85240273699129,24.91681019202953,0 91.85212088645586,24.91666334852984,0 91.85195165363331,24.91662563455048,0 91.85170739462941,24.91650908205426,0 91.85168824008721,24.91620989490354,0 91.85179510199482,24.91618410946501,0 
					</coordinates>
				</LinearRing>
			</outerBoundaryIs>
		</Polygon>
		<atom:link rel="app" href="https://www.google.com/earth/about/versions/#earth-pro" title="Google Earth Pro 7.3.7.1155"></atom:link>
	</Placemark>
</Document>
</kml>
