<?xml version="1.0" encoding="UTF-8"?>
<kml xmlns="http://www.opengis.net/kml/2.2" xmlns:gx="http://www.google.com/kml/ext/2.2" xmlns:kml="http://www.opengis.net/kml/2.2" xmlns:atom="http://www.w3.org/2005/Atom">
<Document>
	<name>tea8.kml</name>
	<Style id="cand">
		<LineStyle>
			<color>ff00a5ff</color>
			<width>2</width>
		</LineStyle>
		<PolyStyle>
			<color>0000a5ff</color>
		</PolyStyle>
	</Style>
	<StyleMap id="cand0">
		<Pair>
			<key>normal</key>
			<styleUrl>#cand</styleUrl>
		</Pair>
		<Pair>
			<key>highlight</key>
			<styleUrl>#cand1</styleUrl>
		</Pair>
	</StyleMap>
	<Style id="cand1">
		<LineStyle>
			<color>ff00a5ff</color>
			<width>2</width>
		</LineStyle>
		<PolyStyle>
			<color>0000a5ff</color>
		</PolyStyle>
	</Style>
	<Placemark>
		<name>tea8</name>
		<styleUrl>#cand0</styleUrl>
		<Polygon>
			<tessellate>1</tessellate>
			<outerBoundaryIs>
				<LinearRing>
					<coordinates>
						91.85724391978383,24.92894885842322,0 91.85719846049693,24.92885688978499,0 91.85735666531075,24.92861264796901,0 91.85741620885875,24.92841304698368,0 91.85786740209385,24.92839372021689,0 91.85797493075226,24.92845226019566,0 91.8582867410895,24.9284232198139,0 91.85835217962685,24.9283260825837,0 91.85841736196033,24.92822892422715,0 91.85851511917549,24.92808320960927,0 91.85858030773929,24.9279859761318,0 91.85893147682617,24.92741419108252,0 91.85913432071978,24.92712629423516,0 91.85925834893587,24.9273606002222,0 91.8607178828552,24.92838431962997,0 91.86093401909858,24.92849654604589,0 91.86113690245334,24.92860401258605,0 91.86181021375785,24.9288748723373,0 91.861946276808,24.92894847012103,0 91.86204873459018,24.92900517792134,0 91.86242077787379,24.92877883485528,0 91.86278213786704,24.92858237434968,0 91.862982239091,24.92832835686888,0 91.86301475143613,24.9282799942265,0 91.86329521339347,24.92783789317734,0 91.86337353989219,24.92771507187226,0 91.8635474175736,24.92744548550832,0 91.8639090945702,24.92734484847119,0 91.86461763315164,24.92683896930291,0 91.86517473774255,24.92714040110817,0 91.86545601438696,24.92739568012757,0 91.86552188839369,24.92746518332656,0 91.86551193748295,24.92759216519939,0 91.86616093683698,24.92778316201792,0 91.86655817116664,24.92757164041857,0 91.86666718918498,24.92739813170417,0 91.86718714804259,24.92731463973606,0 91.86749525173806,24.92728157595182,0 91.86792607083481,24.9275186478127,0 91.86832915516896,24.92774027074459,0 91.8683660379384,24.92779253635191,0 91.86852263883605,24.92820267088043,0 91.86848536703145,24.92848071146412,0 91.86849617307712,24.92851979520267,0 91.86841568776366,24.92864142120325,0 91.86840623322854,24.92910069800494,0 91.86840075678485,24.92916376466552,0 91.86853408195719,24.9294012308658,0 91.86850186551891,24.92944981337778,0 91.86866225781029,24.93019856284159,0 91.86869485002038,24.93031569064414,0 91.86868520194895,24.93044301777109,0 91.86903891715471,24.9308021431647,0 91.86907633983287,24.93085545044724,0 91.86936456930584,24.93107826934164,0 91.86941780001952,24.93110725479949,0 91.87018504027101,24.93125996828257,0 91.87025463592296,24.9312647540521,0 91.87067795017222,24.93090057731898,0 91.87074224789269,24.93080352609114,0 91.87127829195319,24.93059920912106,0 91.87182382536571,24.93109544138322,0 91.87187719156333,24.931124683398,0 91.87193565784423,24.93125595624478,0 91.87271198240619,24.93151346256306,0 91.87279208962832,24.93155720629288,0 91.87304038634687,24.9312947333677,0 91.87311107435343,24.9311341865474,0 91.8731488924076,24.93069187871303,0 91.87314313765285,24.93059002398415,0 91.87314819272062,24.93036187917758,0 91.87316429209157,24.93033757245923,0 91.87323129367562,24.93001387973799,0 91.87326290373522,24.92996569938718,0 91.87356847968024,24.92966949281337,0 91.87410092735172,24.92936220887299,0 91.87434063927995,24.92938887402721,0 91.87483606275012,24.92968933819796,0 91.87495362276324,24.92978685046517,0 91.8753692636005,24.92987832864534,0 91.87588006819337,24.93015554536711,0 91.87601361082228,24.93022876933926,0 91.8760943930251,24.93027252730159,0 91.87749306464941,24.930638349561,0 91.8776764284323,24.9306382573726,0 91.87779988030218,24.93067235653779,0 91.87868258489308,24.93080149435619,0 91.87851558783298,24.93110744367456,0 91.87845557834193,24.93114150829104,0 91.8779507395155,24.93168981672276,0 91.87782553591785,24.93171885861454,0 91.87724679804191,24.931728205473,0 91.87658416913033,24.93222909420211,0 91.87657807684158,24.93262306295656,0 91.87658928331076,24.93266204342333,0 91.87631732396484,24.93317681658806,0 91.87633108152306,24.93321640834151,0 91.87592037304559,24.93395172985002,0 91.87587208987657,24.93402472962218,0 91.87565694377415,24.93440408612694,0 91.8750086078018,24.93494484284215,0 91.87440337111479,24.93547657085877,0 91.87435500694869,24.93554959129122,0 91.87411727879272,24.93634668064634,0 91.87413849440895,24.93642429302219,0 91.87411662530474,24.93651145211832,0 91.87414227497824,24.93718666161587,0 91.87413699672337,24.93725007866664,0 91.8741529018601,24.93739099258246,0 91.87411052737889,24.9379196651861,0 91.87410411648324,24.93798100823595,0 91.8739923215588,24.93840915838194,0 91.87364564310714,24.93847700550611,0 91.87348826592037,24.93856027842054,0 91.8730679333286,24.93891736428934,0 91.87305208751535,24.93894238012482,0 91.87289259792465,24.93935599369172,0 91.8728764923552,24.9393803684058,0 91.87249023745719,24.93996672387329,0 91.87262993861323,24.94064013207155,0 91.87197378030949,24.94074272657239,0 91.87186082333145,24.94041451298936,0 91.87137122813834,24.94003850823241,0 91.87119412189762,24.93980699210466,0 91.87091538249406,24.93945354734264,0 91.87064669972763,24.93911237010796,0 91.87076557070461,24.93824305299157,0 91.87134618156648,24.93771512408918,0 91.87096039225503,24.93747587982481,0 91.87079939220374,24.93738875336209,0 91.87004892881902,24.9369636188335,0 91.86983492318188,24.93684662773305,0 91.86984964522027,24.93633976162501,0 91.87019856118104,24.93619948396294,0 91.87041883300985,24.93575668121241,0 91.87039739508019,24.93567773577158,0 91.87052111601956,24.93521802435179,0 91.87039780838114,24.9346865856343,0 91.86898793454806,24.93444315699336,0 91.86791501344118,24.93529165013321,0 91.86757150530649,24.93503783434514,0 91.867453638111,24.9349400450838,0 91.86741616335757,24.93488633532355,0 91.867207475678,24.93453982953465,0 91.86718612267771,24.93446181800312,0 91.86705058045031,24.93411814725817,0 91.86676145078246,24.93372870726233,0 91.86642401076497,24.933308225332,0 91.86629207740074,24.93317329085544,0 91.86612427097603,24.93275666926086,0 91.86588199135274,24.93262523415766,0 91.86577428717317,24.93256680482843,0 91.86537027270752,24.93234758099471,0 91.86523568468759,24.93227451188367,0 91.86497932299632,24.9318358996046,0 91.86489806354271,24.93179203521662,0 91.86487290315087,24.93111510138103,0 91.86414258527365,24.93078366103784,0 91.86337521892123,24.93112490688803,0 91.86317042690057,24.93144136828545,0 91.86221665814284,24.93147578041421,0 91.86099223449332,24.93137747853064,0 91.86037109648981,24.93172733147008,0 91.85937984309636,24.93176082157912,0 91.85871927299243,24.93093817154065,0 91.85823248046226,24.93007700979061,0 91.85768798617757,24.92943343770166,0 91.85724391978383,24.92894885842322,0 
					</coordinates>
				</LinearRing>
			</outerBoundaryIs>
		</Polygon>
		<atom:link rel="app" href="https://www.google.com/earth/about/versions/#earth-pro" title="Google Earth Pro 7.3.7.1155"></atom:link>
	</Placemark>
</Document>
</kml>
