<?xml version="1.0" encoding="UTF-8"?>
<kml xmlns="http://www.opengis.net/kml/2.2" xmlns:gx="http://www.google.com/kml/ext/2.2" xmlns:kml="http://www.opengis.net/kml/2.2" xmlns:atom="http://www.w3.org/2005/Atom">
<Document>
	<name>tea9.kml</name>
	<StyleMap id="cand">
		<Pair>
			<key>normal</key>
			<styleUrl>#cand1</styleUrl>
		</Pair>
		<Pair>
			<key>highlight</key>
			<styleUrl>#cand0</styleUrl>
		</Pair>
	</StyleMap>
	<Style id="cand0">
		<LineStyle>
			<color>ff00a5ff</color>
			<width>2</width>
		</LineStyle>
		<PolyStyle>
			<color>0000a5ff</color>
		</PolyStyle>
	</Style>
	<Style id="cand1">
		<LineStyle>
			<color>ff00a5ff</color>
			<width>2</width>
		</LineStyle>
		<PolyStyle>
			<color>0000a5ff</color>
		</PolyStyle>
	</Style>
	<Placemark>
		<name>tea9</name>
		<styleUrl>#cand</styleUrl>
		<Polygon>
			<tessellate>1</tessellate>
			<outerBoundaryIs>
				<LinearRing>
					<coordinates>
						91.88665776227249,24.94397045788884,0 91.8869809110862,24.94383270928417,0 91.88661408279602,24.94332045772829,0 91.88659005252192,24.94330715419541,0 91.88641831072378,24.94306387202935,0 91.88637114640338,24.9430366968238,0 91.88626822083039,24.94247725763031,0 91.88595569416249,24.94176225779647,0 91.88581222138851,24.94157000589249,0 91.88574183917301,24.9415327068222,0 91.88570232205224,24.94142311017441,0 91.88565094098496,24.94130828182345,0 91.88561879394341,24.94119059370751,0 91.88556500555222,24.94109872667607,0 91.88552222015844,24.94105221147025,0 91.88549926135342,24.94103975379512,0 91.88546727286436,24.94084841323343,0 91.88543838227724,24.94076940237252,0 91.88540763818524,24.94071094619043,0 91.88539851286666,24.94066580217551,0 91.88538859506265,24.94062138052222,0 91.88539023741163,24.94043539934077,0 91.88539029657446,24.94038035948789,0 91.88537853748208,24.94035626423028,0 91.88588515591152,24.93993941521463,0 91.88586438556732,24.9398699123083,0 91.88578651934246,24.93966848435759,0 91.88572679580199,24.93959516220324,0 91.88567345015089,24.93955258090696,0 91.88562022583226,24.93951009664563,0 91.88556791649859,24.93947976457079,0 91.88549396083907,24.93945025216701,0 91.88529724528966,24.93938110758329,0 91.88516417791318,24.93937323841635,0 91.88511126933315,24.93935486947966,0 91.88502590201281,24.9393183682192,0 91.88494019152127,24.93928191744144,0 91.88490341060236,24.93926627901156,0 91.88466386047003,24.93898818989657,0 91.88453514216833,24.93891609227286,0 91.88447416842567,24.93887834672942,0 91.88443400723483,24.93885296750883,0 91.88440347012191,24.93883415703229,0 91.884255079448,24.93873291553518,0 91.88418832736126,24.9387146240158,0 91.88407286698104,24.93872440356074,0 91.88392517772266,24.93875997114375,0 91.88374018453817,24.93878476111517,0 91.88367311443605,24.93878248690953,0 91.88362957591838,24.9387748634945,0 91.88346320629383,24.93862520808193,0 91.88325242416332,24.93818539166126,0 91.88316030444763,24.93814019985493,0 91.8830796350278,24.93810062475244,0 91.88301231329589,24.9380500632966,0 91.8829237545864,24.93779459168005,0 91.88293279076704,24.93772888828965,0 91.88303490314811,24.93751264191818,0 91.88303055261851,24.93742811665453,0 91.88303476327445,24.93738093500044,0 91.88300311565511,24.93734831947578,0 91.88294349217912,24.93722752339972,0 91.88294913472259,24.93719558285217,0 91.88292893311025,24.93712970587952,0 91.88290315942427,24.93709574151322,0 91.88288757781287,24.93706768055514,0 91.88276116915725,24.93666513439769,0 91.88277084968834,24.93661897738912,0 91.88312308095001,24.93630080550318,0 91.88327567956864,24.9361750606515,0 91.88333136073167,24.93606677233355,0 91.88335036432758,24.93602879693762,0 91.88334057165714,24.93597455421496,0 91.88401634347468,24.93555563274816,0 91.88407418575977,24.93553441200326,0 91.88422767517794,24.93553321541786,0 91.88429148123062,24.93551795025849,0 91.88437043101109,24.93548769250074,0 91.88452020945019,24.93556680446217,0 91.88455656811843,24.93558805778438,0 91.88461337614351,24.9356194258156,0 91.88512718189202,24.93564709891519,0 91.88547828380932,24.93555409342787,0 91.88593148609039,24.93553304409066,0 91.88599174755232,24.93553103967706,0 91.88636419362882,24.93548619942129,0 91.88649776582493,24.93545447856342,0 91.88677373849212,24.93531831007269,0 91.88686017460259,24.93529870874485,0 91.88699283032167,24.93526587804127,0 91.88723433893399,24.93528071539289,0 91.88734891641653,24.93528228840298,0 91.88775197137366,24.93519666909639,0 91.88791851350474,24.93517570600403,0 91.88805030718851,24.93515977935813,0 91.88812005344781,24.93516124741939,0 91.88814120496146,24.93517681157125,0 91.88820179028718,24.93520506709498,0 91.8883652747493,24.9351998486942,0 91.8884198665539,24.93519805951099,0 91.88851771544262,24.93519547429845,0 91.8885829818467,24.93518548399826,0 91.88874608289089,24.93521430290645,0 91.88880145059615,24.93524149700295,0 91.88908511393477,24.93529596722707,0 91.88915591293895,24.9352910345335,0 91.88918068774451,24.93529305096882,0 91.88955265994899,24.93525323215066,0 91.88981903458422,24.93501914156946,0 91.88994196388887,24.93507248929204,0 91.89005407433548,24.93517770342254,0 91.89007256553222,24.93519349028281,0 91.89015607303656,24.93534133855592,0 91.89016795484338,24.93536480743959,0 91.89019971238726,24.93546328368399,0 91.89020947912728,24.93547980809069,0 91.89020706513399,24.93566321585015,0 91.89019599350374,24.93568965865603,0 91.89019467647233,24.9358325003816,0 91.89030930625604,24.9360326903281,0 91.89036901889455,24.936258036044,0 91.89049855624884,24.93646675977498,0 91.88960252401058,24.93626300969182,0 91.88965864476384,24.93627636238786,0 91.88972480676779,24.93631218882246,0 91.8898837003044,24.93644306212788,0 91.88992042772043,24.9364812290564,0 91.88997637676943,24.93652858614123,0 91.88999139451811,24.93653989329964,0 91.89013454253798,24.93664135956517,0 91.8901537126837,24.93666442101127,0 91.89019110412835,24.93671128586331,0 91.89025885581725,24.93693740728472,0 91.89026253333866,24.93696418324734,0 91.89026119422633,24.93701275917222,0 91.89023424132129,24.93715662181795,0 91.89022781174474,24.93716468976002,0 91.89003620190795,24.93741553057947,0 91.89002170296369,24.93743307442627,0 91.88999261367236,24.93746826949831,0 91.88964185584885,24.93772880026438,0 91.88942494613451,24.9381909608656,0 91.88951526718874,24.93814763540551,0 91.88954903373602,24.93812375117852,0 91.8896348490358,24.93811929972604,0 91.88968782488064,24.93815421110246,0 91.889738246306,24.93819445485128,0 91.88999516171458,24.9383922962232,0 91.8900277825521,24.93842116851723,0 91.89002248043438,24.93844553468734,0 91.89021780354351,24.93862483709454,0 91.8898940925242,24.93905648381525,0 91.88988849577677,24.93908221847659,0 91.88981893166671,24.93949034846257,0 91.88985073341442,24.93952334279719,0 91.89016445536149,24.93950144741536,0 91.89028632692779,24.93947376665274,0 91.89037258456887,24.93948814404806,0 91.89042985191661,24.93946673990596,0 91.89056580787039,24.93926392359156,0 91.89056064965321,24.93921674468119,0 91.89064581867572,24.93904401290631,0 91.89084639445943,24.93888244255353,0 91.89084535692398,24.93895895414197,0 91.89093445583542,24.93903812253685,0 91.89124506495729,24.93897283951449,0 91.89140053028609,24.93905145119137,0 91.89139258727388,24.93906297466733,0 91.89123710137554,24.9392705410976,0 91.89120606121821,24.93929647009377,0 91.89109970139897,24.93935415465372,0 91.89080687356388,24.9396414859897,0 91.89075306675886,24.93969948161752,0 91.89071272656736,24.93973782284685,0 91.89035440036265,24.94031543838698,0 91.89065298621205,24.94022711964734,0 91.89069496482639,24.94020613279082,0 91.89083055164697,24.94018965974296,0 91.89087200960179,24.94014853113421,0 91.89098855423339,24.94011787260101,0 91.89104223253322,24.9400577820444,0 91.89108570124434,24.9399925444457,0 91.89157992774838,24.93993411649881,0 91.8915643797714,24.94006222973976,0 91.89125794482737,24.94039370598367,0 91.89122991001527,24.94047939963804,0 91.89121359408514,24.94052580859205,0 91.89119754676439,24.94057183094717,0 91.89120104084901,24.94073683046987,0 91.89110747210785,24.94071168067836,0 91.89102291112779,24.94069355157513,0 91.89097946044214,24.94067532727271,0 91.8909396430231,24.940672722949,0 91.89054252007098,24.94080815573626,0 91.89054507595868,24.94082554276699,0 91.89050501134761,24.94088574500787,0 91.89029635792423,24.94124278999566,0 91.89028925367644,24.94125349637586,0 91.89022030386674,24.94129224090067,0 91.89021247583068,24.94113122480301,0 91.89016587116612,24.94109341210098,0 91.88970708771484,24.94079040020817,0 91.88959023456304,24.94076885256374,0 91.88949057607122,24.94076443858209,0 91.88925747311225,24.94076097528491,0 91.8891701335159,24.94081894630935,0 91.88910136386409,24.94085142081548,0 91.88877918096222,24.9411266486175,0 91.8887612357467,24.94115101451876,0 91.88871189022798,24.94119681600873,0 91.88858371957629,24.94157872045841,0 91.88857597743493,24.94158961594675,0 91.88875516623496,24.94181012137948,0 91.88881203246009,24.94186006417279,0 91.88881465279188,24.94187816530745,0 91.88903943166808,24.9422838244356,0 91.88904474798386,24.94234339627389,0 91.8894659102526,24.94256227057071,0 91.89001475440585,24.94255598137092,0 91.89017339173871,24.94249417952456,0 91.89019670561306,24.94250423890495,0 91.89078580097755,24.94221520523245,0 91.89086936125618,24.94214857354345,0 91.8911231477077,24.9420084305954,0 91.89120982470453,24.94198097333627,0 91.89150409518304,24.94174065510876,0 91.89166935207113,24.94147311040176,0 91.89172026834552,24.94138108150894,0 91.89217570769591,24.94113329820749,0 91.89222893123333,24.94113274323441,0 91.89302062595911,24.94131890286353,0 91.89304808774251,24.94134303868944,0 91.89282426613934,24.94169565726945,0 91.89259367942323,24.9422693409522,0 91.89257300537412,24.94264428827952,0 91.89256141374861,24.94272502973175,0 91.89261930213054,24.94300307853305,0 91.89261473097548,24.94304071379341,0 91.89244432050643,24.94340917238969,0 91.89195968966065,24.94385353929858,0 91.89190025257065,24.94391134204918,0 91.89184809667752,24.9439549940562,0 91.89166046386592,24.94451158070767,0 91.89156713911279,24.94501933383259,0 91.89118703781092,24.94510893720599,0 91.89080684540464,24.94475987370042,0 91.889894711946,24.94476442384955,0 91.8893901726935,24.94473132399313,0 91.88937655843594,24.9443620971719,0 91.88884637959691,24.94401043459154,0 91.88835577303857,24.94428863375955,0 91.88728293646926,24.9442928858527,0 91.88665776227249,24.94397045788884,0 
					</coordinates>
				</LinearRing>
			</outerBoundaryIs>
		</Polygon>
		<atom:link rel="app" href="https://www.google.com/earth/about/versions/#earth-pro" title="Google Earth Pro 7.3.7.1155"></atom:link>
	</Placemark>
</Document>
</kml>
